Home School DBN,Home School Name,Home School Address,City,Zip Code,Summer School Site 1,Summer School Site Address,City,Zip Code,Summer School Site 2,Summer School Site Address,City,Zip Code
01M015,P.S. 015 Roberto Clemente,333 EAST 4 STREET,MANHATTAN,10009,M020,166 ESSEX STREET,MANHATTAN,10002,,,,
01M019,P.S. 019 Asher Levy,185 1 AVENUE,MANHATTAN,10003,M064,600 EAST 6 STREET,MANHATTAN,10009,,,,
01M020,P.S. 020 Anna Silver,166 ESSEX STREET,MANHATTAN,10002,M020,166 ESSEX STREET,MANHATTAN,10002,,,,
01M034,P.S. 034 Franklin D. Roosevelt,730 EAST 12 STREET,MANHATTAN,10009,M020,166 ESSEX STREET,MANHATTAN,10002,M025,145 STANTON STREET,MANHATTAN,10002
01M063,The STAR Academy - P.S.63,121 EAST 3 STREET,MANHATTAN,10009,M064,600 EAST 6 STREET,MANHATTAN,10009,,,,
01M064,P.S. 064 Robert Simon,600 EAST 6 STREET,MANHATTAN,10009,M064,600 EAST 6 STREET,MANHATTAN,10009,,,,
01M110,P.S. 110 Florence Nightingale,285 DELANCY STREET,MANHATTAN,10002,M020,166 ESSEX STREET,MANHATTAN,10002,,,,
01M134,P.S. 134 Henrietta Szold,293 EAST BROADWAY,MANHATTAN,10002,M142,100 ATTORNEY STREET,MANHATTAN,10002,,,,
01M137,P.S. 137 John L. Bernstein,293 EAST BROADWAY,MANHATTAN,10002,M142,100 ATTORNEY STREET,MANHATTAN,10002,,,,
01M140,P.S. 140 Nathan Straus,123 RIDGE STREET,MANHATTAN,10002,M142,100 ATTORNEY STREET,MANHATTAN,10002,M025,145 STANTON STREET,MANHATTAN,10002
01M142,P.S. 142 Amalia Castro,100 ATTORNEY STREET,MANHATTAN,10002,M142,100 ATTORNEY STREET,MANHATTAN,10002,,,,
01M184,P.S. 184m Shuang Wen,327 CHERRY STREET,MANHATTAN,10002,M020,166 ESSEX STREET,MANHATTAN,10002,M131,100 HESTER STREET,MANHATTAN,10002
01M188,P.S. 188 The Island School,442 EAST HOUSTON STREET,MANHATTAN,10002,M188,442 EAST HOUSTON STREET,MANHATTAN,10002,,,,
01M292,Henry Street School for International Studies,220 HENRY STREET,MANHATTAN,10002,M025,145 STANTON STREET,MANHATTAN,10002,,,,
01M301,"Technology, Arts, and Sciences Studio",185 1 AVENUE,MANHATTAN,10003,M104,330 EAST 21 STREET,MANHATTAN,10010,,,,
01M315,The East Village Community School,610 EAST 12 STREET,MANHATTAN,10009,M020,166 ESSEX STREET,MANHATTAN,10002,,,,
01M332,University Neighborhood Middle School,220 HENRY STREET,MANHATTAN,10002,M025,145 STANTON STREET,MANHATTAN,10002,,,,
01M345,"Collaborative Academy of Science, Technology, & Language-Arts Education",220 HENRY STREET,MANHATTAN,10002,M025,145 STANTON STREET,MANHATTAN,10002,,,,
01M361,The Children's Workshop School,610 EAST 12 STREET,MANHATTAN,10009,M064,600 EAST 6 STREET,MANHATTAN,10009,M020,166 ESSEX STREET,MANHATTAN,10002
01M363,Neighborhood School,121 EAST 3 STREET,MANHATTAN,10009,M020,166 ESSEX STREET,MANHATTAN,10002,,,,
01M364,Earth School,600 EAST 6 STREET,MANHATTAN,10009,M020,166 ESSEX STREET,MANHATTAN,10002,,,,
01M378,School for Global Leaders,145 STANTON STREET,MANHATTAN,10002,M025,145 STANTON STREET,MANHATTAN,10002,,,,
01M448,University Neighborhood High School,200 MONROE STREET,MANHATTAN,10002,M475,345 EAST 15TH STREET,MANHATTAN,10003,,,,
01M450,East Side Community School,420 EAST 12 STREET,MANHATTAN,10009,M104,330 EAST 21 STREET,MANHATTAN,10010,M025,145 STANTON STREET,MANHATTAN,10002
01M458,Forsyth Satellite Academy,198 FORSYTH STREET,MANHATTAN,10002,M025,145 STANTON STREET,MANHATTAN,10002,,,,
01M509,Marta Valle High School,145 STANTON STREET,MANHATTAN,10002,M025,145 STANTON STREET,MANHATTAN,10002,,,,
01M515,Lower East Side Preparatory High School,145 STANTON STREET,MANHATTAN,10002,M025,145 STANTON STREET,MANHATTAN,10002,,,,
01M539,"New Explorations into Science, Technology and Math High School",111 COLUMBIA STREET,MANHATTAN,10002,M540,443 WEST 135 STREET,MANHATTAN,10031,M104,330 EAST 21 STREET,MANHATTAN,10010
01M650,Cascades High School,198 FORSYTH STREET,MANHATTAN,10002,M510,198 FORSYTH STREET,MANHATTAN,10002,,,,
01M696,Bard High School Early College,525 EAST HOUSTON STREET,MANHATTAN,10002,M477,345 CHAMBERS STREET,MANHATTAN,10282,,,,
01M839,Tompkins Square Middle School,600 EAST 6 STREET,MANHATTAN,10009,M104,330 EAST 21 STREET,MANHATTAN,10010,,,,
02M001,P.S. 001 Alfred E. Smith,8 HENRY STREET,MANHATTAN,10038,M124,40 DIVISION STREET,MANHATTAN,10002,,,,
02M002,P.S. 002 Meyer London,122 HENRY STREET,MANHATTAN,10002,M124,40 DIVISION STREET,MANHATTAN,10002,,,,
02M003,P.S. 003 Charrette School,490 HUDSON STREET,MANHATTAN,10014,M124,40 DIVISION STREET,MANHATTAN,10002,,,,
02M006,P.S. 006 Lillie D. Blake,45 EAST 81 STREET,MANHATTAN,10028,M124,40 DIVISION STREET,MANHATTAN,10002,,,,
02M011,P.S. 011 William T. Harris,320 WEST 21 STREET,MANHATTAN,10011,M111,440 WEST 53 STREET,MANHATTAN,10019,,,,
02M033,P.S. 033 Chelsea Prep,281 9 AVENUE,MANHATTAN,10001,M111,440 WEST 53 STREET,MANHATTAN,10019,,,,
02M040,P.S. 040 Augustus Saint-Gaudens,319 EAST 19 STREET,MANHATTAN,10003,M124,40 DIVISION STREET,MANHATTAN,10002,,,,
02M041,P.S. 041 Greenwich Village,116 WEST 11 STREET,MANHATTAN,10011,M111,440 WEST 53 STREET,MANHATTAN,10019,,,,
02M042,P.S. 042 Benjamin Altman,71 HESTER STREET,MANHATTAN,10002,M124,40 DIVISION STREET,MANHATTAN,10002,,,,
02M047,47 The American Sign Language and English Secondary School,223 EAST 23 STREET,MANHATTAN,10010,M475,345 EAST 15TH STREET,MANHATTAN,10003,,,,
02M051,P.S. 051 Elias Howe,525 WEST 44TH STREET,MANHATTAN,10036,M111,440 WEST 53 STREET,MANHATTAN,10019,,,,
02M059,P.S. 059 Beekman Hill International,231-249 EAST 56 STREET,MANHATTAN,10019,M124,40 DIVISION STREET,MANHATTAN,10002,,,,
02M104,J.H.S. 104 Simon Baruch,330 EAST 21 STREET,MANHATTAN,10010,M104,330 EAST 21 STREET,MANHATTAN,10010,,,,
02M111,P.S. 111 Adolph S. Ochs,440 WEST 53 STREET,MANHATTAN,10019,M111,440 WEST 53 STREET,MANHATTAN,10019,,,,
02M114,East Side Middle School,331 EAST 91ST STREET,MANHATTAN,10128,M104,330 EAST 21 STREET,MANHATTAN,10010,,,,
02M116,P.S. 116 Mary Lindley Murray,210 EAST 33 STREET,MANHATTAN,10016,M124,40 DIVISION STREET,MANHATTAN,10002,,,,
02M124,P.S. 124 Yung Wing,40 DIVISION STREET,MANHATTAN,10002,M124,40 DIVISION STREET,MANHATTAN,10002,,,,
02M126,P.S. 126 Jacob August Riis,80 CATHERINE STREET,MANHATTAN,10038,M124,40 DIVISION STREET,MANHATTAN,10002,M131,100 HESTER STREET,MANHATTAN,10002
02M130,P.S. 130 Hernando De Soto,143 BAXTER STREET,MANHATTAN,10013,M124,40 DIVISION STREET,MANHATTAN,10002,,,,
02M131,M.S. 131,100 HESTER STREET,MANHATTAN,10002,M131,100 HESTER STREET,MANHATTAN,10002,,,,
02M135,The Urban Assembly School for Emergency Management,439 WEST 49TH STREET,MANHATTAN,10019,X460,244 EAST 163 STREET,BRONX,10451,,,,
02M139,Stephen T. Mather Building Arts & Craftsmanship High School,411 PEARL STREET,MANHATTAN,10038,M520,411 PEARL STREET,MANHATTAN,10038,,,,
02M150,P.S. 150,334 GREENWICH STREET,MANHATTAN,10013,M124,40 DIVISION STREET,MANHATTAN,10002,,,,
02M151,Yorkville Community School,421 EAST 88 STREET,MANHATTAN,10128,M124,40 DIVISION STREET,MANHATTAN,10002,,,,
02M158,P.S. 158 Bayard Taylor,1458 YORK AVENUE,MANHATTAN,10075,M124,40 DIVISION STREET,MANHATTAN,10002,,,,
02M167,J.H.S. 167 Robert F. Wagner,220 EAST 76 STREET,MANHATTAN,10021,M104,330 EAST 21 STREET,MANHATTAN,10010,,,,
02M183,P.S. 183 Robert L. Stevenson,419 EAST 66 STREET,MANHATTAN,10065,M124,40 DIVISION STREET,MANHATTAN,10002,,,,
02M198,P.S. 198 Isador E. Ida Straus,1700 3 AVENUE,MANHATTAN,10128,M101,141 EAST 111 STREET,MANHATTAN,10029,,,,
02M212,P.S. 212 Midtown West,328 WEST 48 STREET,MANHATTAN,10036,M111,440 WEST 53 STREET,MANHATTAN,10019,,,,
02M217,P.S./I.S. 217 Roosevelt Island,645 MAIN STREET,MANHATTAN,10044,M124,40 DIVISION STREET,MANHATTAN,10002,M104,330 EAST 21 STREET,MANHATTAN,10010
02M234,P.S. 234 Independence School,292 GREENWICH STREET,MANHATTAN,10007,M124,40 DIVISION STREET,MANHATTAN,10002,,,,
02M255,M.S. 255 Salk School of Science,319 EAST 19 STREET,MANHATTAN,10003,M104,330 EAST 21 STREET,MANHATTAN,10010,,,,
02M260,M.S. 260 Clinton School Writers & Artists,425 WEST 33RD STREET,MANHATTAN,10001,M104,330 EAST 21 STREET,MANHATTAN,10010,,,,
02M267,"East Side Elementary School, PS 267",213 EAST 63RD STREET,MANHATTAN,10065,M111,440 WEST 53 STREET,MANHATTAN,10019,,,,
02M276,BATTERY PARK CITY SCHOOL,55 BATTERY PLACE,MANHATTAN,10001,M111,440 WEST 53 STREET,MANHATTAN,10019,,,,
02M288,Food and Finance High School,525 WEST 50TH STREET,MANHATTAN,10019,M490,122 AMSTERDAM AVENUE,MANHATTAN,10023,,,,
02M289,I.S. 289,201 WARREN STREET,MANHATTAN,10282,M104,330 EAST 21 STREET,MANHATTAN,10010,,,,
02M290,P.S. 290 Manhattan New School,311 EAST 82 STREET,MANHATTAN,10028,M146,421 EAST 106 STREET,MANHATTAN,10029,,,,
02M294,Essex Street Academy,350 GRAND STREET,MANHATTAN,10002,M475,345 EAST 15TH STREET,MANHATTAN,10003,,,,
02M296,High School of Hospitality Management,525 WEST 50TH STREET,MANHATTAN,10019,M490,122 AMSTERDAM AVENUE,MANHATTAN,10023,,,,
02M298,Pace High School,100 HESTER STREET,MANHATTAN,10002,M131,100 HESTER STREET,MANHATTAN,10002,,,,
02M300,"Urban Assembly School of Design and Construction, The",525 WEST 50TH STREET,MANHATTAN,10019,M490,122 AMSTERDAM AVENUE,MANHATTAN,10023,,,,
02M303,"Facing History School, The",525 WEST 50TH STREET,MANHATTAN,10019,M470,145 WEST 84 STREET,MANHATTAN,10024,,,,
02M305,"Urban Assembly Academy of Government and Law, The",350 GRAND STREET,MANHATTAN,10002,M490,122 AMSTERDAM AVENUE,MANHATTAN,10023,,,,
02M308,Lower Manhattan Arts Academy,350 GRAND STREET,MANHATTAN,10002,M477,345 CHAMBERS STREET,MANHATTAN,10282,,,,
02M312,New York City Lab Middle School for Collaborative Studies,333 WEST 17 STREET,MANHATTAN,10011,M486,120 WEST 46 STREET,MANHATTAN,10036,,,,
02M313,"James Baldwin School, The: A School for Expeditionary Learning",351 WEST 18 STREET,MANHATTAN,10011,M440,351 WEST 18 STREET,MANHATTAN,10011,,,,
02M316,"Urban Assembly School of Business for Young Women, the",26 BROADWAY,MANHATTAN,10004,M490,122 AMSTERDAM AVENUE,MANHATTAN,10023,,,,
02M347,The 47 American Sign Language & English Lower School,223 EAST 23 STREET,MANHATTAN,10010,M104,330 EAST 21 STREET,MANHATTAN,10010,,,,
02M374,Gramercy Arts High School,40 IRVING PLACE,MANHATTAN,10003,M600,225 WEST 24 STREET,MANHATTAN,10011,,,,
02M376,NYC iSchool,131 AVENUE OF THE AMERICAS,MANHATTAN,10013,M131,100 HESTER STREET,MANHATTAN,10002,,,,
02M392,MANHATTAN BUSINESS ACADEMY,351 WEST 18 STREET,MANHATTAN,10011,M440,351 WEST 18 STREET,MANHATTAN,10011,,,,
02M393,BUSINESS OF SPORTS SCHOOL,439 WEST 49TH STREET,MANHATTAN,10019,M625,439 WEST 49TH STREET,MANHATTAN,10019,,,,
02M394,EMMA LAZARUS HIGH SCHOOL,100 HESTER STREET,MANHATTAN,10002,M131,100 HESTER STREET,MANHATTAN,10002,,,,
02M397,SPRUCE STREET SCHOOL,12 SPRUCE STREET,MANHATTAN,10018,M124,40 DIVISION STREET,MANHATTAN,10002,,,,
02M399,THE HIGH SCHOOL FOR LANGUAGE AND DIPLOMACY,40 IRVING PLACE,MANHATTAN,10003,M600,225 WEST 24 STREET,MANHATTAN,10011,,,,
02M400,High School for Environmental Studies,444 WEST 56 STREET,MANHATTAN,10019,M834,444 WEST 56 STREET,MANHATTAN,10019,,,,
02M407,Institute for Collaborative Education,345 EAST 15TH STREET,MANHATTAN,10003,M475,345 EAST 15TH STREET,MANHATTAN,10003,,,,
02M408,Professional Performing Arts High School,328 WEST 48 STREET,MANHATTAN,10036,M834,444 WEST 56 STREET,MANHATTAN,10019,,,,
02M411,Baruch College Campus High School,55 EAST 25 STREET,MANHATTAN,10010,M833,100 TRINITY PLACE,MANHATTAN,10006,,,,
02M412,N.Y.C. Lab School for Collaborative Studies,333 WEST 17 STREET,MANHATTAN,10011,M486,120 WEST 46 STREET,MANHATTAN,10036,,,,
02M413,School of the Future High School,127 EAST 22 STREET,MANHATTAN,10010,M660,127 EAST 22 STREET,MANHATTAN,10010,M104,330 EAST 21 STREET,MANHATTAN,10010
02M414,N.Y.C. Museum School,333 WEST 17 STREET,MANHATTAN,10011,M834,444 WEST 56 STREET,MANHATTAN,10019,,,,
02M416,Eleanor Roosevelt High School,411 EAST 76 STREET,MANHATTAN,10021,M477,345 CHAMBERS STREET,MANHATTAN,10282,,,,
02M418,Millennium High School,75 BROAD STREET,MANHATTAN,10004,M833,100 TRINITY PLACE,MANHATTAN,10006,,,,
02M419,Landmark High School,351 WEST 18 STREET,MANHATTAN,10011,M440,351 WEST 18 STREET,MANHATTAN,10011,,,,
02M420,High School for Health Professions and Human Services,345 EAST 15TH STREET,MANHATTAN,10003,M475,345 EAST 15TH STREET,MANHATTAN,10003,,,,
02M422,Quest to Learn,351 WEST 18 STREET,MANHATTAN,10011,M600,225 WEST 24 STREET,MANHATTAN,10011,M111,440 WEST 53 STREET,MANHATTAN,10019
02M425,Leadership and Public Service High School,90 TRINITY PLACE,MANHATTAN,10006,M833,100 TRINITY PLACE,MANHATTAN,10006,,,,
02M427,MANHATTAN ACADEMY FOR ARTS & LANGUAGE,111 EAST 33RD STREET,MANHATTAN,10016,M470,145 WEST 84 STREET,MANHATTAN,10024,,,,
02M429,Legacy School for Integrated Studies,34 WEST 14 STREET,MANHATTAN,10011,M600,225 WEST 24 STREET,MANHATTAN,10011,,,,
02M432,Murray Hill Academy,111 EAST 33RD STREET,MANHATTAN,10016,M600,225 WEST 24 STREET,MANHATTAN,10011,,,,
02M438,International High School at Union Square,40 IRVING PLACE,MANHATTAN,10003,M475,345 EAST 15TH STREET,MANHATTAN,10003,,,,
02M439,Manhattan Village Academy,43 WEST 22 STREET,MANHATTAN,10010,M475,345 EAST 15TH STREET,MANHATTAN,10003,,,,
02M442,"Ballet Tech, NYC Public School for Dance",890 BROADWAY,MANHATTAN,10003,M111,440 WEST 53 STREET,MANHATTAN,10019,,,,
02M449,Vanguard High School,317 EAST 67 STREET,MANHATTAN,10065,M480,317 EAST 67 STREET,MANHATTAN,10065,,,,
02M459,Manhattan International High School,317 EAST 67 STREET,MANHATTAN,10065,M480,317 EAST 67 STREET,MANHATTAN,10065,,,,
02M460,Washington Irving High School,40 IRVING PLACE,MANHATTAN,10003,M661,240 2 AVENUE,MANHATTAN,10003,,,,
02M473,Washington Irving Yabc,40 IRVING PLACE,MANHATTAN,10003,M661,240 2 AVENUE,MANHATTAN,10003,,,,
02M475,Stuyvesant High School,345 CHAMBERS STREET,MANHATTAN,10282,M477,345 CHAMBERS STREET,MANHATTAN,10282,,,,
02M489,High School of Economics and Finance,100 TRINITY PLACE,MANHATTAN,10006,M833,100 TRINITY PLACE,MANHATTAN,10006,,,,
02M500,Unity Center for Urban Technologies,111 EAST 33RD STREET,MANHATTAN,10016,M470,145 WEST 84 STREET,MANHATTAN,10024,,,,
02M507,Urban Assembly Gateway School for Technology,439 WEST 49TH STREET,MANHATTAN,10019,M625,439 WEST 49TH STREET,MANHATTAN,10019,,,,
02M519,Talent Unlimited High School,317 EAST 67 STREET,MANHATTAN,10065,M480,317 EAST 67 STREET,MANHATTAN,10065,,,,
02M520,Murry Bergtraum High School for Business Careers,411 PEARL STREET,MANHATTAN,10038,M520,411 PEARL STREET,MANHATTAN,10038,,,,
02M529,Jacqueline Kennedy Onassis High School,120 WEST 46 STREET,MANHATTAN,10036,M486,120 WEST 46 STREET,MANHATTAN,10036,,,,
02M531,Repertory Company High School for Theatre Arts,123 WEST 43 STREET,MANHATTAN,10036,M486,120 WEST 46 STREET,MANHATTAN,10036,,,,
02M533,Union Square Academy for Health Sciences,40 IRVING PLACE,MANHATTAN,10003,M486,120 WEST 46 STREET,MANHATTAN,10036,,,,
02M534,Harvest Collegiate High School,34 WEST 14 STREET,MANHATTAN,10011,M600,225 WEST 24 STREET,MANHATTAN,10011,,,,
02M542,Manhattan Bridges High School,525 WEST 50TH STREET,MANHATTAN,10019,M490,122 AMSTERDAM AVENUE,MANHATTAN,10023,,,,
02M543,New Design High School,350 GRAND STREET,MANHATTAN,10002,M510,198 FORSYTH STREET,MANHATTAN,10002,,,,
02M544,Independence High School,850 10TH AVENUE,MANHATTAN,10019,M834,444 WEST 56 STREET,MANHATTAN,10019,,,,
02M545,High School for Dual Language and Asian Studies,350 GRAND STREET,MANHATTAN,10002,M477,345 CHAMBERS STREET,MANHATTAN,10282,,,,
02M546,Academy for Software Engineering,40 IRVING PLACE,MANHATTAN,10003,M486,120 WEST 46 STREET,MANHATTAN,10036,,,,
02M550,Liberty High School Academy for Newcomers,250 WEST 18 STREET,MANHATTAN,10011,M451,250 WEST 18 STREET,MANHATTAN,10011,,,,
02M551,Urban Assembly New York Harbor School,"10 SOUTH STREET, SLIP 7",MANHATTAN,10004,M877,"10 SOUTH STREET, SLIP 7",MANHATTAN,10004,,,,
02M560,High School M560 - City As School,16 CLARKSON STREET,MANHATTAN,10014,M661,240 2 AVENUE,MANHATTAN,10003,,,,
02M570,Satellite Academy High School,120 WEST 30 STREET,MANHATTAN,10001,M920,120 WEST 30 STREET,MANHATTAN,10001,,,,
02M575,Manhattan Comprehensive Night and Day High School,240 2 AVENUE,MANHATTAN,10003,M661,240 2 AVENUE,MANHATTAN,10003,,,,
02M580,Richard R. Green High School of Teaching,26 BROADWAY,MANHATTAN,10004,M600,225 WEST 24 STREET,MANHATTAN,10011,,,,
02M586,Harvey Milk High School,2-10 ASTOR PLACE,MANHATTAN,10003,K650,257 NORTH 6 STREET,BROOKLYN,11211,,,,
02M600,The High School of Fashion Industries,225 WEST 24 STREET,MANHATTAN,10011,M600,225 WEST 24 STREET,MANHATTAN,10011,,,,
02M605,Humanities Preparatory Academy,351 WEST 18 STREET,MANHATTAN,10011,M440,351 WEST 18 STREET,MANHATTAN,10011,,,,
02M615,Chelsea Career and Technical Education High School,131 AVENUE OF THE AMERICAS,MANHATTAN,10013,M131,100 HESTER STREET,MANHATTAN,10002,M615,131 AVENUE OF THE AMERICAS,MANHATTAN,10013
02M620,Norman Thomas High School,111 EAST 33RD STREET,MANHATTAN,10016,M435,260 PLEASANT AVENUE,MANHATTAN,10029,,,,
02M625,High School of Graphic Communication Arts,439 WEST 49TH STREET,MANHATTAN,10019,M625,439 WEST 49TH STREET,MANHATTAN,10019,,,,
02M630,Art and Design High School,231-249 EAST 56 STREET,MANHATTAN,10019,M435,260 PLEASANT AVENUE,MANHATTAN,10029,,,,
02M655,Life Sciences Secondary School,320 EAST 96 STREET,MANHATTAN,10128,M645,320 EAST 96 STREET,MANHATTAN,10128,,,,
02M896,Lower Manhattan Community Middle School,26 BROADWAY,MANHATTAN,10004,M104,330 EAST 21 STREET,MANHATTAN,10010,M131,100 HESTER STREET,MANHATTAN,10002
03M009,P.S. 009 Sarah Anderson,100 WEST 84 STREET,MANHATTAN,10024,M163,163 WEST 97 STREET,MANHATTAN,10025,,,,
03M054,J.H.S. 054 Booker T. Washington,103 WEST 107 STREET,MANHATTAN,10025,M054,103 WEST 107 STREET,MANHATTAN,10025,,,,
03M075,P.S. 075 Emily Dickinson,735 WEST END AVENUE,MANHATTAN,10025,M163,163 WEST 97 STREET,MANHATTAN,10025,,,,
03M076,P.S. 076 A. Philip Randolph,220 WEST 121 STREET,MANHATTAN,10027,M154,250 WEST 127 STREET,MANHATTAN,10027,,,,
03M084,P.S. 084 Lillian Weber,32 WEST 92 STREET,MANHATTAN,10025,M163,163 WEST 97 STREET,MANHATTAN,10025,,,,
03M087,P.S. 087 William Sherman,160 WEST 78 STREET,MANHATTAN,10024,M163,163 WEST 97 STREET,MANHATTAN,10025,,,,
03M145,"P.S. 145, The Bloomingdale School",150 WEST 105 STREET,MANHATTAN,10025,M163,163 WEST 97 STREET,MANHATTAN,10025,,,,
03M149,P.S. 149 Sojourner Truth,41 WEST 117 STREET,MANHATTAN,10026,M154,250 WEST 127 STREET,MANHATTAN,10027,,,,
03M163,P.S. 163 Alfred E. Smith,163 WEST 97 STREET,MANHATTAN,10025,M163,163 WEST 97 STREET,MANHATTAN,10025,,,,
03M165,P.S. 165 Robert E. Simon,234 WEST 109 STREET,MANHATTAN,10025,M054,103 WEST 107 STREET,MANHATTAN,10025,,,,
03M166,P.S. 166 The Richard Rodgers School of The Arts and Technology,132 WEST 89 STREET,MANHATTAN,10024,M163,163 WEST 97 STREET,MANHATTAN,10025,,,,
03M180,P.S. 180 Hugo Newman,370 WEST 120 STREET,MANHATTAN,10027,M161,499 WEST 133 STREET,MANHATTAN,10027,,,,
03M191,P.S. 191 Amsterdam,210 WEST 61 STREET,MANHATTAN,10023,M054,103 WEST 107 STREET,MANHATTAN,10025,,,,
03M199,P.S. 199 Jessie Isador Straus,270 WEST 70 STREET,MANHATTAN,10023,M163,163 WEST 97 STREET,MANHATTAN,10025,,,,
03M208,P.S. 208 Alain L. Locke,21 WEST 111 STREET,MANHATTAN,10026,M154,250 WEST 127 STREET,MANHATTAN,10027,,,,
03M241,STEM Institute of Manhattan,240 WEST 113 STREET,MANHATTAN,10026,M154,250 WEST 127 STREET,MANHATTAN,10027,,,,
03M242,P.S. 242 - The Young Diplomats Magnet Academy,134 WEST 122 STREET,MANHATTAN,10027,M076,220 WEST 121 STREET,MANHATTAN,10027,,,,
03M243,M.S. 243 Center School,100 WEST 84 STREET,MANHATTAN,10024,M054,103 WEST 107 STREET,MANHATTAN,10025,,,,
03M245,M.S. M245 The Computer School,100 WEST 77 STREET,MANHATTAN,10024,M054,103 WEST 107 STREET,MANHATTAN,10025,,,,
03M247,M.S. M247 Dual Language Middle School,32 WEST 92 STREET,MANHATTAN,10025,M054,103 WEST 107 STREET,MANHATTAN,10025,,,,
03M250,M.S. 250 West Side Collaborative Middle School,735 WEST END AVENUE,MANHATTAN,10025,M054,103 WEST 107 STREET,MANHATTAN,10025,,,,
03M256,M.S. 256 Academic & Athletic Excellence,154 WEST 93 STREET,MANHATTAN,10025,M054,103 WEST 107 STREET,MANHATTAN,10025,,,,
03M258,Community Action School - MS 258,154 WEST 93 STREET,MANHATTAN,10025,M054,103 WEST 107 STREET,MANHATTAN,10025,,,,
03M283,Manhattan Theatre Lab High School,122 AMSTERDAM AVENUE,MANHATTAN,10023,M600,225 WEST 24 STREET,MANHATTAN,10011,,,,
03M299,"High School for Arts, Imagination and Inquiry",122 AMSTERDAM AVENUE,MANHATTAN,10023,M490,122 AMSTERDAM AVENUE,MANHATTAN,10023,,,,
03M307,"Urban Assembly School for Media Studies, The",122 AMSTERDAM AVENUE,MANHATTAN,10023,M490,122 AMSTERDAM AVENUE,MANHATTAN,10023,,,,
03M334,The Anderson School,100 WEST 77 STREET,MANHATTAN,10024,M054,103 WEST 107 STREET,MANHATTAN,10025,M163,163 WEST 97 STREET,MANHATTAN,10025
03M402,The Urban Assembly School for Green Careers,145 WEST 84 STREET,MANHATTAN,10024,M470,145 WEST 84 STREET,MANHATTAN,10024,,,,
03M403,The Global Learning Collaborative,145 WEST 84 STREET,MANHATTAN,10024,M470,145 WEST 84 STREET,MANHATTAN,10024,,,,
03M404,Innovation Diploma Plus,145 WEST 84 STREET,MANHATTAN,10024,M470,145 WEST 84 STREET,MANHATTAN,10024,,,,
03M415,Wadleigh Secondary School for the Performing & Visual Arts,215 WEST 114 STREET,MANHATTAN,10026,M540,443 WEST 135 STREET,MANHATTAN,10031,,,,
03M417,FRANK McCOURT HIGH SCHOOL,145 WEST 84 STREET,MANHATTAN,10024,M470,145 WEST 84 STREET,MANHATTAN,10024,,,,
03M421,West Prep Academy,150 WEST 105 STREET,MANHATTAN,10025,M054,103 WEST 107 STREET,MANHATTAN,10025,,,,
03M452,P.S. 452,100 WEST 77 STREET,MANHATTAN,10024,M163,163 WEST 97 STREET,MANHATTAN,10025,,,,
03M479,Beacon High School,227-243 WEST 61ST STREET,MANHATTAN,10023,M465,549 AUDUBON AVENUE,MANHATTAN,10040,,,,
03M485,Fiorello H. LaGuardia High School of Music & Art and Performing Arts,100 AMSTERDAM AVENUE,MANHATTAN,10023,M490,122 AMSTERDAM AVENUE,MANHATTAN,10023,,,,
03M492,"High School for Law, Advocacy and Community Justice",122 AMSTERDAM AVENUE,MANHATTAN,10023,M490,122 AMSTERDAM AVENUE,MANHATTAN,10023,,,,
03M494,High School of Arts and Technology,122 AMSTERDAM AVENUE,MANHATTAN,10023,M490,122 AMSTERDAM AVENUE,MANHATTAN,10023,,,,
03M505,Edward A. Reynolds West Side High School,140 WEST 102 STREET,MANHATTAN,10025,M506,140 WEST 102 STREET,MANHATTAN,10025,,,,
03M541,Manhattan / Hunter Science High School,122 AMSTERDAM AVENUE,MANHATTAN,10023,M490,122 AMSTERDAM AVENUE,MANHATTAN,10023,,,,
03M859,Special Music School,129 WEST 67 STREET,MANHATTAN,10023,M111,440 WEST 53 STREET,MANHATTAN,10019,M490,122 AMSTERDAM AVENUE,MANHATTAN,10023
03M860,Frederick Douglass Academy II Secondary School,215 WEST 114 STREET,MANHATTAN,10026,M970,200-214 WEST 135TH STREET,MANHATTAN,10030,,,,
03M862,Mott Hall II,234 WEST 109 STREET,MANHATTAN,10025,M054,103 WEST 107 STREET,MANHATTAN,10025,,,,
04M007,P.S. 007 Samuel Stern,160 EAST 120 STREET,MANHATTAN,10035,M057,176 EAST 115 STREET,MANHATTAN,10029,NDOE,2180 3rd Ave,New York,10035
04M012,Tag Young Scholars,240 EAST 109 STREET,MANHATTAN,10029,M117,240 EAST 109 STREET,MANHATTAN,10029,,,,
04M013,J.H.S. 013 Jackie Robinson,1573 MADISON AVENUE,MANHATTAN,10029,M013,1573 MADISON AVENUE,MANHATTAN,10029,,,,
04M037,River East Elementary,508 EAST 120 STREET,MANHATTAN,10035,M057,176 EAST 115 STREET,MANHATTAN,10029,,,,
04M038,P.S. 38 Roberto Clemente,232 EAST 103 STREET,MANHATTAN,10029,M146,421 EAST 106 STREET,MANHATTAN,10029,,,,
04M050,P.S. 050 Vito Marcantonio,433 EAST 100 STREET,MANHATTAN,10029,M101,141 EAST 111 STREET,MANHATTAN,10029,M057,176 EAST 115 STREET,MANHATTAN,10029
04M057,James Weldon Johnson,176 EAST 115 STREET,MANHATTAN,10029,M057,176 EAST 115 STREET,MANHATTAN,10029,,,,
04M072,The Lexington Academy,131 EAST 104 STREET,MANHATTAN,10029,M013,1573 MADISON AVENUE,MANHATTAN,10029,,,,
04M083,P.S. 083 Luis Munoz Rivera,219 EAST 109 STREET,MANHATTAN,10029,M057,176 EAST 115 STREET,MANHATTAN,10029,,,,
04M096,P.S. 096 Joseph Lanzetta,216 EAST 120 STREET,MANHATTAN,10035,M057,176 EAST 115 STREET,MANHATTAN,10029,,,,
04M102,P.S. 102 Jacques Cartier,315 EAST 113 STREET,MANHATTAN,10029,M101,141 EAST 111 STREET,MANHATTAN,10029,,,,
04M108,P.S. 108 Assemblyman Angelo Del Toro Educational Complex,1615 MADISON AVENUE,MANHATTAN,10029,M057,176 EAST 115 STREET,MANHATTAN,10029,,,,
04M112,P.S. 112 Jose Celso Barbosa,535 EAST 119 STREET,MANHATTAN,10035,M112,535 EAST 119 STREET,MANHATTAN,10035,,,,
04M146,P.S. 146 Ann M. Short,421 EAST 106 STREET,MANHATTAN,10029,M146,421 EAST 106 STREET,MANHATTAN,10029,,,,
04M155,P.S. 155 William Paca,319 EAST 117 STREET,MANHATTAN,10035,M146,421 EAST 106 STREET,MANHATTAN,10029,,,,
04M171,P.S. 171 Patrick Henry,19 EAST 103 STREET,MANHATTAN,10029,M057,176 EAST 115 STREET,MANHATTAN,10029,,,,
04M182,The Bilingual Bicultural School,219 EAST 109 STREET,MANHATTAN,10029,M057,176 EAST 115 STREET,MANHATTAN,10029,,,,
04M206,P.S. 206 Jose Celso Barbosa,508 EAST 120 STREET,MANHATTAN,10035,M206,508 EAST 120 STREET,MANHATTAN,10035,,,,
04M224,M.S. 224 Manhattan East School for Arts & Academics,410 EAST 100 STREET,MANHATTAN,10029,M117,240 EAST 109 STREET,MANHATTAN,10029,,,,
04M372,ESPERANZA PREPARATORY ACADEMY,240 EAST 109 STREET,MANHATTAN,10029,M117,240 EAST 109 STREET,MANHATTAN,10029,M435,260 PLEASANT AVENUE,MANHATTAN,10029
04M375,Mosaic Preparatory Academy,141 EAST 111 STREET,MANHATTAN,10029,M101,141 EAST 111 STREET,MANHATTAN,10029,,,,
04M377,Renaissance School of the Arts,319 EAST 117 STREET,MANHATTAN,10035,M057,176 EAST 115 STREET,MANHATTAN,10029,,,,
04M381,Global Neighborhood Secondary School,240 EAST 109 STREET,MANHATTAN,10029,M117,240 EAST 109 STREET,MANHATTAN,10029,,,,
04M406,Global Technology Preparatory,160 EAST 120 STREET,MANHATTAN,10035,M057,176 EAST 115 STREET,MANHATTAN,10029,,,,
04M409,Coalition School for Social Change,2351 1ST AVENUE,MANHATTAN,10035,M013,1573 MADISON AVENUE,MANHATTAN,10029,,,,
04M435,Manhattan Center for Science and Mathematics,260 PLEASANT AVENUE,MANHATTAN,10029,M435,260 PLEASANT AVENUE,MANHATTAN,10029,,,,
04M495,Park East High School,230 EAST 105 STREET,MANHATTAN,10029,M013,1573 MADISON AVENUE,MANHATTAN,10029,,,,
04M497,Central Park East I,1573 MADISON AVENUE,MANHATTAN,10029,M013,1573 MADISON AVENUE,MANHATTAN,10029,,,,
04M555,Central Park East High School,1573 MADISON AVENUE,MANHATTAN,10029,M013,1573 MADISON AVENUE,MANHATTAN,10029,,,,
04M610,Young Women's Leadership School,105 EAST 106 STREET,MANHATTAN,10029,M013,1573 MADISON AVENUE,MANHATTAN,10029,,,,
04M635,Academy of Environmental Science Secondary High School,410 EAST 100 STREET,MANHATTAN,10029,M645,320 EAST 96 STREET,MANHATTAN,10128,,,,
04M680,"Heritage School, The",1680 LEXINGTON AVENUE,MANHATTAN,10029,M013,1573 MADISON AVENUE,MANHATTAN,10029,,,,
04M825,Isaac Newton Middle School for Math & Science,260 PLEASANT AVENUE,MANHATTAN,10029,M117,240 EAST 109 STREET,MANHATTAN,10029,,,,
04M964,Central Park East II,19 EAST 103 STREET,MANHATTAN,10029,M013,1573 MADISON AVENUE,MANHATTAN,10029,,,,
05M030,P.S. 030 Hernandez/Hughes,144-176 EAST 128 STREET,MANHATTAN,10035,M154,250 WEST 127 STREET,MANHATTAN,10027,,,,
05M036,P.S. 036 Margaret Douglas,123 MORNINGSIDE DRIVE,MANHATTAN,10027,M154,250 WEST 127 STREET,MANHATTAN,10027,,,,
05M046,P.S. 046 Arthur Tappan,2987 FREDERICK DGLS BLVD,MANHATTAN,10039,M046,2987 FREDERICK DGLS BLVD,MANHATTAN,10039,,,,
05M092,P.S. 092 Mary McLeod Bethune,222 WEST 134 STREET,MANHATTAN,10030,M154,250 WEST 127 STREET,MANHATTAN,10027,,,,
05M123,P.S. 123 Mahalia Jackson,301 WEST 140 STREET,MANHATTAN,10030,M161,499 WEST 133 STREET,MANHATTAN,10027,,,,
05M125,P.S. 125 Ralph Bunche,425 WEST 123 STREET,MANHATTAN,10027,M161,499 WEST 133 STREET,MANHATTAN,10027,,,,
05M129,P.S. 129 John H. Finley,425 WEST 130 STREET,MANHATTAN,10027,M154,250 WEST 127 STREET,MANHATTAN,10027,,,,
05M133,P.S. 133 Fred R Moore,2121 5 AVENUE,MANHATTAN,10037,M154,250 WEST 127 STREET,MANHATTAN,10027,,,,
05M148,Eagle Academy for Young Men of Harlem,6 EDGECOMBE AVENUE,MANHATTAN,10030,M540,443 WEST 135 STREET,MANHATTAN,10031,,,,
05M154,P.S. 154 Harriet Tubman,250 WEST 127 STREET,MANHATTAN,10027,M154,250 WEST 127 STREET,MANHATTAN,10027,,,,
05M157,The Urban Assembly School for Global Commerce,2005 MADISON AVENUE,MANHATTAN,10035,M490,122 AMSTERDAM AVENUE,MANHATTAN,10023,,,,
05M161,P.S. 161 Pedro Albizu Campos,499 WEST 133 STREET,MANHATTAN,10027,M161,499 WEST 133 STREET,MANHATTAN,10027,,,,
05M175,P.S. 175 Henry H Garnet,175 WEST 134 STREET,MANHATTAN,10030,M154,250 WEST 127 STREET,MANHATTAN,10027,,,,
05M194,P.S. 194 Countee Cullen,244 WEST 144 STREET,MANHATTAN,10030,M028,475 WEST 155 STREET,MANHATTAN,10032,,,,
05M197,P.S. 197 John B. Russwurm,2230 5 AVENUE,MANHATTAN,10037,M154,250 WEST 127 STREET,MANHATTAN,10027,,,,
05M200,P.S. 200- The James Mccune Smith School,2589 7 AVENUE,MANHATTAN,10039,M010,2581 7TH AVENUE,MANHATTAN,10039,,,,
05M285,Harlem Renaissance High School,22 EAST 128 STREET,MANHATTAN,10035,M506,140 WEST 102 STREET,MANHATTAN,10025,,,,
05M302,KAPPA IV,6 EDGECOMBE AVENUE,MANHATTAN,10030,M540,443 WEST 135 STREET,MANHATTAN,10031,,,,
05M304,Mott Hall High School,6 EDGECOMBE AVENUE,MANHATTAN,10030,M540,443 WEST 135 STREET,MANHATTAN,10031,,,,
05M318,Thurgood Marshall Academy Lower School,276 WEST 151ST STREET,MANHATTAN,10039,M154,250 WEST 127 STREET,MANHATTAN,10027,,,,
05M362,Columbia Secondary School,425 WEST 123 STREET,MANHATTAN,10027,M490,122 AMSTERDAM AVENUE,MANHATTAN,10023,,,,
05M367,Academy for Social Action: A College Board School,509 WEST 129 STREET,MANHATTAN,10027,M970,200-214 WEST 135TH STREET,MANHATTAN,10030,,,,
05M369,Urban Assembly School for the Performing Arts,509 WEST 129 STREET,MANHATTAN,10027,X460,244 EAST 163 STREET,BRONX,10451,,,,
05M410,The Urban Assembly Institute for New Technologies,509 WEST 129 STREET,MANHATTAN,10027,M161,499 WEST 133 STREET,MANHATTAN,10027,,,,
05M469,Choir Academy of Harlem,2005 MADISON AVENUE,MANHATTAN,10035,M540,443 WEST 135 STREET,MANHATTAN,10031,,,,
05M499,Frederick Douglass Academy,2581 7TH AVENUE,MANHATTAN,10039,M010,2581 7TH AVENUE,MANHATTAN,10039,,,,
05M514,New Design Middle School,625 WEST 133 STREET,MANHATTAN,10027,M195,625 WEST 133 STREET,MANHATTAN,10027,,,,
05M670,Thurgood Marshall Academy for Learning and Social Change,200-214 WEST 135TH STREET,MANHATTAN,10030,M970,200-214 WEST 135TH STREET,MANHATTAN,10030,,,,
05M685,Bread & Roses Integrated Arts High School,6 EDGECOMBE AVENUE,MANHATTAN,10030,M970,200-214 WEST 135TH STREET,MANHATTAN,10030,,,,
05M692,"High School for Mathematics, Science and Engineering at City College",240 CONVENT AVE,MANHATTAN,10031,M540,443 WEST 135 STREET,MANHATTAN,10031,,,,
06M004,P.S. 004 Duke Ellington,500 WEST 160 STREET,MANHATTAN,10032,M028,475 WEST 155 STREET,MANHATTAN,10032,,,,
06M005,P.S. 005 Ellen Lurie,3703 TENTH AVENUE,MANHATTAN,10034,M005,3703 TENTH AVENUE,MANHATTAN,10034,,,,
06M008,P.S. 008 Luis Belliard,465 WEST 167 STREET,MANHATTAN,10032,M128,560 WEST 169 STREET,MANHATTAN,10032,,,,
06M018,P.S. 018 Park Terrace,4124 9 AVENUE,MANHATTAN,10034,M005,3703 TENTH AVENUE,MANHATTAN,10034,M218,4600 BROADWAY,MANHATTAN,10040
06M028,P.S. 028 Wright Brothers,475 WEST 155 STREET,MANHATTAN,10032,M028,475 WEST 155 STREET,MANHATTAN,10032,,,,
06M048,P.S. 048 P.O. Michael J. Buczek,4360-78 BROADWAY,MANHATTAN,10033,M048,4360-78 BROADWAY,MANHATTAN,10033,,,,
06M052,J.H.S. 052 Inwood,650 ACADEMY STREET,MANHATTAN,10034,M218,4600 BROADWAY,MANHATTAN,10040,,,,
06M098,P.S. 098 Shorac Kappock,512 WEST 212 STREET,MANHATTAN,10034,M005,3703 TENTH AVENUE,MANHATTAN,10034,,,,
06M115,P.S. 115 Alexander Humboldt,586 WEST 177 STREET,MANHATTAN,10033,M048,4360-78 BROADWAY,MANHATTAN,10033,,,,
06M128,P.S. 128 Audubon,560 WEST 169 STREET,MANHATTAN,10032,M128,560 WEST 169 STREET,MANHATTAN,10032,,,,
06M132,P.S. 132 Juan Pablo Duarte,185 WADSWORTH AVENUE,MANHATTAN,10033,M048,4360-78 BROADWAY,MANHATTAN,10033,,,,
06M143,J.H.S. 143 Eleanor Roosevelt,511 WEST 182ND STREET,MANHATTAN,10033,M143,511 WEST 182ND STREET,MANHATTAN,10033,,,,
06M152,P.S. 152 Dyckman Valley,93 NAGLE AVENUE,MANHATTAN,10040,M048,4360-78 BROADWAY,MANHATTAN,10033,,,,
06M153,P.S. 153 Adam Clayton Powell,1750 AMSTERDAM AVENUE,MANHATTAN,10031,M028,475 WEST 155 STREET,MANHATTAN,10032,,,,
06M173,P.S. 173,306 FORT WASHINGTON AVENUE,MANHATTAN,10033,M173,306 FORT WASHINGTON AVENUE,MANHATTAN,10033,,,,
06M178,Professor Juan Bosch Public School,12-18 ELLWOOD STREET,MANHATTAN,10040,M048,4360-78 BROADWAY,MANHATTAN,10033,,,,
06M187,P.S./I.S. 187 Hudson Cliffs,349 CABRINI BOULEVARD,MANHATTAN,10040,M048,4360-78 BROADWAY,MANHATTAN,10033,M143,511 WEST 182ND STREET,MANHATTAN,10033
06M189,P.S. 189,2580 AMSTERDAM AVENUE,MANHATTAN,10040,M048,4360-78 BROADWAY,MANHATTAN,10033,,,,
06M192,P.S. 192 Jacob H. Schiff,500 WEST 138 STREET,MANHATTAN,10031,M161,499 WEST 133 STREET,MANHATTAN,10027,,,,
06M210,P.S./I.S. 210 - Twenty-first Century Academy for Community Leadership,501-503 WEST 152 STREET,MANHATTAN,10031,M028,475 WEST 155 STREET,MANHATTAN,10032,M143,511 WEST 182ND STREET,MANHATTAN,10033
06M218,I.S. 218 Salome Urena,4600 BROADWAY,MANHATTAN,10040,M218,4600 BROADWAY,MANHATTAN,10040,,,,
06M223,The Mott Hall School,71-111 CONVENT AVE,MANHATTAN,10027,M143,511 WEST 182ND STREET,MANHATTAN,10033,,,,
06M278,Paula Hedbavny School,421 W 219TH ST,MANHATTAN,10034,M005,3703 TENTH AVENUE,MANHATTAN,10034,M218,4600 BROADWAY,MANHATTAN,10040
06M293,City College Academy of the Arts,4600 BROADWAY,MANHATTAN,10040,M218,4600 BROADWAY,MANHATTAN,10040,,,,
06M311,Amistad Dual Language School,4862 BROADWAY,MANHATTAN,10034,M005,3703 TENTH AVENUE,MANHATTAN,10034,M143,511 WEST 182ND STREET,MANHATTAN,10033
06M314,Muscota,4862 BROADWAY,MANHATTAN,10034,M005,3703 TENTH AVENUE,MANHATTAN,10034,,,,
06M319,M.S. 319 - Maria Teresa,21 JUMEL PLACE,MANHATTAN,10032,M090,21 JUMEL PLACE,MANHATTAN,10032,,,,
06M322,Middle School 322,4600 BROADWAY,MANHATTAN,10040,M218,4600 BROADWAY,MANHATTAN,10040,,,,
06M324,M.S. 324 - Patria Mirabal,21 JUMEL PLACE,MANHATTAN,10032,M090,21 JUMEL PLACE,MANHATTAN,10032,,,,
06M325,P.S. 325,500 WEST 138 STREET,MANHATTAN,10031,M028,475 WEST 155 STREET,MANHATTAN,10032,,,,
06M326,M.S. 326 - Writers Today & Leaders Tomorrow,401 WEST 164 STREET,MANHATTAN,10032,M090,21 JUMEL PLACE,MANHATTAN,10032,,,,
06M328,M.S. 328 - Manhattan Middle School for Scientific Inquiry,401 WEST 164 STREET,MANHATTAN,10032,M090,21 JUMEL PLACE,MANHATTAN,10032,,,,
06M346,Community Health Academy of the Heights,504 WEST 158TH STREET,MANHATTAN,10032,M814,504 WEST 158TH STREET,MANHATTAN,10032,,,,
06M348,Washington Heights Expeditionary Learning School,511 WEST 182ND STREET,MANHATTAN,10033,M143,511 WEST 182ND STREET,MANHATTAN,10033,M814,504 WEST 158TH STREET,MANHATTAN,10032
06M349,Harbor Heights,306 FORT WASHINGTON AVENUE,MANHATTAN,10033,M173,306 FORT WASHINGTON AVENUE,MANHATTAN,10033,,,,
06M366,Washington Heights Academy,202 SHERMAN AVE,MANHATTAN,10034,M005,3703 TENTH AVENUE,MANHATTAN,10034,M048,4360-78 BROADWAY,MANHATTAN,10033
06M368,Hamilton Heights School,1750 AMSTERDAM AVENUE,MANHATTAN,10031,M028,475 WEST 155 STREET,MANHATTAN,10032,,,,
06M423,High School for Excellence and Innovation,650 ACADEMY STREET,MANHATTAN,10034,M218,4600 BROADWAY,MANHATTAN,10040,,,,
06M457,George Washington Yabc,549 AUDUBON AVENUE,MANHATTAN,10040,M465,549 AUDUBON AVENUE,MANHATTAN,10040,,,,
06M462,The College Academy,549 AUDUBON AVENUE,MANHATTAN,10040,M465,549 AUDUBON AVENUE,MANHATTAN,10040,,,,
06M463,High School for Media and Communications,549 AUDUBON AVENUE,MANHATTAN,10040,M465,549 AUDUBON AVENUE,MANHATTAN,10040,,,,
06M467,High School for Law and Public Service,549 AUDUBON AVENUE,MANHATTAN,10040,M465,549 AUDUBON AVENUE,MANHATTAN,10040,,,,
06M468,High School for Health Careers and Sciences,549 AUDUBON AVENUE,MANHATTAN,10040,M465,549 AUDUBON AVENUE,MANHATTAN,10040,,,,
06M528,I.S. 528 Bea Fuller Rodgers School,180 WADSWORTH AVENUE,MANHATTAN,10033,M143,511 WEST 182ND STREET,MANHATTAN,10033,,,,
06M540,A. Philip Randolph Campus High School,443 WEST 135 STREET,MANHATTAN,10031,M540,443 WEST 135 STREET,MANHATTAN,10031,,,,
06M552,Gregorio Luperon High School for Science and Mathematics,501 WEST 165TH,MANHATTAN,10032,M465,549 AUDUBON AVENUE,MANHATTAN,10040,,,,
07X001,P.S. 001 Courtlandt School,335 EAST 152 STREET,BRONX,10451,X151,250 EAST 156 STREET,BRONX,10451,,,,
07X005,PS 5 Port Morris,564 JACKSON AVENUE,BRONX,10455,X005,564 JACKSON AVENUE,BRONX,10455,,,,
07X018,P.S. 018 John Peter Zenger,502 MORRIS AVENUE,BRONX,10451,X151,250 EAST 156 STREET,BRONX,10451,,,,
07X025,P.S. 025 Bilingual School,811 EAST 149 STREET,BRONX,10455,X005,564 JACKSON AVENUE,BRONX,10455,,,,
07X029,P.S./M.S. 029 Melrose School,758 COURTLANDT AVENUE,BRONX,10451,X151,250 EAST 156 STREET,BRONX,10451,,,,
07X030,P.S. 030 Wilton,510 EAST 141 STREET,BRONX,10454,X040,468 EAST 140 STREET,BRONX,10454,,,,
07X031,P.S./M.S. 031 The William Lloyd Garrison,250 EAST 156 STREET,BRONX,10451,X151,250 EAST 156 STREET,BRONX,10451,,,,
07X043,P.S. 043 Jonas Bronck,165 BROWN PLACE,BRONX,10454,X040,468 EAST 140 STREET,BRONX,10454,,,,
07X049,P.S. 049 Willis Avenue,383 EAST 139 STREET,BRONX,10454,X040,468 EAST 140 STREET,BRONX,10454,,,,
07X065,P.S. 065 Mother Hale Academy,677 EAST 141 STREET,BRONX,10454,X040,468 EAST 140 STREET,BRONX,10454,,,,
07X151,J.H.S. 151 Lou Gehrig,250 EAST 156 STREET,BRONX,10451,X151,250 EAST 156 STREET,BRONX,10451,,,,
07X154,P.S. 154 Jonathan D. Hyatt,333 EAST 135 STREET,BRONX,10454,X154,333 EAST 135 STREET,BRONX,10454,,,,
07X157,P.S. 157 Grove Hill,757 CAULDWELL AVENUE,BRONX,10456,X157,757 CAULDWELL AVENUE,BRONX,10456,,,,
07X161,P.S. 161 Ponce De Leon,628 TINTON AVENUE,BRONX,10455,X005,564 JACKSON AVENUE,BRONX,10455,,,,
07X162,J.H.S. 162 Lola Rodriguez De Tio,600 SAINT ANN'S AVENUE,BRONX,10455,X162,600 SAINT ANN'S AVENUE,BRONX,10455,,,,
07X179,P.S. 179,468 EAST 140 STREET,BRONX,10454,X040,468 EAST 140 STREET,BRONX,10454,,,,
07X203,M.S. 203,339 MORRIS AVENUE,BRONX,10451,X151,250 EAST 156 STREET,BRONX,10451,,,,
07X221,South Bronx Preparatory: A College Board School,360 EAST 145 STREET,BRONX,10454,X149,360 EAST 145 STREET,BRONX,10454,,,,
07X223,M.S. 223 The Laboratory School of Finance and Technology,360 EAST 145 STREET,BRONX,10454,X149,360 EAST 145 STREET,BRONX,10454,,,,
07X224,P.S. / I.S. 224,345 BROOK AVENUE,BRONX,10454,X149,360 EAST 145 STREET,BRONX,10454,,,,
07X259,"H.E.R.O. High (Health, Education, and Research Occupations High School)",455 SOUTHERN BLVD,BRONX,10455,X650,900 TINTON AVENUE,BRONX,10456,,,,
07X277,P.S. 277,519 ST ANNS AVENUE,BRONX,10455,X040,468 EAST 140 STREET,BRONX,10454,,,,
07X296,South Bronx Academy for Applied Media,778 FOREST AVENUE,BRONX,10456,X184,778 FOREST AVENUE,BRONX,10456,,,,
07X298,Academy of Public Relations,778 FOREST AVENUE,BRONX,10456,X184,778 FOREST AVENUE,BRONX,10456,X149,360 EAST 145 STREET,BRONX,10454
07X321,Crotona Academy High School,639 ST. ANNS AVENUE,BRONX,10455,X184,778 FOREST AVENUE,BRONX,10456,,,,
07X334,International Community High School,345 BROOK AVENUE,BRONX,10454,X139,345 BROOK AVENUE,BRONX,10454,,,,
07X343,Academy of Applied Mathematics and Technology,345 BROOK AVENUE,BRONX,10454,X149,360 EAST 145 STREET,BRONX,10454,,,,
07X369,Young Leaders Elementary School,468 EAST 140 STREET,BRONX,10454,X040,468 EAST 140 STREET,BRONX,10454,,,,
07X379,Jill Chaifetz Transfer High School,778 FOREST AVENUE,BRONX,10456,X184,778 FOREST AVENUE,BRONX,10456,,,,
07X381,Bronx Haven High School,333 EAST 151 STREET,BRONX,10451,X600,333 EAST 151 STREET,BRONX,10451,,,,
07X385,Performance School,750 CONCOURSE VILLAGE WEST,BRONX,10451,X151,250 EAST 156 STREET,BRONX,10451,,,,
07X427,Community School for Social Justice,350 GERARD AVENUE,BRONX,10451,X884,350 GERARD AVENUE,BRONX,10451,,,,
07X456,Alfred E. Smith Campus YABC,333 EAST 151 STREET,BRONX,10451,X600,333 EAST 151 STREET,BRONX,10451,,,,
07X473,Mott Haven Village Preparatory High School,701 ST. ANNS AVENUE,BRONX,10455,X470,701 ST. ANNS AVENUE,BRONX,10455,,,,
07X495,University Heights Secondary School,701 ST. ANNS AVENUE,BRONX,10455,X470,701 ST. ANNS AVENUE,BRONX,10455,,,,
07X500,Hostos-Lincoln Academy of Science,600 SAINT ANN'S AVENUE,BRONX,10455,X884,350 GERARD AVENUE,BRONX,10451,X151,250 EAST 156 STREET,BRONX,10451
07X520,Foreign Language Academy of Global Studies,470 JACKSON AVENUE,BRONX,10455,X158,800 HOME STREET,BRONX,10456,,,,
07X522,Bronx Design and Construction Academy,333 EAST 151 STREET,BRONX,10451,X600,333 EAST 151 STREET,BRONX,10451,,,,
07X527,Bronx Leadership Academy II High School,730 CONCOURSE VILLAGE WEST,BRONX,10451,X790,730 CONCOURSE VILLAGE WEST,BRONX,10451,,,,
07X547,New Explorers High School,730 CONCOURSE VILLAGE WEST,BRONX,10451,X790,730 CONCOURSE VILLAGE WEST,BRONX,10451,,,,
07X548,Urban Assembly School for Careers in Sports,730 CONCOURSE VILLAGE WEST,BRONX,10451,X790,730 CONCOURSE VILLAGE WEST,BRONX,10451,,,,
07X551,The Urban Assembly Bronx Academy of Letters,339 MORRIS AVENUE,BRONX,10451,X460,244 EAST 163 STREET,BRONX,10451,,,,
07X557,Mott Haven Community High School,455 SOUTHERN BLVD,BRONX,10455,X650,900 TINTON AVENUE,BRONX,10456,,,,
07X600,Alfred E. Smith Career and Technical Education High School,333 EAST 151 STREET,BRONX,10451,X600,333 EAST 151 STREET,BRONX,10451,,,,
07X655,Samuel Gompers Career and Technical Education High School,455 SOUTHERN BLVD,BRONX,10455,X650,900 TINTON AVENUE,BRONX,10456,,,,
07X670,Health Opportunities High School,350 GERARD AVENUE,BRONX,10451,X884,350 GERARD AVENUE,BRONX,10451,,,,
08X014,P.S. X014 Senator John Calandra,3041 BRUCKNER BOULEVARD,BRONX,10461,X071,3040 ROBERTS AVENUE,BRONX,10461,,,,
08X036,P.S. 036 Unionport,1070 CASTLE HILL AVENUE,BRONX,10472,X036,1070 CASTLE HILL AVENUE,BRONX,10472,,,,
08X048,P.S. 048 Joseph R. Drake,1290 SPOFFORD AVENUE,BRONX,10474,X074,730 BRYANT AVENUE,BRONX,10474,X075,984 FAILE STREET,BRONX,10459
08X062,P.S. 062 Inocensio Casanova,660 FOX STREET,BRONX,10455,X075,984 FAILE STREET,BRONX,10459,,,,
08X069,P.S. 069 Journey Prep School,560 THIERIOT AVENUE,BRONX,10473,X869,560 THERIOT AVENUE,BRONX,10473,,,,
08X071,P.S. 071 Rose E. Scala,3040 ROBERTS AVENUE,BRONX,10461,X071,3040 ROBERTS AVENUE,BRONX,10461,,,,
08X072,P.S. 072 Dr. William Dorney,2951 DEWEY AVENUE,BRONX,10465,X072,2951 DEWEY AVENUE,BRONX,10465,,,,
08X075,P.S. 75 School of Research and Discovery,984 FAILE STREET,BRONX,10459,X075,984 FAILE STREET,BRONX,10459,,,,
08X093,P.S. 093 Albert G. Oliver,1535 STORY AVENUE,BRONX,10473,X075,984 FAILE STREET,BRONX,10459,,,,
08X100,P.S. 100 Isaac Clason,800 TAYLOR AVENUE,BRONX,10473,X100,800 TAYLOR AVENUE,BRONX,10473,,,,
08X101,M.S. X101 Edward R. Byrne,2750 LAFAYETTE AVENUE,BRONX,10465,X101,2750 LAFAYETTE AVENUE,BRONX,10465,,,,
08X107,P.S. 107,1695 SEWARD AVENUE,BRONX,10473,X100,800 TAYLOR AVENUE,BRONX,10473,,,,
08X119,P.S. 119,1075 PUGSLEY AVENUE,BRONX,10472,X036,1070 CASTLE HILL AVENUE,BRONX,10472,,,,
08X123,J.H.S. 123 James M. Kieran,1025 MORRISON AVENUE,BRONX,10472,X131,885 BOLTON AVENUE,BRONX,10473,,,,
08X125,J.H.S. 125 Henry Hudson,1111 PUGSLEY AVENUE,BRONX,10472,X131,885 BOLTON AVENUE,BRONX,10473,,,,
08X130,P.S. 130 Abram Stevens Hewitt,750 PROSPECT AVENUE,BRONX,10455,X075,984 FAILE STREET,BRONX,10459,,,,
08X131,J.H.S. 131 Albert Einstein,885 BOLTON AVENUE,BRONX,10473,X131,885 BOLTON AVENUE,BRONX,10473,,,,
08X138,P.S. 138 Samuel Randall,2060 LAFAYETTE AVENUE,BRONX,10473,X100,800 TAYLOR AVENUE,BRONX,10473,,,,
08X140,P.S. X140 The Eagle School,916 EAGLE AVENUE,BRONX,10456,X157,757 CAULDWELL AVENUE,BRONX,10456,,,,
08X146,P.S. 146 Edward Collins,968 CAULDWELL AVENUE,BRONX,10456,X157,757 CAULDWELL AVENUE,BRONX,10456,,,,
08X152,P.S. 152 Evergreen,1007 EVERGREEN AVENUE,BRONX,10472,X075,984 FAILE STREET,BRONX,10459,,,,
08X182,P.S. 182,601 STICKBALL BOULEVARD,BRONX,10473,X100,800 TAYLOR AVENUE,BRONX,10473,,,,
08X269,Bronx Studio School for Writers and Artists,928 SIMPSON STREET,BRONX,10459,X973,1716 SOUTHERN BOULEVARD,BRONX,10460,,,,
08X282,Women's Academy of Excellence,456 WHITE PLAINS ROAD,BRONX,10473,X174,456 WHITE PLAINS ROAD,BRONX,10473,,,,
08X293,Renaissance High School for Musical Theater & Technology,3000 EAST TREMONT AVENUE,BRONX,10461,X405,3000 EAST TREMONT AVENUE,BRONX,10461,,,,
08X295,Gateway School for Environmental Research and Technology,1980 LAFAYETTE AVENUE,BRONX,10473,X450,1980 LAFAYETTE AVENUE,BRONX,10473,,,,
08X301,M.S. 301 Paul L. Dunbar,890 CAULDWELL AVENUE,BRONX,10456,X650,900 TINTON AVENUE,BRONX,10456,,,,
08X302,M.S. 302 Luisa Dessus Cruz,681 KELLY STREET,BRONX,10455,X116,977 FOX STREET,BRONX,10459,,,,
08X304,P.S. 304 Early Childhood School,2750 LAFAYETTE AVENUE,BRONX,10465,X072,2951 DEWEY AVENUE,BRONX,10465,,,,
08X305,Pablo Neruda Academy,1980 LAFAYETTE AVENUE,BRONX,10473,X450,1980 LAFAYETTE AVENUE,BRONX,10473,,,,
08X312,Millennium Art Academy,1980 LAFAYETTE AVENUE,BRONX,10473,X450,1980 LAFAYETTE AVENUE,BRONX,10473,,,,
08X320,Pelham Lab High School,3000 EAST TREMONT AVENUE,BRONX,10461,X405,3000 EAST TREMONT AVENUE,BRONX,10461,,,,
08X332,Holcombe L. Rucker School of Community Research,965 LONGWOOD AVENUE,BRONX,10459,X973,1716 SOUTHERN BOULEVARD,BRONX,10460,,,,
08X333,P.S. 333 - The Museum School,888 REV J A POLITE AVE,BRONX,10459,X075,984 FAILE STREET,BRONX,10459,,,,
08X335,The Academy of the Arts,888 REV J A POLITE AVE,BRONX,10459,X075,984 FAILE STREET,BRONX,10459,,,,
08X337,The School for Inquiry and Social Justice,1025 MORRISON AVENUE,BRONX,10472,X075,984 FAILE STREET,BRONX,10459,X123,1025 MORRISON AVENUE,BRONX,10472
08X348,Schuylerville Preparatory High School,3000 EAST TREMONT AVENUE,BRONX,10461,X405,3000 EAST TREMONT AVENUE,BRONX,10461,,,,
08X349,Bronx River High School,3000 EAST TREMONT AVENUE,BRONX,10461,X405,3000 EAST TREMONT AVENUE,BRONX,10461,,,,
08X366,Urban Assembly Academy of Civic Engagement,650 HOLLYWOOD AVENUE,BRONX,10465,X072,2951 DEWEY AVENUE,BRONX,10465,,,,
08X367,"Archimedes Academy for Math, Science and Technology Applications",456 WHITE PLAINS ROAD,BRONX,10473,X174,456 WHITE PLAINS ROAD,BRONX,10473,,,,
08X371,Urban Institute of Mathematics,650 HOLLYWOOD AVENUE,BRONX,10465,X072,2951 DEWEY AVENUE,BRONX,10465,,,,
08X375,The Bronx Mathematics Preparatory School,456 WHITE PLAINS ROAD,BRONX,10473,X174,456 WHITE PLAINS ROAD,BRONX,10473,,,,
08X376,Antonia Pantoja Preparatory Academy: A College Board School,1980 LAFAYETTE AVENUE,BRONX,10473,X450,1980 LAFAYETTE AVENUE,BRONX,10473,,,,
08X377,Bronx Community High School,1980 LAFAYETTE AVENUE,BRONX,10473,X450,1980 LAFAYETTE AVENUE,BRONX,10473,,,,
08X405,Herbert H. Lehman High School.,3000 EAST TREMONT AVENUE,BRONX,10461,X405,3000 EAST TREMONT AVENUE,BRONX,10461,,,,
08X408,Herbert H. Lehman Yabc,3000 EAST TREMONT AVENUE,BRONX,10461,X405,3000 EAST TREMONT AVENUE,BRONX,10461,,,,
08X424,The Hunts Point School,730 BRYANT AVENUE,BRONX,10474,X074,730 BRYANT AVENUE,BRONX,10474,,,,
08X432,BRONX BRIDGES HIGH SCHOOL,1980 LAFAYETTE AVENUE,BRONX,10473,X450,1980 LAFAYETTE AVENUE,BRONX,10473,,,,
08X448,Soundview Academy for Culture and Scholarship,885 BOLTON AVENUE,BRONX,10473,X131,885 BOLTON AVENUE,BRONX,10473,,,,
08X452,Bronx Guild,1980 LAFAYETTE AVENUE,BRONX,10473,X450,1980 LAFAYETTE AVENUE,BRONX,10473,,,,
08X467,Mott Hall Community School,650 HOLLYWOOD AVENUE,BRONX,10465,X072,2951 DEWEY AVENUE,BRONX,10465,,,,
08X507,Stevenson Yabc,1980 LAFAYETTE AVENUE,BRONX,10473,X450,1980 LAFAYETTE AVENUE,BRONX,10473,,,,
08X519,"Felisa Rincon de Gautier Institute for Law and Public Policy, The",1440 STORY AVENUE,BRONX,10473,X972,1440 STORY AVENUE,BRONX,10473,,,,
08X530,Banana Kelly High School,965 LONGWOOD AVENUE,BRONX,10459,X973,1716 SOUTHERN BOULEVARD,BRONX,10460,,,,
08X537,Bronx Arena High School,1440 STORY AVENUE,BRONX,10473,X972,1440 STORY AVENUE,BRONX,10473,,,,
08X540,School for Community Research and Learning,1980 LAFAYETTE AVENUE,BRONX,10473,X450,1980 LAFAYETTE AVENUE,BRONX,10473,,,,
08X558,Westchester Square Academy,3000 EAST TREMONT AVENUE,BRONX,10461,X405,3000 EAST TREMONT AVENUE,BRONX,10461,,,,
08X559,School for Tourism and Hospitality,900 TINTON AVENUE,BRONX,10456,X650,900 TINTON AVENUE,BRONX,10456,,,,
08X561,Bronx Compass High School,1980 LAFAYETTE AVENUE,BRONX,10473,X450,1980 LAFAYETTE AVENUE,BRONX,10473,,,,
08X562,Blueprint Middle School,1111 PUGSLEY AVENUE,BRONX,10472,X149,360 EAST 145 STREET,BRONX,10454,,,,
08X650,Jane Addams High School for Academic Careers,900 TINTON AVENUE,BRONX,10456,X650,900 TINTON AVENUE,BRONX,10456,,,,
09X004,P.S./M.S. 004 Crotona Park West,1701 FULTON AVENUE,BRONX,10457,X003,2100 LAFONTAINE AVENUE,BRONX,10457,,,,
09X011,P.S. 011 Highbridge,1257 OGDEN AVENUE,BRONX,10452,X073,1020 ANDERSON AVENUE,BRONX,10452,,,,
09X022,J.H.S. 022 Jordan L. Mott,270 EAST 167 STREET,BRONX,10456,X022,270 EAST 167 STREET,BRONX,10456,,,,
09X028,P.S. 028 Mount Hope,1861 ANTHONY AVENUE,BRONX,10457,X306,40 WEST TREMONT AVENUE,BRONX,10453,,,,
09X035,P.S. 035 Franz Siegel,261 EAST 163 STREET,BRONX,10451,X460,244 EAST 163 STREET,BRONX,10451,,,,
09X042,P.S. 042 Claremont,1537 WASHINGTON AVENUE,BRONX,10457,X055,450 SAINT PAUL'S PLACE,BRONX,10456,,,,
09X053,P.S. 053 Basheer Quisim,360 EAST 168 STREET,BRONX,10456,X053,360 EAST 168 STREET,BRONX,10456,,,,
09X055,P.S. 055 Benjamin Franklin,450 SAINT PAUL'S PLACE,BRONX,10456,X055,450 SAINT PAUL'S PLACE,BRONX,10456,,,,
09X058,P.S. 058,459 EAST 176 STREET,BRONX,10457,X055,450 SAINT PAUL'S PLACE,BRONX,10456,,,,
09X063,P.S. 063 Author's Academy,1260 FRANKLIN AVENUE,BRONX,10456,X063,1260 FRANKLIN AVENUE,BRONX,10456,,,,
09X064,P.S. 064 Pura Belpre,1425 WALTON AVENUE,BRONX,10452,X064,1425 WALTON AVENUE,BRONX,10452,,,,
09X070,P.S. 070 Max Schoenfeld,1691 WEEKS AVENUE,BRONX,10457,X070,1691 WEEKS AVENUE,BRONX,10457,,,,
09X073,P.S. 073 Bronx,1020 ANDERSON AVENUE,BRONX,10452,X073,1020 ANDERSON AVENUE,BRONX,10452,,,,
09X088,P.S. X088 - S. Silverstein Little Sparrow School,1340 SHERIDAN AVENUE,BRONX,10456,X053,360 EAST 168 STREET,BRONX,10456,,,,
09X109,P.S. 109 Sedgwick,1771 POPHAM AVENUE,BRONX,10453,X229,275 HARLEM RIVER PARK BRIDGE,BRONX,10453,,,,
09X110,P.S. 110 Theodore Schoenfeld,580 CROTONA PARK SOUTH,BRONX,10456,X110,580 CROTONA PARK SOUTH,BRONX,10456,,,,
09X114,P.S. X114 - Luis Llorens Torres Schools,1155 CROMWELL AVENUE,BRONX,10452,X235,1220 GERARD AVENUE,BRONX,10452,,,,
09X117,I.S. 117 Joseph H. Wade,1865 MORRIS AVENUE,BRONX,10453,X235,1220 GERARD AVENUE,BRONX,10452,,,,
09X126,P.S. 126 Dr Marjorie H Dunbar,175 WEST 166 STREET,BRONX,10452,X073,1020 ANDERSON AVENUE,BRONX,10452,,,,
09X128,Mott Hall III,580 CROTONA PARK SOUTH,BRONX,10456,X110,580 CROTONA PARK SOUTH,BRONX,10456,,,,
09X132,P.S. 132 Garret A. Morgan,1245 WASHINGTON AVENUE,BRONX,10456,X055,450 SAINT PAUL'S PLACE,BRONX,10456,,,,
09X145,J.H.S. 145 Arturo Toscanini,1000 TELLER AVENUE,BRONX,10456,X145,1000 TELLER AVENUE,BRONX,10456,,,,
09X163,P.S. 163 Arthur A. Schomburg,2075 WEBSTER AVENUE,BRONX,10457,X085,2400 MARION AVENUE,BRONX,10458,,,,
09X199,P.S. 199X - The Shakespeare School,1449 SHAKESPEARE AVENUE,BRONX,10452,X235,1220 GERARD AVENUE,BRONX,10452,,,,
09X204,P.S. 204 Morris Heights,1780 DR. MARTIN LUTHER KING JR. BLVD,BRONX,10453,X235,1220 GERARD AVENUE,BRONX,10452,,,,
09X215,Kappa,3630 THIRD AVENUE,BRONX,10456,X110,580 CROTONA PARK SOUTH,BRONX,10456,,,,
09X218,P.S./I.S. 218 Rafael Hernandez Dual Language Magnet School,1220 GERARD AVENUE,BRONX,10452,X235,1220 GERARD AVENUE,BRONX,10452,,,,
09X219,I.S. 219 New Venture School,3630 THIRD AVENUE,BRONX,10456,X110,580 CROTONA PARK SOUTH,BRONX,10456,,,,
09X227,Bronx Collegiate Academy,240 EAST 172 STREET,BRONX,10457,X410,240 EAST 172 STREET,BRONX,10457,,,,
09X229,I.S. 229 Roland Patterson,275 HARLEM RIVER PARK BRIDGE,BRONX,10453,X229,275 HARLEM RIVER PARK BRIDGE,BRONX,10453,,,,
09X230,P.S. 230 Dr Roland N. Patterson,275 HARLEM RIVER PARK BRIDGE,BRONX,10453,X229,275 HARLEM RIVER PARK BRIDGE,BRONX,10453,,,,
09X231,Eagle Academy for Young Men,4143 THIRD AVENUE,BRONX,10457,X790,730 CONCOURSE VILLAGE WEST,BRONX,10451,,,,
09X232,I.S. 232,1700 MACOMBS ROAD,BRONX,10453,X082,1700 MACOMBS ROAD,BRONX,10453,,,,
09X236,P.S. 236 Langston Hughes,1871 WALTON AVENUE,BRONX,10453,X306,40 WEST TREMONT AVENUE,BRONX,10453,,,,
09X239,"Urban Assembly Academy for History and Citizenship for Young Men, The",240 EAST 172 STREET,BRONX,10457,X410,240 EAST 172 STREET,BRONX,10457,,,,
09X241,"Urban Assembly School for Applied Math and Science, The",1595 BATHGATE AVENUE,BRONX,10457,X460,244 EAST 163 STREET,BRONX,10451,X970,1595 BATHGATE AVENUE,BRONX,10457
09X250,Eximius College Preparatory Academy: A College Board School,1363 FULTON AVENUE,BRONX,10456,X876,1710 WEBSTER AVENUE,BRONX,10457,,,,
09X252,Mott Hall Bronx High School,1595 BATHGATE AVENUE,BRONX,10457,X970,1595 BATHGATE AVENUE,BRONX,10457,,,,
09X260,Bronx Center for Science and Mathematics,1363 FULTON AVENUE,BRONX,10456,X876,1710 WEBSTER AVENUE,BRONX,10457,,,,
09X263,Validus Preparatory Academy: An Expeditionary Learning School,1595 BATHGATE AVENUE,BRONX,10457,X970,1595 BATHGATE AVENUE,BRONX,10457,,,,
09X276,Leadership Institute,1701 FULTON AVENUE,BRONX,10457,X098,1619 BOSTON ROAD,BRONX,10460,,,,
09X294,The Walton Avenue School,1425 WALTON AVENUE,BRONX,10452,X064,1425 WALTON AVENUE,BRONX,10452,,,,
09X297,Morris Academy for Collaborative Studies,1110 BOSTON ROAD,BRONX,10456,X400,1110 BOSTON ROAD,BRONX,10456,,,,
09X303,I.S. X303 Leadership & Community Service,1700 MACOMBS ROAD,BRONX,10453,X082,1700 MACOMBS ROAD,BRONX,10453,,,,
09X311,Lucero Elementary School,1425 WALTON AVENUE,BRONX,10452,X064,1425 WALTON AVENUE,BRONX,10452,,,,
09X313,I.S. 313 School of Leadership Development,1600 WEBSTER AVENUE,BRONX,10457,X147,1600 WEBSTER AVENUE,BRONX,10457,,,,
09X323,Bronx Writing Academy,270 EAST 167 STREET,BRONX,10456,X053,360 EAST 168 STREET,BRONX,10456,,,,
09X324,Bronx Early College Academy for Teaching & Learning,250 EAST 164 STREET,BRONX,10456,X460,244 EAST 163 STREET,BRONX,10451,X145,1000 TELLER AVENUE,BRONX,10456
09X325,Urban Science Academy,1000 TELLER AVENUE,BRONX,10456,X145,1000 TELLER AVENUE,BRONX,10456,,,,
09X327,Comprehensive Model School Project M.S. 327,1501 JEROME AVENUE,BRONX,10452,X240,1501 JEROME AVENUE,BRONX,10452,,,,
09X328,New Millennium Business Academy Middle School,1000 TELLER AVENUE,BRONX,10456,X145,1000 TELLER AVENUE,BRONX,10456,,,,
09X329,DreamYard Preparatory School,240 EAST 172 STREET,BRONX,10457,X410,240 EAST 172 STREET,BRONX,10457,,,,
09X339,I.S. 339,1600 WEBSTER AVENUE,BRONX,10457,X147,1600 WEBSTER AVENUE,BRONX,10457,,,,
09X350,New Directions Secondary School,240 EAST 172 STREET,BRONX,10457,X410,240 EAST 172 STREET,BRONX,10457,,,,
09X361,The Highbridge Green School,200 West 167th Street,Bronx,10452,X082,1700 MACOMBS ROAD,BRONX,10453,,,,
09X365,Academy for Language and Technology,1700 MACOMBS ROAD,BRONX,10453,X082,1700 MACOMBS ROAD,BRONX,10453,,,,
09X403,Bronx International High School,1110 BOSTON ROAD,BRONX,10456,X400,1110 BOSTON ROAD,BRONX,10456,,,,
09X404,School for Excellence,1110 BOSTON ROAD,BRONX,10456,X400,1110 BOSTON ROAD,BRONX,10456,,,,
09X412,Bronx High School of Business,240 EAST 172 STREET,BRONX,10457,X410,240 EAST 172 STREET,BRONX,10457,,,,
09X413,Bronx High School for Medical Science,240 EAST 172 STREET,BRONX,10457,X410,240 EAST 172 STREET,BRONX,10457,,,,
09X414,Jonathan Levin High School for Media and Communications,240 EAST 172 STREET,BRONX,10457,X410,240 EAST 172 STREET,BRONX,10457,,,,
09X443,The Family School,1116 SHERIDAN AVENUE,BRONX,10456,X235,1220 GERARD AVENUE,BRONX,10452,,,,
09X449,Grant Avenue Elementary School,250 EAST 164 STREET,BRONX,10456,X460,244 EAST 163 STREET,BRONX,10451,,,,
09X454,Science and Technology Academy: A Mott Hall School,250 EAST 164 STREET,BRONX,10456,X145,1000 TELLER AVENUE,BRONX,10456,,,,
09X457,Sheridan Academy for Young Leaders,1116 SHERIDAN AVENUE,BRONX,10456,X235,1220 GERARD AVENUE,BRONX,10452,,,,
09X505,"Bronx School for Law, Government and Justice",244 EAST 163 STREET,BRONX,10451,X460,244 EAST 163 STREET,BRONX,10451,,,,
09X517,Frederick Douglass Academy III Secondary School,3630 THIRD AVENUE,BRONX,10456,X110,580 CROTONA PARK SOUTH,BRONX,10456,,,,
09X525,Bronx Leadership Academy High School,1710 WEBSTER AVENUE,BRONX,10457,X876,1710 WEBSTER AVENUE,BRONX,10457,,,,
09X543,High School for Violin and Dance,1110 BOSTON ROAD,BRONX,10456,X400,1110 BOSTON ROAD,BRONX,10456,,,,
09X564,Claremont International HS,240 EAST 172 STREET,BRONX,10457,X410,240 EAST 172 STREET,BRONX,10457,,,,
09X568,Young Women's Leadership School of the Bronx,1865 MORRIS AVENUE,BRONX,10453,X235,1220 GERARD AVENUE,BRONX,10452,,,,
10X003,P.S. 3 Raul Julia Micro Society,2100 LAFONTAINE AVENUE,BRONX,10457,X003,2100 LAFONTAINE AVENUE,BRONX,10457,,,,
10X007,P.S. 007 Kingsbridge,3201 KINGSBRIDGE AVENUE,BRONX,10463,X037,360 WEST 230 STREET,BRONX,10463,,,,
10X008,P.S. 008 Issac Varian,3010 BRIGGS AVENUE,BRONX,10458,X008,3010 BRIGGS AVENUE,BRONX,10458,,,,
10X009,P.S. 9 Ryer Avenue Elementary School,230 EAST 183 STREET,BRONX,10458,X085,2400 MARION AVENUE,BRONX,10458,,,,
10X015,P.S. X015 Institute for Environmental Learning,2195 ANDREWS AVENUE,BRONX,10453,X015,2195 ANDREWS AVENUE,BRONX,10453,,,,
10X020,"PS/MS 20 P.O.George J. Werdann, III",3050 WEBSTER AVENUE,BRONX,10467,X095,3961 HILLMAN AVENUE,BRONX,10463,,,,
10X023,P.S. 023 The New Children's School,2151 WASHINGTON AVENUE,BRONX,10457,X085,2400 MARION AVENUE,BRONX,10458,,,,
10X024,P.S. 024 Spuyten Duyvil,660 WEST 236 STREET,BRONX,10463,X037,360 WEST 230 STREET,BRONX,10463,,,,
10X032,P.S. 032 Belmont,690 EAST 183 STREET,BRONX,10458,X003,2100 LAFONTAINE AVENUE,BRONX,10457,,,,
10X033,P.S. 033 Timothy Dwight,2424 JEROME AVENUE,BRONX,10468,X279,2100 WALTON AVENUE,BRONX,10453,,,,
10X037,P.S. X037 - Multiple Intelligence School,360 WEST 230 STREET,BRONX,10463,X037,360 WEST 230 STREET,BRONX,10463,,,,
10X045,Thomas C. Giordano Middle School 45,2502 LORILLARD PLACE,BRONX,10458,X045,2502 LORILLARD PLACE,BRONX,10458,,,,
10X046,P.S. 046 Edgar Allan Poe,279 EAST 196 STREET,BRONX,10458,X046,279 EAST 196 STREET,BRONX,10458,,,,
10X051,P.S. 051 Bronx New School,695 EAST 182ND STREET,BRONX,10457,X003,2100 LAFONTAINE AVENUE,BRONX,10457,,,,
10X054,P.S. / I.S. 54,2703 WEBSTER AVENUE,BRONX,10458,X046,279 EAST 196 STREET,BRONX,10458,,,,
10X056,P.S. 056 Norwood Heights,341 EAST 207 STREET,BRONX,10467,X177,3177 WEBSTER AVENUE,NEW YORK,10467,,,,
10X059,P.S. 059 The Community School of Technology,2185 BATHGATE AVENUE,BRONX,10457,X118,577 EAST 179 STREET,BRONX,10457,,,,
10X080,J.H.S. 080 The Mosholu Parkway,149 EAST MOSHOLU PKWY,BRONX,10467,X095,3961 HILLMAN AVENUE,BRONX,10463,,,,
10X081,P.S. 081 Robert J. Christen,5550 RIVERDALE AVENUE,BRONX,10471,X037,360 WEST 230 STREET,BRONX,10463,,,,
10X085,P.S. 085 Great Expectations,2400 MARION AVENUE,BRONX,10458,X085,2400 MARION AVENUE,BRONX,10458,,,,
10X086,P.S. 086 Kingsbridge Heights,2756 RESERVOIR AVENUE,BRONX,10468,X086,2756 RESERVOIR AVENUE,BRONX,10468,,,,
10X091,P.S. 091 Bronx,2200 AQUEDUCT AVENUE,BRONX,10453,X279,2100 WALTON AVENUE,BRONX,10453,,,,
10X094,P.S. 094 Kings College School,3530 KINGS COLLEGE PLACE,BRONX,10467,X095,3961 HILLMAN AVENUE,BRONX,10463,,,,
10X095,P.S. 095 Sheila Mencher,3961 HILLMAN AVENUE,BRONX,10463,X095,3961 HILLMAN AVENUE,BRONX,10463,,,,
10X118,J.H.S. 118 William W. Niles,577 EAST 179 STREET,BRONX,10457,X118,577 EAST 179 STREET,BRONX,10457,,,,
10X141,Riverdale / Kingsbridge Academy (Middle School / High School 141),660 WEST 237 STREET,BRONX,10463,X141,660 WEST 237 STREET,BRONX,10463,,,,
10X159,P.S. 159 Luis Munoz Marin Biling,2315 WASHINGTON AVENUE,BRONX,10458,X085,2400 MARION AVENUE,BRONX,10458,,,,
10X205,P.S. 205 Fiorello Laguardia,2475 SOUTHERN BOULEVARD,BRONX,10458,X003,2100 LAFONTAINE AVENUE,BRONX,10457,,,,
10X206,I.S. 206 Ann Mersereau,2280 AQUEDUCT AVENUE,BRONX,10468,X015,2195 ANDREWS AVENUE,BRONX,10453,,,,
10X213,Bronx Engineering and Technology Academy,99 TERRACE VIEW AVENUE,BRONX,10463,X475,99 TERRACE VIEW AVENUE,BRONX,10463,,,,
10X225,Theatre Arts Production Company School,2225 WEBSTER AVENUE,BRONX,10457,X435,500 EAST FORDHAM ROAD,BRONX,10458,,,,
10X226,P.S. 226,1950 SEDGWICK AVENUE,BRONX,10453,X826,1950 SEDGWICK AVENUE,BRONX,10453,,,,
10X228,Jonas Bronck Academy,400 EAST FORDHAM ROAD,BRONX,10458,X045,2502 LORILLARD PLACE,BRONX,10458,,,,
10X237,"The Marie Curie School for Medicine, Nursing, and Health Professions",120 WEST 231 STREET,BRONX,10463,X368,2975 TIBBETT AVENUE,BRONX,10463,,,,
10X243,West Bronx Academy for the Future,500 EAST FORDHAM ROAD,BRONX,10458,X435,500 EAST FORDHAM ROAD,BRONX,10458,,,,
10X244,The New School for Leadership and Journalism,120 WEST 231 STREET,BRONX,10463,X368,2975 TIBBETT AVENUE,BRONX,10463,,,,
10X246,P.S. 246 Poe Center,2641 GRAND CONCOURSE,BRONX,10468,X046,279 EAST 196 STREET,BRONX,10458,,,,
10X254,I.S. 254,2452 WASHINGTON AVENUE,BRONX,10458,X254,2452 WASHINGTON AVENUE,BRONX,10458,,,,
10X264,Bronx Academy for Software Engineering (BASE),2474 CROTONA AVENUE,BRONX,10458,X660,2474 CROTONA AVENUE,BRONX,10458,,,,
10X268,Kingsbridge International High School,2780 RESERVOIR AVENUE,BRONX,10468,X430,2780 RESERVOIR AVENUE,BRONX,10468,,,,
10X279,"P.S. 279 Captain Manuel Rivera, Jr.",2100 WALTON AVENUE,BRONX,10453,X279,2100 WALTON AVENUE,BRONX,10453,,,,
10X280,P.S./M.S. 280 Mosholu Parkway,3202 STEUBEN AVENUE,BRONX,10467,X095,3961 HILLMAN AVENUE,BRONX,10463,,,,
10X284,Bronx School of Law and Finance,99 TERRACE VIEW AVENUE,BRONX,10463,X475,99 TERRACE VIEW AVENUE,BRONX,10463,,,,
10X291,P.S. 291,2195 ANDREWS AVENUE,BRONX,10453,X015,2195 ANDREWS AVENUE,BRONX,10453,,,,
10X306,P.S. 306,40 WEST TREMONT AVENUE,BRONX,10453,X306,40 WEST TREMONT AVENUE,BRONX,10453,,,,
10X307,Luisa Pineiro Fuentes School of Science and Discovery,124 EAMES PLACE,BRONX,10468,X086,2756 RESERVOIR AVENUE,BRONX,10468,,,,
10X308,Bronx Dance Academy School,3617 BAINBRIDGE AVENUE,BRONX,10467,X440,100 WEST MOSHOLU PARKWAY SOUTH,BRONX,10468,X306,40 WEST TREMONT AVENUE,BRONX,10453
10X310,P.S. 310 Marble Hill,260 W KINGSBRIDGE RD,BRONX,10463,X037,360 WEST 230 STREET,BRONX,10463,,,,
10X315,P.S. 315 Lab School,2246 JEROME AVENUE,BRONX,10453,X279,2100 WALTON AVENUE,BRONX,10453,,,,
10X331,The Bronx School of Young Leaders,40 WEST TREMONT AVENUE,BRONX,10453,X306,40 WEST TREMONT AVENUE,BRONX,10453,,,,
10X340,P.S. 340,25 WEST 195 STREET,BRONX,10468,X037,360 WEST 230 STREET,BRONX,10463,,,,
10X342,International School for Liberal Arts,2780 RESERVOIR AVENUE,BRONX,10468,X430,2780 RESERVOIR AVENUE,BRONX,10468,,,,
10X344,Ampark Neighborhood,3961 HILLMAN AVENUE,BRONX,10463,X037,360 WEST 230 STREET,BRONX,10463,,,,
10X351,Bronx Collaborative High School,100 WEST MOSHOLU PARKWAY SOUTH,BRONX,10468,X440,100 WEST MOSHOLU PARKWAY SOUTH,BRONX,10468,,,,
10X353,World View High School,100 WEST MOSHOLU PARKWAY SOUTH,BRONX,10468,X440,100 WEST MOSHOLU PARKWAY SOUTH,BRONX,10468,,,,
10X360,P.S. 360,2880 KINGSBRIDGE TERRACE,BRONX,10463,X037,360 WEST 230 STREET,BRONX,10463,,,,
10X363,ACADEMY FOR PERSONAL LEADERSHIP AND EXCELLENCE,120 EAST 184 STREET,BRONX,10468,X115,120 EAST 184 STREET,BRONX,10468,,,,
10X368,In-Tech Academy (M.S. / High School 368),2975 TIBBETT AVENUE,BRONX,10463,X368,2975 TIBBETT AVENUE,BRONX,10463,,,,
10X374,Knowledge and Power Preparatory Academy International High School (Kappa),500 EAST FORDHAM ROAD,BRONX,10458,X435,500 EAST FORDHAM ROAD,BRONX,10458,,,,
10X382,"Elementary School for Math, Science, and Technology",125 EAST 181 STREET,BRONX,10453,X279,2100 WALTON AVENUE,BRONX,10453,,,,
10X386,School for Environmental Citizenship,125 EAST 181 STREET,BRONX,10453,X279,2100 WALTON AVENUE,BRONX,10453,,,,
10X390,M.S. 390,1930 ANDREWS AVENUE,BRONX,10453,X082,1700 MACOMBS ROAD,BRONX,10453,,,,
10X391,The Angelo Patri Middle School,2225 WEBSTER AVENUE,BRONX,10457,X306,40 WEST TREMONT AVENUE,BRONX,10453,,,,
10X396,P.S. 396,1930 ANDREWS AVENUE,BRONX,10453,X015,2195 ANDREWS AVENUE,BRONX,10453,,,,
10X397,English Language Learners and International Support Preparatory Academy (ELLIS),99 TERRACE VIEW AVENUE,BRONX,10463,X475,99 TERRACE VIEW AVENUE,BRONX,10463,,,,
10X433,High School for Teaching and the Professions,2780 RESERVOIR AVENUE,BRONX,10468,X430,2780 RESERVOIR AVENUE,BRONX,10468,,,,
10X434,Belmont Preparatory High School,500 EAST FORDHAM ROAD,BRONX,10458,X435,500 EAST FORDHAM ROAD,BRONX,10458,,,,
10X437,Fordham High School for the Arts,500 EAST FORDHAM ROAD,BRONX,10458,X435,500 EAST FORDHAM ROAD,BRONX,10458,,,,
10X438,Fordham Leadership Academy for Business and Technology,500 EAST FORDHAM ROAD,BRONX,10458,X435,500 EAST FORDHAM ROAD,BRONX,10458,,,,
10X439,Bronx High School for Law and Community Service,500 EAST FORDHAM ROAD,BRONX,10458,X435,500 EAST FORDHAM ROAD,BRONX,10458,,,,
10X440,DeWitt Clinton High School,100 WEST MOSHOLU PARKWAY SOUTH,BRONX,10468,X440,100 WEST MOSHOLU PARKWAY SOUTH,BRONX,10468,,,,
10X442,"Celia Cruz Bronx High School of Music, The",2780 RESERVOIR AVENUE,BRONX,10468,X430,2780 RESERVOIR AVENUE,BRONX,10468,,,,
10X445,Bronx High School of Science,75 WEST 205 STREET,BRONX,10468,X445,75 WEST 205 STREET,BRONX,10468,,,,
10X447,Creston Academy,125 EAST 181 STREET,BRONX,10453,X279,2100 WALTON AVENUE,BRONX,10453,,,,
10X459,East Fordham Academy for the Arts,120 EAST 184 STREET,BRONX,10468,X115,120 EAST 184 STREET,BRONX,10468,,,,
10X475,John F. Kennedy High School,99 TERRACE VIEW AVENUE,BRONX,10463,X475,99 TERRACE VIEW AVENUE,BRONX,10463,,,,
10X477,Marble Hill High School for International Studies,99 TERRACE VIEW AVENUE,BRONX,10463,X475,99 TERRACE VIEW AVENUE,BRONX,10463,,,,
10X503,Walton Yabc,2780 RESERVOIR AVENUE,BRONX,10468,X430,2780 RESERVOIR AVENUE,BRONX,10468,,,,
10X504,Kennedy Yabc,99 TERRACE VIEW AVENUE,BRONX,10463,X475,99 TERRACE VIEW AVENUE,BRONX,10463,,,,
10X524,Crotona International High School,2474 CROTONA AVENUE,BRONX,10458,X660,2474 CROTONA AVENUE,BRONX,10458,,,,
10X546,Bronx Theatre High School,99 TERRACE VIEW AVENUE,BRONX,10463,X475,99 TERRACE VIEW AVENUE,BRONX,10463,,,,
10X549,Discovery High School,2780 RESERVOIR AVENUE,BRONX,10468,X430,2780 RESERVOIR AVENUE,BRONX,10468,,,,
10X565,High School for Energy and Technology,2474 CROTONA AVENUE,BRONX,10458,X660,2474 CROTONA AVENUE,BRONX,10458,,,,
10X660,Grace Dodge Career and Technical Education High School,2474 CROTONA AVENUE,BRONX,10458,X660,2474 CROTONA AVENUE,BRONX,10458,,,,
10X667,Grace Dodge Yabc,2474 CROTONA AVENUE,BRONX,10458,X660,2474 CROTONA AVENUE,BRONX,10458,,,,
10X696,High School of American Studies at Lehman College,2925 GOULDEN AVENUE,BRONX,10468,X440,100 WEST MOSHOLU PARKWAY SOUTH,BRONX,10468,,,,
11X016,P.S. 016 Wakefield,4550 CARPENTER AVENUE,BRONX,10470,X021,715 EAST 225 STREET,BRONX,10466,,,,
11X019,P.S. 019 Judith K. Weiss,4318 KATONAH AVENUE,BRONX,10470,X194,2365 WATERBURY AVE,BRONX,10462,,,,
11X021,P.S. 021 Philip H. Sheridan,715 EAST 225 STREET,BRONX,10466,X021,715 EAST 225 STREET,BRONX,10466,,,,
11X041,P.S. 041 Gun Hill Road,3352 OLINVILLE AVENUE,BRONX,10467,X105,725 BRADY AVENUE,BRONX,10462,,,,
11X068,P.S. 068 Bronx,4011 MONTICELLO AVENUE,BRONX,10466,X068,4011 MONTICELLO AVENUE,BRONX,10466,,,,
11X076,P.S. 076 The Bennington School,900 ADEE AVENUE,BRONX,10469,X105,725 BRADY AVENUE,BRONX,10462,,,,
11X078,P.S. 078 Anne Hutchinson,1400 NEEDHAM AVENUE,BRONX,10469,X021,715 EAST 225 STREET,BRONX,10466,,,,
11X083,P.S. 083 Donald Hertz,950 RHINELANDER AVENUE,BRONX,10462,X194,2365 WATERBURY AVE,BRONX,10462,,,,
11X087,P.S. 087 Bronx,1935 BUSSING AVENUE,BRONX,10466,X068,4011 MONTICELLO AVENUE,BRONX,10466,,,,
11X089,P.S. 089 Bronx,980 MACE AVENUE,BRONX,10469,X089,980 MACE AVENUE,BRONX,10469,,,,
11X096,P.S. 096 Richard Rodgers,650 WARING AVENUE,BRONX,10467,X105,725 BRADY AVENUE,BRONX,10462,,,,
11X097,P.S. 097 Bronx,1375 MACE AVENUE,BRONX,10469,X105,725 BRADY AVENUE,BRONX,10462,,,,
11X103,P.S. 103 Hector Fontanez,4125 CARPENTER AVENUE,BRONX,10466,X021,715 EAST 225 STREET,BRONX,10466,,,,
11X105,P.S. 105 Sen Abraham Bernstein,725 BRADY AVENUE,BRONX,10462,X105,725 BRADY AVENUE,BRONX,10462,,,,
11X106,P.S. 106 Parkchester,2120 ST RAYMOND'S AVENUE,BRONX,10462,X194,2365 WATERBURY AVE,BRONX,10462,,,,
11X108,P.S. 108 Philip J. Abinanti,1166 NEILL AVENUE,BRONX,10461,X105,725 BRADY AVENUE,BRONX,10462,,,,
11X111,P.S. 111 Seton Falls,3740 BAYCHESTER AVENUE,BRONX,10466,X068,4011 MONTICELLO AVENUE,BRONX,10466,,,,
11X112,P.S. 112 Bronxwood,1925 SCHIEFFELIN AVENUE,BRONX,10466,X021,715 EAST 225 STREET,BRONX,10466,,,,
11X121,P.S. 121 Throop,2750 THROOP AVENUE,BRONX,10469,X089,980 MACE AVENUE,BRONX,10469,,,,
11X127,J.H.S. 127 The Castle Hill,1560 PURDY STREET,BRONX,10462,X194,2365 WATERBURY AVE,BRONX,10462,,,,
11X142,MS 142 John Philip Sousa,3750 BAYCHESTER AVENUE,BRONX,10466,X142,3750 BAYCHESTER AVENUE,BRONX,10466,,,,
11X144,J.H.S. 144 Michelangelo,2545 GUNTHER AVENUE,BRONX,10469,X135,2441 WALLACE AVENUE,BRONX,10467,,,,
11X153,P.S. 153 Helen Keller,650 BAYCHESTER AVENUE,BRONX,10475,X160,4140 HUTCHINSON RIVER PKWAY EA,BRONX,10475,,,,
11X160,P.S. 160 Walt Disney,4140 HUTCHINSON RIVER PKWAY EA,BRONX,10475,X160,4140 HUTCHINSON RIVER PKWAY EA,BRONX,10475,,,,
11X169,BAYCHESTER ACADEMY,3500 EDSON AVENUE,BRONX,10466,X068,4011 MONTICELLO AVENUE,BRONX,10466,,,,
11X175,P.S. 175 City Island,200 CITY ISLAND AVENUE,BRONX,10464,X181,800 BAYCHESTER AVENUE,BRONX,10475,X160,4140 HUTCHINSON RIVER PKWAY EA,BRONX,10475
11X178,P.S. 178 - Dr. Selman Waksman,850 BAYCHESTER AVENUE,BRONX,10475,X160,4140 HUTCHINSON RIVER PKWAY EA,BRONX,10475,,,,
11X180,M.S. 180 Dr. Daniel Hale Williams,700 BAYCHESTER AVENUE,BRONX,10475,X181,800 BAYCHESTER AVENUE,BRONX,10475,,,,
11X181,I.S. 181 Pablo Casals,800 BAYCHESTER AVENUE,BRONX,10475,X181,800 BAYCHESTER AVENUE,BRONX,10475,,,,
11X189,Cornerstone Academy for Social Action,3441 STEENWICK AVENUE,BRONX,10475,X160,4140 HUTCHINSON RIVER PKWAY EA,BRONX,10475,,,,
11X194,PS/MS 194,2365 WATERBURY AVE,BRONX,10462,X194,2365 WATERBURY AVE,BRONX,10462,,,,
11X249,Bronx Health Sciences High School,750 BAYCHESTER AVENUE,BRONX,10475,X455,750 BAYCHESTER AVENUE,BRONX,10475,,,,
11X253,Bronx High School for Writing and Communication Arts,800 EAST GUN HILL ROAD,BRONX,10467,X425,800 EAST GUN HILL ROAD,BRONX,10467,,,,
11X265,Bronx Lab School,800 EAST GUN HILL ROAD,BRONX,10467,X425,800 EAST GUN HILL ROAD,BRONX,10467,,,,
11X270,Academy for Scholarship and Entrepreneurship: A College Board School,921 EAST 228TH STREET,BRONX,10466,X362,921 EAST 228TH STREET,BRONX,10466,,,,
11X272,Globe School for Environmental Research,3710 BARNES AVENUE,BRONX,10467,X113,3710 BARNES AVENUE,BRONX,10467,,,,
11X275,High School of Computers and Technology,800 EAST GUN HILL ROAD,BRONX,10467,X425,800 EAST GUN HILL ROAD,BRONX,10467,,,,
11X287,The Forward School,3710 BARNES AVENUE,BRONX,10467,X113,3710 BARNES AVENUE,BRONX,10467,,,,
11X288,Collegiate Institute for Math and Science,925 ASTOR AVENUE,BRONX,10469,X415,925 ASTOR AVENUE,BRONX,10469,,,,
11X289,The Young Scholars Academy of The Bronx,3710 BARNES AVENUE,BRONX,10467,X113,3710 BARNES AVENUE,BRONX,10467,,,,
11X290,Bronx Academy of Health Careers,800 EAST GUN HILL ROAD,BRONX,10467,X425,800 EAST GUN HILL ROAD,BRONX,10467,,,,
11X299,Astor Collegiate Academy,925 ASTOR AVENUE,BRONX,10469,X415,925 ASTOR AVENUE,BRONX,10469,,,,
11X322,Aspire Preparatory Middle School,2441 WALLACE AVENUE,BRONX,10467,X135,2441 WALLACE AVENUE,BRONX,10467,,,,
11X326,Bronx Green Middle School,2441 WALLACE AVENUE,BRONX,10467,X135,2441 WALLACE AVENUE,BRONX,10467,,,,
11X355,Bronx Alliance Middle School,3750 BAYCHESTER AVENUE,BRONX,10466,X142,3750 BAYCHESTER AVENUE,BRONX,10466,,,,
11X370,School of Diplomacy,3710 BARNES AVENUE,BRONX,10467,X113,3710 BARNES AVENUE,BRONX,10467,,,,
11X415,Christopher Columbus High School,925 ASTOR AVENUE,BRONX,10469,X415,925 ASTOR AVENUE,BRONX,10469,,,,
11X417,C Columbus Hs Yabc,925 ASTOR AVENUE,BRONX,10469,X415,925 ASTOR AVENUE,BRONX,10469,,,,
11X418,Bronx High School for the Visual Arts,2040 ANTIN PL,BRONX,10462,X879,1122 EAST 180 STREET,BRONX,10460,,,,
11X455,Harry S Truman High School,750 BAYCHESTER AVENUE,BRONX,10475,X455,750 BAYCHESTER AVENUE,BRONX,10475,,,,
11X462,Cornerstone Academy for Social Action Middle School (CASA),3441 STEENWICK AVENUE,BRONX,10475,X142,3750 BAYCHESTER AVENUE,BRONX,10466,,,,
11X468,Pelham Academy of Academics and Community Engagement,2441 WALLACE AVENUE,BRONX,10467,X135,2441 WALLACE AVENUE,BRONX,10467,,,,
11X498,PS/MS 11X498 - VAN NEST ACADEMY,1640 BRONXDALE AVE,BRONX,10462,X194,2365 WATERBURY AVE,BRONX,10462,,,,
11X508,Bronxdale High School,925 ASTOR AVENUE,BRONX,10469,X415,925 ASTOR AVENUE,BRONX,10469,,,,
11X509,High School of Language and Innovation,925 ASTOR AVENUE,BRONX,10469,X415,925 ASTOR AVENUE,BRONX,10469,,,,
11X513,New World High School,921 EAST 228TH STREET,BRONX,10466,X362,921 EAST 228TH STREET,BRONX,10466,,,,
11X514,The Bronxwood Preparatory Academy,921 EAST 228TH STREET,BRONX,10466,X362,921 EAST 228TH STREET,BRONX,10466,,,,
11X529,One World Middle School at Edenwald,3750 BAYCHESTER AVENUE,BRONX,10466,X142,3750 BAYCHESTER AVENUE,BRONX,10466,,,,
11X532,Baychester Middle School,3750 BAYCHESTER AVENUE,BRONX,10466,X142,3750 BAYCHESTER AVENUE,BRONX,10466,,,,
11X541,Global Enterprise High School,925 ASTOR AVENUE,BRONX,10469,X415,925 ASTOR AVENUE,BRONX,10469,,,,
11X542,Pelham Preparatory Academy,925 ASTOR AVENUE,BRONX,10469,X415,925 ASTOR AVENUE,BRONX,10469,,,,
11X544,High School for Contemporary Arts,800 EAST GUN HILL ROAD,BRONX,10467,X425,800 EAST GUN HILL ROAD,BRONX,10467,,,,
11X545,Bronx Aerospace High School,800 EAST GUN HILL ROAD,BRONX,10467,X425,800 EAST GUN HILL ROAD,BRONX,10467,,,,
11X556,Bronx Park Middle School,2441 WALLACE AVENUE,BRONX,10467,X135,2441 WALLACE AVENUE,BRONX,10467,,,,
11X566,Pelham Gardens Middle School,2545 GUNTHER AVENUE,BRONX,10469,X142,3750 BAYCHESTER AVENUE,BRONX,10466,,,,
12X006,P.S. 006 West Farms,1000 EAST TREMONT AVENUE,BRONX,10460,X167,1970 WEST FARMS ROAD,BRONX,10460,,,,
12X044,P.S. 044 David C. Farragut,1825 PROSPECT AVENUE,BRONX,10457,X150,920 EAST 167 STREET,BRONX,10459,,,,
12X047,P.S. 047 John Randolph,1794 EAST 172 STREET,BRONX,10472,X077,1250 WARD AVENUE,BRONX,10472,,,,
12X050,P.S. 050 Clara Barton,1550 VYSE AVENUE,BRONX,10460,X150,920 EAST 167 STREET,BRONX,10459,,,,
12X057,P.S. 057 Crescent,2111 CROTONA AVENUE,BRONX,10457,X234,2050 PROSPECT AVENUE,BRONX,10457,,,,
12X061,P.S. 061 Francisco Oller,1550 CROTONA PARK EAST,BRONX,10460,X878,1021 JENNINGS STREET,BRONX,10460,,,,
12X066,P.S. 066 School of Higher Expectations,1001 JENNINGS STREET,BRONX,10460,X167,1970 WEST FARMS ROAD,BRONX,10460,,,,
12X067,P.S. 067 Mohegan School,2024 MOHEGAN AVENUE,BRONX,10460,X167,1970 WEST FARMS ROAD,BRONX,10460,,,,
12X092,P.S. 092 Bronx,700 EAST 179 STREET,BRONX,10457,X234,2050 PROSPECT AVENUE,BRONX,10457,,,,
12X098,J.H.S. 098 Herman Ridder,1619 BOSTON ROAD,BRONX,10460,X098,1619 BOSTON ROAD,BRONX,10460,,,,
12X102,P.S. 102 Joseph O. Loretan,1827 ARCHER STREET,BRONX,10460,X077,1250 WARD AVENUE,BRONX,10472,,,,
12X129,M.S. 129 Academy for Independent Learning and Leadership,2055 MAPES AVENUE,BRONX,10460,X234,2050 PROSPECT AVENUE,BRONX,10457,,,,
12X134,P.S. 134 George F. Bristow,1330 BRISTOW STREET,BRONX,10459,X150,920 EAST 167 STREET,BRONX,10459,,,,
12X150,P.S. 150 Charles James Fox,920 EAST 167 STREET,BRONX,10459,X150,920 EAST 167 STREET,BRONX,10459,,,,
12X190,E.S.M.T- I.S. 190,1550 CROTONA PARK EAST,BRONX,10460,X098,1619 BOSTON ROAD,BRONX,10460,,,,
12X195,P.S. 195,1250 WARD AVENUE,BRONX,10472,X077,1250 WARD AVENUE,BRONX,10472,,,,
12X196,P.S. 196,1250 WARD AVENUE,BRONX,10472,X077,1250 WARD AVENUE,BRONX,10472,,,,
12X211,P.S. 211,1919 PROSPECT AVENUE,BRONX,10457,X193,1919 PROSPECT AVENUE,BRONX,10457,,,,
12X212,P.S. 212,1180 TINTON AVENUE,BRONX,10456,X198,1180 TINTON AVENUE,BRONX,10456,,,,
12X214,P.S. 214,1970 WEST FARMS ROAD,BRONX,10460,X167,1970 WEST FARMS ROAD,BRONX,10460,,,,
12X217,School of Performing Arts,977 FOX STREET,BRONX,10459,X116,977 FOX STREET,BRONX,10459,,,,
12X242,Mott Hall V,1551 EAST 172ND STREET,BRONX,10472,X423,1551 EAST 172ND STREET,BRONX,10472,,,,
12X248,"Metropolitan High School, The",1180 REV. J.A. POLITE AVE.,BRONX,10459,X973,1716 SOUTHERN BOULEVARD,BRONX,10460,,,,
12X251,Explorations Academy,1619 BOSTON ROAD,BRONX,10460,X098,1619 BOSTON ROAD,BRONX,10460,,,,
12X262,Performance Conservatory High School,1619 BOSTON ROAD,BRONX,10460,X098,1619 BOSTON ROAD,BRONX,10460,,,,
12X267,Bronx Latin,800 HOME STREET,BRONX,10456,X158,800 HOME STREET,BRONX,10456,,,,
12X271,East Bronx Academy for the Future,1716 SOUTHERN BOULEVARD,BRONX,10460,X973,1716 SOUTHERN BOULEVARD,BRONX,10460,,,,
12X273,Frederick Douglass Academy V. Middle School,2111 CROTONA AVENUE,BRONX,10457,X003,2100 LAFONTAINE AVENUE,BRONX,10457,,,,
12X278,Peace and Diversity Academy,1180 REV. J.A. POLITE AVE.,BRONX,10459,X879,1122 EAST 180 STREET,BRONX,10460,,,,
12X286,Fannie Lou Hamer Middle School,1001 JENNINGS STREET,BRONX,10460,X878,1021 JENNINGS STREET,BRONX,10460,,,,
12X300,The School of Science and Applied Learning,2050 PROSPECT AVENUE,BRONX,10457,X234,2050 PROSPECT AVENUE,BRONX,10457,,,,
12X316,Kappa III,2055 MAPES AVENUE,BRONX,10460,X234,2050 PROSPECT AVENUE,BRONX,10457,,,,
12X318,"I.S. X318 Math, Science & Technology Through Arts",1919 PROSPECT AVENUE,BRONX,10457,X193,1919 PROSPECT AVENUE,BRONX,10457,,,,
12X341,Accion Academy,1825 PROSPECT AVENUE,BRONX,10457,X098,1619 BOSTON ROAD,BRONX,10460,,,,
12X372,Urban Assembly School for Wildlife Conservation,2024 MOHEGAN AVENUE,BRONX,10460,X460,244 EAST 163 STREET,BRONX,10451,,,,
12X383,Emolior Academy,1970 WEST FARMS ROAD,BRONX,10460,X167,1970 WEST FARMS ROAD,BRONX,10460,,,,
12X384,Entrada Academy,977 FOX STREET,BRONX,10459,X116,977 FOX STREET,BRONX,10459,,,,
12X388,Pan American International High School at Monroe,1300 BOYNTON AVENUE,BRONX,10472,X420,1300 BOYNTON AVENUE,BRONX,10472,,,,
12X428,Learning To Work Yabc At Monroe Academy,1300 BOYNTON AVENUE,BRONX,10472,X420,1300 BOYNTON AVENUE,BRONX,10472,,,,
12X446,Arturo A. Schomburg Satellite Academy Bronx,1010 REV. J. A. POLITE AVENUE,BRONX,10459,X401,1010 REV. J. A. POLITE AVENUE,BRONX,10459,,,,
12X463,Urban Scholars Community School,1180 TINTON AVENUE,BRONX,10456,X198,1180 TINTON AVENUE,BRONX,10456,,,,
12X478,THE CINEMA SCHOOL,1551 EAST 172ND STREET,BRONX,10472,X973,1716 SOUTHERN BOULEVARD,BRONX,10460,,,,
12X479,Bronx Career and College Preparatory High School,800 HOME STREET,BRONX,10456,X158,800 HOME STREET,BRONX,10456,,,,
12X480,Bronx Regional High School,1010 REV. J. A. POLITE AVENUE,BRONX,10459,X401,1010 REV. J. A. POLITE AVENUE,BRONX,10459,,,,
12X511,Bronx Envision Academy,1619 BOSTON ROAD,BRONX,10460,X098,1619 BOSTON ROAD,BRONX,10460,,,,
12X521,The Metropolitan Soundview High School,1300 BOYNTON AVENUE,BRONX,10472,X420,1300 BOYNTON AVENUE,BRONX,10472,,,,
12X531,Archer Elementary School,1827 ARCHER STREET,BRONX,10460,X077,1250 WARD AVENUE,BRONX,10472,,,,
12X536,PS 536,1827 ARCHER STREET,BRONX,10460,X077,1250 WARD AVENUE,BRONX,10472,,,,
12X550,High School of World Cultures,1300 BOYNTON AVENUE,BRONX,10472,X420,1300 BOYNTON AVENUE,BRONX,10472,,,,
12X682,Fannie Lou Hamer Freedom High School,1021 JENNINGS STREET,BRONX,10460,X878,1021 JENNINGS STREET,BRONX,10460,X973,1716 SOUTHERN BOULEVARD,BRONX,10460
12X684,Wings Academy,1122 EAST 180 STREET,BRONX,10460,X879,1122 EAST 180 STREET,BRONX,10460,,,,
12X690,Monroe Academy for Business/Law,1300 BOYNTON AVENUE,BRONX,10472,X420,1300 BOYNTON AVENUE,BRONX,10472,,,,
12X691,Bronx Little School,1827 ARCHER STREET,BRONX,10460,X077,1250 WARD AVENUE,BRONX,10472,,,,
12X692,Monroe Academy for Visual Arts & Design,1300 BOYNTON AVENUE,BRONX,10472,X420,1300 BOYNTON AVENUE,BRONX,10472,,,,
13K003,P.S. 003 The Bedford Village,50 JEFFERSON AVENUE,BROOKLYN,11216,K003,50 JEFFERSON AVENUE,BROOKLYN,11216,,,,
13K008,P.S. 008 Robert Fulton,37 HICKS STREET,BROOKLYN,11201,K282,180 6 AVENUE,BROOKLYN,11217,,,,
13K009,P.S. 009 Teunis G. Bergen,80 UNDERHILL AVENUE,BROOKLYN,11238,K003,50 JEFFERSON AVENUE,BROOKLYN,11216,,,,
13K011,P.S. 011 Purvis J. Behan,419 WAVERLY AVENUE,BROOKLYN,11238,K003,50 JEFFERSON AVENUE,BROOKLYN,11216,,,,
13K020,P.S. 020 Clinton Hill,225 ADELPHI STREET,BROOKLYN,11205,K003,50 JEFFERSON AVENUE,BROOKLYN,11216,,,,
13K044,P.S. 044 Marcus Garvey,432 MONROE STREET,BROOKLYN,11221,K003,50 JEFFERSON AVENUE,BROOKLYN,11216,,,,
13K046,P.S. 046 Edward C. Blum,100 CLERMONT AVENUE,BROOKLYN,11205,K282,180 6 AVENUE,BROOKLYN,11217,,,,
13K054,P.S. 054 Samuel C. Barnes,195 SANFORD STREET,BROOKLYN,11205,K003,50 JEFFERSON AVENUE,BROOKLYN,11216,,,,
13K056,P.S. 056 Lewis H. Latimer,170 GATES AVENUE,BROOKLYN,11238,K003,50 JEFFERSON AVENUE,BROOKLYN,11216,,,,
13K067,P.S. 067 Charles A. Dorsey,51 SAINT EDWARDS STREET,BROOKLYN,11205,K282,180 6 AVENUE,BROOKLYN,11217,K003,50 JEFFERSON AVENUE,BROOKLYN,11216
13K093,P.S. 093 William H. Prescott,31 NEW YORK AVENUE,BROOKLYN,11216,K003,50 JEFFERSON AVENUE,BROOKLYN,11216,,,,
13K103,Satellite Three,170 GATES AVENUE,BROOKLYN,11238,K113,300 ADELPHI STREET,BROOKLYN,11205,,,,
13K113,M.S. 113 Ronald Edmonds Learning Center,300 ADELPHI STREET,BROOKLYN,11205,K113,300 ADELPHI STREET,BROOKLYN,11205,,,,
13K133,P.S. 133 William A. Butler,610 BALTIC STREET,BROOKLYN,11217,K282,180 6 AVENUE,BROOKLYN,11217,,,,
13K256,P.S. 256 Benjamin Banneker,114 KOSCIUSKO STREET,BROOKLYN,11216,K003,50 JEFFERSON AVENUE,BROOKLYN,11216,,,,
13K265,Dr. Susan S. McKinney Secondary School of the Arts,101 PARK AVENUE,BROOKLYN,11205,K805,49 FLATBUSH AVENUE EXTENSION,BROOKLYN,11201,,,,
13K266,M.S. K266 - Park Place Community Middle School,62 PARK PLACE,BROOKLYN,11217,K282,180 6 AVENUE,BROOKLYN,11217,,,,
13K270,P.S. 270 Johann DeKalb,241 EMERSON PLACE,BROOKLYN,11205,K003,50 JEFFERSON AVENUE,BROOKLYN,11216,,,,
13K282,P.S. 282 Park Slope,180 6 AVENUE,BROOKLYN,11217,K282,180 6 AVENUE,BROOKLYN,11217,,,,
13K287,P.S. 287 Bailey K. Ashford,50 NAVY STREET,BROOKLYN,11201,K282,180 6 AVENUE,BROOKLYN,11217,,,,
13K301,Satellite East Middle School,344 MONROE STREET,BROOKLYN,11216,K324,800 GATES AVENUE,BROOKLYN,11221,,,,
13K305,P.S. 305 Dr. Peter Ray,344 MONROE STREET,BROOKLYN,11216,K003,50 JEFFERSON AVENUE,BROOKLYN,11216,,,,
13K307,P.S. 307 Daniel Hale Williams,209 YORK STREET,BROOKLYN,11201,K282,180 6 AVENUE,BROOKLYN,11217,,,,
13K313,Satellite West Middle School,209 YORK STREET,BROOKLYN,11201,K282,180 6 AVENUE,BROOKLYN,11217,,,,
13K350,Urban Assembly High School of Music and Art,49 FLATBUSH AVENUE EXTENSION,BROOKLYN,11201,K805,49 FLATBUSH AVENUE EXTENSION,BROOKLYN,11201,,,,
13K351,The Urban Assembly Unison School,170 GATES AVENUE,BROOKLYN,11238,K313,283 ADAMS STREET,BROOKLYN,11201,,,,
13K412,"Brooklyn Community High School of Communication, Arts and Media",300 WILLOUGHBY AVENUE,BROOKLYN,11205,K650,257 NORTH 6 STREET,BROOKLYN,11211,,,,
13K419,"Science Skills Center High School for Science, Technology and the Creative Arts",49 FLATBUSH AVENUE EXTENSION,BROOKLYN,11201,K805,49 FLATBUSH AVENUE EXTENSION,BROOKLYN,11201,,,,
13K430,Brooklyn Technical High School,29 FT GREENE PLACE,BROOKLYN,11217,K430,29 FT GREENE PLACE,BROOKLYN,11217,,,,
13K439,Brooklyn International High School,49 FLATBUSH AVENUE EXTENSION,BROOKLYN,11201,K805,49 FLATBUSH AVENUE EXTENSION,BROOKLYN,11201,,,,
13K483,The Urban Assembly School for Law and Justice,283 ADAMS STREET,BROOKLYN,11201,K313,283 ADAMS STREET,BROOKLYN,11201,,,,
13K492,Academy of Arts and Letters,225 ADELPHI STREET,BROOKLYN,11205,K313,283 ADAMS STREET,BROOKLYN,11201,,,,
13K499,ACORN Community High School,561 GRAND AVENUE,BROOKLYN,11238,K293,284 BALTIC STREET,BROOKLYN,11201,,,,
13K527,Urban Assembly Institute of Math and Science for Young Women,283 ADAMS STREET,BROOKLYN,11201,K313,283 ADAMS STREET,BROOKLYN,11201,,,,
13K553,Brooklyn Academy High School,832 MARCY AVENUE,BROOKLYN,11216,M510,198 FORSYTH STREET,MANHATTAN,10002,,,,
13K575,Bedford Stuyvesant Preparatory High School,832 MARCY AVENUE,BROOKLYN,11216,K650,257 NORTH 6 STREET,BROOKLYN,11211,,,,
13K595,Bedford Academy High School,1119 BEDFORD AVENUE,BROOKLYN,11216,K914,71-77 CLINTON AVENUE,BROOKLYN,11205,,,,
13K596,MS 596 Peace Academy,300 WILLOUGHBY AVENUE,BROOKLYN,11205,K113,300 ADELPHI STREET,BROOKLYN,11205,,,,
13K605,George Westinghouse Career and Technical Education High School,105 JOHNSON STREET,BROOKLYN,11201,K580,105 JOHNSON STREET,BROOKLYN,11201,,,,
13K616,Brooklyn High School for Leadership and Community Service,300 WILLOUGHBY AVENUE,BROOKLYN,11205,K650,257 NORTH 6 STREET,BROOKLYN,11211,,,,
13K657,Downtown Brooklyn Yabc,105 JOHNSON STREET,BRONX,11201,K580,105 JOHNSON STREET,BROOKLYN,11201,,,,
13K670,Benjamin Banneker Academy,71-77 CLINTON AVENUE,BROOKLYN,11205,K914,71-77 CLINTON AVENUE,BROOKLYN,11205,,,,
13K674,"City Polytechnic High School of Engineering, Architecture, and Technology",105 JOHNSON STREET,BROOKLYN,11201,K580,105 JOHNSON STREET,BROOKLYN,11201,,,,
13K691,Fort Greene Preparatory Academy,100 CLERMONT AVENUE,BROOKLYN,11205,K313,283 ADAMS STREET,BROOKLYN,11201,,,,
14K016,P.S. 016 Leonard Dunkly,157 WILSON STREET,BROOKLYN,11211,K250,108 MONTROSE AVENUE,BROOKLYN,11206,,,,
14K017,P.S. 017 Henry D. Woodworth,208 NORTH 5 STREET,BROOKLYN,11211,K257,60 COOK STREET,BROOKLYN,11206,,,,
14K018,P.S. 018 Edward Bush,101 MAUJER STREET,BROOKLYN,11206,K250,108 MONTROSE AVENUE,BROOKLYN,11206,,,,
14K019,P.S. 019 Roberto Clemente,325 SOUTH 3 STREET,BROOKLYN,11211,K250,108 MONTROSE AVENUE,BROOKLYN,11206,,,,
14K023,P.S. 023 Carter G. Woodson,545 WILLOUGHBY AVENUE,BROOKLYN,11206,K250,108 MONTROSE AVENUE,BROOKLYN,11206,,,,
14K031,P.S. 031 Samuel F. Dupont,75 MESEROLE AVENUE,BROOKLYN,11222,K257,60 COOK STREET,BROOKLYN,11206,,,,
14K034,P.S. 034 Oliver H. Perry,131 NORMAN AVENUE,BROOKLYN,11222,K257,60 COOK STREET,BROOKLYN,11206,,,,
14K050,J.H.S. 050 John D. Wells,183 SOUTH 3 STREET,BROOKLYN,11211,K071,215 HEYWARD STREET,BROOKLYN,11206,,,,
14K059,P.S. 059 William Floyd,211 THROOP AVENUE,BROOKLYN,11206,K250,108 MONTROSE AVENUE,BROOKLYN,11206,,,,
14K071,Juan Morel Campos Secondary School,215 HEYWARD STREET,BROOKLYN,11206,K071,215 HEYWARD STREET,BROOKLYN,11206,,,,
14K084,P.S. 084 Jose De Diego,250 BERRY STREET,BROOKLYN,11211,K250,108 MONTROSE AVENUE,BROOKLYN,11206,,,,
14K110,P.S. 110 The Monitor,124 MONITOR STREET,BROOKLYN,11222,K257,60 COOK STREET,BROOKLYN,11206,,,,
14K120,P.S. 120 Carlos Tapia,18 BEAVER STREET,BROOKLYN,11206,K257,60 COOK STREET,BROOKLYN,11206,,,,
14K126,John Ericsson Middle School 126,424 LEONARD STREET,BROOKLYN,11222,K318,101 WALTON STREET,BROOKLYN,11206,,,,
14K132,P.S. 132 The Conselyea School,320 MANHATTAN AVENUE,BROOKLYN,11211,K257,60 COOK STREET,BROOKLYN,11206,,,,
14K147,P.S. 147 Isaac Remsen,325 BUSHWICK AVENUE,BROOKLYN,11206,K250,108 MONTROSE AVENUE,BROOKLYN,11206,,,,
14K157,P.S. 157 Benjamin Franklin,850 KENT AVENUE,BROOKLYN,11205,K257,60 COOK STREET,BROOKLYN,11206,K318,101 WALTON STREET,BROOKLYN,11206
14K196,P.S. 196 Ten Eyck,207 BUSHWICK AVENUE,BROOKLYN,11206,K257,60 COOK STREET,BROOKLYN,11206,,,,
14K250,P.S. 250 George H. Lindsay,108 MONTROSE AVENUE,BROOKLYN,11206,K250,108 MONTROSE AVENUE,BROOKLYN,11206,,,,
14K257,P.S. 257 John F. Hylan,60 COOK STREET,BROOKLYN,11206,K257,60 COOK STREET,BROOKLYN,11206,,,,
14K297,P.S. 297 Abraham Stockton,700 PARK AVENUE,BROOKLYN,11206,K250,108 MONTROSE AVENUE,BROOKLYN,11206,,,,
14K318,I.S. 318 Eugenio Maria De Hostos,101 WALTON STREET,BROOKLYN,11206,K318,101 WALTON STREET,BROOKLYN,11206,,,,
14K319,P.S. 319,360 KEAP STREET,BROOKLYN,11211,K319,360 KEAP STREET,BROOKLYN,11211,,,,
14K322,Foundations Academy,70 TOMPKINS AVENUE,BROOKLYN,11206,K625,150 ALBANY AVENUE,BROOKLYN,11213,K455,1700 FULTON STREET,BROOKLYN,11213
14K330,The Urban Assembly School for the Urban Environment,70 TOMPKINS AVENUE,BROOKLYN,11206,K318,101 WALTON STREET,BROOKLYN,11206,,,,
14K380,P.S. 380 John Wayne Elementary,370 MARCY AVENUE,BROOKLYN,11206,K257,60 COOK STREET,BROOKLYN,11206,,,,
14K414,Brooklyn Arbor Elementary School,325 SOUTH 3 STREET,BROOKLYN,11211,K250,108 MONTROSE AVENUE,BROOKLYN,11206,,,,
14K449,"Brooklyn Latin School, The",223 GRAHAM AVENUE,BROOKLYN,11206,K430,29 FT GREENE PLACE,BROOKLYN,11217,,,,
14K454,Green School: An Academy for Environmental Careers,223 GRAHAM AVENUE,BROOKLYN,11206,K650,257 NORTH 6 STREET,BROOKLYN,11211,,,,
14K474,PROGRESS High School for Professional Careers,850 GRAND STREET,BROOKLYN,11211,K450,850 GRAND STREET,BROOKLYN,11211,,,,
14K477,School for Legal Studies,850 GRAND STREET,BROOKLYN,11211,K450,850 GRAND STREET,BROOKLYN,11211,,,,
14K478,"The High School for Enterprise, Business and Technology",850 GRAND STREET,BROOKLYN,11211,K450,850 GRAND STREET,BROOKLYN,11211,,,,
14K488,Brooklyn Preparatory High School,257 NORTH 6 STREET,BROOKLYN,11211,K650,257 NORTH 6 STREET,BROOKLYN,11211,,,,
14K558,Williamsburg High School for Architecture and Design,257 NORTH 6 STREET,BROOKLYN,11211,K650,257 NORTH 6 STREET,BROOKLYN,11211,,,,
14K561,Williamsburg Preparatory School,257 NORTH 6 STREET,BROOKLYN,11211,K650,257 NORTH 6 STREET,BROOKLYN,11211,,,,
14K577,Conselyea Preparatory School,208 NORTH 5 STREET,BROOKLYN,11211,K318,101 WALTON STREET,BROOKLYN,11206,,,,
14K582,M.S. 582,207 BUSHWICK AVENUE,BROOKLYN,11206,K318,101 WALTON STREET,BROOKLYN,11206,,,,
14K586,Lyons Community School,223 GRAHAM AVENUE,BROOKLYN,11206,K650,257 NORTH 6 STREET,BROOKLYN,11211,,,,
14K610,Automotive High School,50 BEDFORD AVENUE,BROOKLYN,11222,K610,50 BEDFORD AVENUE,BROOKLYN,11222,,,,
14K614,Young Women's Leadership School of Brooklyn,325 BUSHWICK AVENUE,BROOKLYN,11206,K650,257 NORTH 6 STREET,BROOKLYN,11211,K318,101 WALTON STREET,BROOKLYN,11206
14K632,Frances Perkins Academy,50 BEDFORD AVENUE,BROOKLYN,11222,K610,50 BEDFORD AVENUE,BROOKLYN,11222,,,,
14K685,El Puente Academy for Peace and Justice,250 HOOPER STREET,BROOKLYN,11211,K778,250 HOOPER STREET,BROOKLYN,11211,,,,
14K923,Automotive High School Yabc,50 BEDFORD AVENUE,BRONX,11222,K610,50 BEDFORD AVENUE,BROOKLYN,11222,,,,
15K001,P.S. 001 The Bergen,309 47 STREET,BROOKLYN,11220,K136,4004 4 AVENUE,BROOKLYN,11232,,,,
15K010,"Magnet School of Math, Science and Design Technology",511 7 AVENUE,BROOKLYN,11215,K130,70 OCEAN PARKWAY,BROOKLYN,11218,,,,
15K015,P.S. 015 Patrick F. Daly,71 SULLIVAN STREET,BROOKLYN,11231,K032,317 HOYT STREET,BROOKLYN,11231,,,,
15K024,P.S. 024,427 38 STREET,BROOKLYN,11232,K024,427 38 STREET,BROOKLYN,11232,,,,
15K029,P.S. 029 John M. Harrigan,425 HENRY STREET,BROOKLYN,11201,K024,427 38 STREET,BROOKLYN,11232,,,,
15K032,P.S. 032 Samuel Mills Sprole,317 HOYT STREET,BROOKLYN,11231,K032,317 HOYT STREET,BROOKLYN,11231,,,,
15K038,P.S. 038 The Pacific,450 PACIFIC STREET,BROOKLYN,11217,K032,317 HOYT STREET,BROOKLYN,11231,,,,
15K039,P.S. 039 Henry Bristow,417 6 AVENUE,BROOKLYN,11215,K130,70 OCEAN PARKWAY,BROOKLYN,11218,,,,
15K051,M.S. 51 William Alexander,350 5 AVENUE,BROOKLYN,11215,K088,544 7TH AVENUE,BROOKLYN,11215,,,,
15K058,P.S. 058 The Carroll,330 SMITH STREET,BROOKLYN,11231,K131,4305 FT HAMILTON PARKWAY,BROOKLYN,11219,,,,
15K088,J.H.S. 088 Peter Rouget,544 7TH AVENUE,BROOKLYN,11215,K088,544 7TH AVENUE,BROOKLYN,11215,,,,
15K094,P.S. 094 The Henry Longfellow,5010 6 AVENUE,BROOKLYN,11220,K094,5010 6 AVENUE,BROOKLYN,11220,,,,
15K107,P.S. 107 John W. Kimball,1301 8 AVENUE,BROOKLYN,11215,K130,70 OCEAN PARKWAY,BROOKLYN,11218,,,,
15K124,P.S. 124 Silas B. Dutcher,515 4 AVENUE,BROOKLYN,11215,K131,4305 FT HAMILTON PARKWAY,BROOKLYN,11219,,,,
15K130,P.S. 130 The Parkside,70 OCEAN PARKWAY,BROOKLYN,11218,K130,70 OCEAN PARKWAY,BROOKLYN,11218,,,,
15K131,P.S. 131 Brooklyn,4305 FT HAMILTON PARKWAY,BROOKLYN,11219,K131,4305 FT HAMILTON PARKWAY,BROOKLYN,11219,,,,
15K136,I.S. 136 Charles O. Dewey,4004 4 AVENUE,BROOKLYN,11232,K136,4004 4 AVENUE,BROOKLYN,11232,,,,
15K146,P.S. 146,610 HENRY STREET,BROOKLYN,11231,K024,427 38 STREET,BROOKLYN,11232,,,,
15K154,The Windsor Terrace School,1625 11 AVENUE,BROOKLYN,11215,K130,70 OCEAN PARKWAY,BROOKLYN,11218,,,,
15K169,P.S. 169 Sunset Park,4305 7 AVENUE,BROOKLYN,11232,K131,4305 FT HAMILTON PARKWAY,BROOKLYN,11219,,,,
15K172,P.S. 172 Beacon School of Excellence,825 4 AVENUE,BROOKLYN,11232,K172,825 4 AVENUE,BROOKLYN,11232,,,,
15K230,P.S. 230 Doris L. Cohen,1 ALBEMARLE ROAD,BROOKLYN,11218,K130,70 OCEAN PARKWAY,BROOKLYN,11218,,,,
15K261,P.S. 261 Philip Livingston,314 PACIFIC STREET,BROOKLYN,11201,K032,317 HOYT STREET,BROOKLYN,11231,,,,
15K295,P.S. 295,330 18 STREET,BROOKLYN,11215,K130,70 OCEAN PARKWAY,BROOKLYN,11218,,,,
15K321,P.S. 321 William Penn,180 7 AVENUE,BROOKLYN,11215,K024,427 38 STREET,BROOKLYN,11232,,,,
15K418,The Children's School,512 CARROLL STREET,BROOKLYN,11215,K834,512 CARROLL STREET,BROOKLYN,11215,,,,
15K423,Brooklyn Frontiers High School,112 SCHERMERHORN STREET,BROOKLYN,11201,K804,347 BALTIC STREET,BROOKLYN,11201,,,,
15K429,Brooklyn School for Global Studies,284 BALTIC STREET,BROOKLYN,11201,K293,284 BALTIC STREET,BROOKLYN,11201,,,,
15K442,M.S. 442 Carroll Gardens School for Innovation,317 HOYT STREET,BROOKLYN,11231,K032,317 HOYT STREET,BROOKLYN,11231,,,,
15K443,New Voices School of Academic & Creative Arts,330 18 STREET,BROOKLYN,11215,K088,544 7TH AVENUE,BROOKLYN,11215,,,,
15K447,The Math & Science Exploratory School,345 DEAN STREET,BROOKLYN,11217,K032,317 HOYT STREET,BROOKLYN,11231,,,,
15K448,Brooklyn Secondary School for Collaborative Studies,610 HENRY STREET,BROOKLYN,11231,K088,544 7TH AVENUE,BROOKLYN,11215,,,,
15K462,Secondary School for Law,237 7 AVENUE,BROOKLYN,11215,K455,1700 FULTON STREET,BROOKLYN,11213,,,,
15K463,Secondary School for Journalism,237 7 AVENUE,BROOKLYN,11215,K804,347 BALTIC STREET,BROOKLYN,11201,,,,
15K464,Park Slope Collegiate,237 7 AVENUE,BROOKLYN,11215,K088,544 7TH AVENUE,BROOKLYN,11215,K804,347 BALTIC STREET,BROOKLYN,11201
15K497,School for International Studies,284 BALTIC STREET,BROOKLYN,11201,K293,284 BALTIC STREET,BROOKLYN,11201,,,,
15K519,Cobble Hill School of American Studies,347 BALTIC STREET,BROOKLYN,11201,K804,347 BALTIC STREET,BROOKLYN,11201,,,,
15K529,West Brooklyn Community High School,1053 41ST STREET,BROOKLYN,11219,K781,1053 41ST STREET,BROOKLYN,11219,,,,
15K530,Metropolitan Corporate Academy High School,362 SCHERMERHORN STREET,BROOKLYN,11217,K470,600 KINGSTON AVENUE,BROOKLYN,11203,,,,
15K592,Khalil Gibran International Academy,362 SCHERMERHORN STREET,BROOKLYN,11217,K804,347 BALTIC STREET,BROOKLYN,11201,,,,
15K656,Brooklyn High School of the Arts,345 DEAN STREET,BROOKLYN,11217,K655,345 DEAN STREET,BROOKLYN,11217,,,,
15K667,Sunset Park High School,153 35TH STREET,BROOKLYN,11232,K564,153 35TH STREET,BROOKLYN,11232,,,,
15K676,Red Hook Neighborhood School,27 HUNTINGTON STREET,BROOKLYN,11231,K032,317 HOYT STREET,BROOKLYN,11231,,,,
15K684,Millennium Brooklyn HS,237 7 AVENUE,BROOKLYN,11215,K088,544 7TH AVENUE,BROOKLYN,11215,,,,
15K698,South Brooklyn Community High School,173 CONOVER STREET,BROOKLYN,11231,M520,411 PEARL STREET,MANHATTAN,10038,,,,
15K821,Sunset Park Prep,4004 4 AVENUE,BROOKLYN,11232,K136,4004 4 AVENUE,BROOKLYN,11232,,,,
16K005,P.S. 005 Dr. Ronald Mcnair,820 HANCOCK STREET,BROOKLYN,11233,K040,265 RALPH AVENUE,BROOKLYN,11233,,,,
16K021,P.S. 021 Crispus Attucks,180 CHAUNCEY STREET,BROOKLYN,11233,K040,265 RALPH AVENUE,BROOKLYN,11233,,,,
16K025,P.S. 025 Eubie Blake School,787 LAFAYETTE AVENUE,BROOKLYN,11221,K040,265 RALPH AVENUE,BROOKLYN,11233,,,,
16K026,P.S. 026 Jesse Owens,1014 LAFAYETTE AVENUE,BROOKLYN,11221,K040,265 RALPH AVENUE,BROOKLYN,11233,,,,
16K028,P.S. 028 The Warren Prep Academy,1001 HERKIMER STREET,BROOKLYN,11233,K040,265 RALPH AVENUE,BROOKLYN,11233,,,,
16K035,M.S. 035 Stephen Decatur,272 MACDONOUGH STREET,BROOKLYN,11233,K324,800 GATES AVENUE,BROOKLYN,11221,,,,
16K040,P.S. 040 George W. Carver,265 RALPH AVENUE,BROOKLYN,11233,K040,265 RALPH AVENUE,BROOKLYN,11233,,,,
16K057,J.H.S. 057 Whitelaw Reid,125 STUYVESANT AVENUE,BROOKLYN,11221,K057,125 STUYVESANT AVENUE,BROOKLYN,11221,,,,
16K081,P.S. 081 Thaddeus Stevens,990 DEKALB AVENUE,BROOKLYN,11221,K040,265 RALPH AVENUE,BROOKLYN,11233,,,,
16K243,P.S. 243K- The Weeksville School,1580 DEAN STREET,BROOKLYN,11213,K040,265 RALPH AVENUE,BROOKLYN,11233,,,,
16K262,P.S. 262 El Hajj Malik El Shabazz Elementary School,500 MACON STREET,BROOKLYN,11233,K262,500 MACON STREET,BROOKLYN,11233,K057,125 STUYVESANT AVENUE,BROOKLYN,11221
16K267,"M.S. 267 Math, Science & Technology",800 GATES AVENUE,BROOKLYN,11221,K324,800 GATES AVENUE,BROOKLYN,11221,,,,
16K308,P.S. 308 Clara Cardwell,616 QUINCY STREET,BROOKLYN,11221,K040,265 RALPH AVENUE,BROOKLYN,11233,K057,125 STUYVESANT AVENUE,BROOKLYN,11221
16K309,P.S. 309 The George E. Wibecan Preparatory Academy,794 MONROE STREET,BROOKLYN,11221,K040,265 RALPH AVENUE,BROOKLYN,11233,,,,
16K335,P.S. 335 Granville T. Woods,130 ROCHESTER AVENUE,BROOKLYN,11213,K040,265 RALPH AVENUE,BROOKLYN,11233,,,,
16K385,"School of Business, Finance and Entrepreneurship",125 STUYVESANT AVENUE,BROOKLYN,11221,K057,125 STUYVESANT AVENUE,BROOKLYN,11221,,,,
16K393,Frederick Douglass Academy IV Secondary School,1014 LAFAYETTE AVENUE,BROOKLYN,11221,K057,125 STUYVESANT AVENUE,BROOKLYN,11221,K450,850 GRAND STREET,BROOKLYN,11211
16K455,Boys and Girls High School,1700 FULTON STREET,BROOKLYN,11213,K455,1700 FULTON STREET,BROOKLYN,11213,,,,
16K498,Brooklyn High School for Law and Technology,1396 BROADWAY,BROOKLYN,11221,K987,1396 BROADWAY,BROOKLYN,11221,,,,
16K534,Upper School @ P.S. 25,787 LAFAYETTE AVENUE,BROOKLYN,11221,K057,125 STUYVESANT AVENUE,BROOKLYN,11221,,,,
16K584,M.S. 584,130 ROCHESTER AVENUE,BROOKLYN,11213,K057,125 STUYVESANT AVENUE,BROOKLYN,11221,,,,
16K594,Gotham Professional Arts Academy,265 RALPH AVENUE,BROOKLYN,11233,K040,265 RALPH AVENUE,BROOKLYN,11233,,,,
16K627,Brighter Choice Community School,280 HART STREET,BROOKLYN,11206,K040,265 RALPH AVENUE,BROOKLYN,11233,K057,125 STUYVESANT AVENUE,BROOKLYN,11221
16K628,Brooklyn Brownstone School,272 MACDONOUGH STREET,BROOKLYN,11233,K040,265 RALPH AVENUE,BROOKLYN,11233,,,,
16K636,Young Scholars' Academy for Discovery and Exploration,280 HART STREET,BROOKLYN,11206,K057,125 STUYVESANT AVENUE,BROOKLYN,11221,,,,
16K669,Research and Service High School,1700 FULTON STREET,BROOKLYN,11213,K455,1700 FULTON STREET,BROOKLYN,11213,,,,
16K681,Madiba Prep Middle School,1014 LAFAYETTE AVENUE,BROOKLYN,11221,K057,125 STUYVESANT AVENUE,BROOKLYN,11221,,,,
16K688,The Brooklyn Academy of Global Finance,125 STUYVESANT AVENUE,BROOKLYN,11221,K057,125 STUYVESANT AVENUE,BROOKLYN,11221,,,,
16K959,BOYS AND GIRLS YABC,1700 FULTON STREET,BROOKLYN,11213,K455,1700 FULTON STREET,BROOKLYN,11213,,,,
17K002,Parkside Preparatory Academy,655 PARKSIDE AVENUE,BROOKLYN,11226,K246,72 VERONICA PLACE,BROOKLYN,11226,,,,
17K006,P.S. 006,43 SNYDER AVENUE,BROOKLYN,11226,K092,601 PARKSIDE AVENUE,BROOKLYN,11226,,,,
17K012,Dr. Jacqueline Peek-Davis School,430 HOWARD AVENUE,BROOKLYN,11233,K189,1100 EAST NEW YORK AVENUE,BROOKLYN,11212,,,,
17K022,P.S. 022,443 ST MARKS AVENUE,BROOKLYN,11238,K241,976 PRESIDENT STREET,BROOKLYN,11225,,,,
17K061,M.S. 061 Dr. Gladstone H. Atwell,400 EMPIRE BOULEVARD,BROOKLYN,11225,K246,72 VERONICA PLACE,BROOKLYN,11226,,,,
17K091,P.S. 091 The Albany Avenue School,532 ALBANY AVENUE,BROOKLYN,11203,K241,976 PRESIDENT STREET,BROOKLYN,11225,,,,
17K092,P.S. 092 Adrian Hegeman,601 PARKSIDE AVENUE,BROOKLYN,11226,K092,601 PARKSIDE AVENUE,BROOKLYN,11226,,,,
17K122,Pathways in Technology Early College High School (P-Tech),150 ALBANY AVENUE,BROOKLYN,11213,K625,150 ALBANY AVENUE,BROOKLYN,11213,,,,
17K138,P.S. 138 Brooklyn,760 PROSPECT PLACE,BROOKLYN,11216,K241,976 PRESIDENT STREET,BROOKLYN,11225,,,,
17K161,P.S. 161 The Crown,330 CROWN STREET,BROOKLYN,11225,K092,601 PARKSIDE AVENUE,BROOKLYN,11226,,,,
17K167,P.S. 167 The Parkway,1025 EASTERN PARKWAY,BROOKLYN,11213,K178,2163 DEAN STREET,BROOKLYN,11233,,,,
17K181,P.S. 181 Brooklyn,1023 NEW YORK AVENUE,BROOKLYN,11203,K092,601 PARKSIDE AVENUE,BROOKLYN,11226,,,,
17K189,P.S. 189 The Bilingual Center,1100 EAST NEW YORK AVENUE,BROOKLYN,11212,K189,1100 EAST NEW YORK AVENUE,BROOKLYN,11212,,,,
17K191,P.S. 191 Paul Robeson,1600 PARK PLACE,BROOKLYN,11233,K189,1100 EAST NEW YORK AVENUE,BROOKLYN,11212,,,,
17K221,P.S. 221 Toussaint L'Ouverture,791 EMPIRE BOULEVARD,BROOKLYN,11213,K241,976 PRESIDENT STREET,BROOKLYN,11225,,,,
17K241,P.S. 241 Emma L. Johnston,976 PRESIDENT STREET,BROOKLYN,11225,K241,976 PRESIDENT STREET,BROOKLYN,11225,,,,
17K246,M.S. 246 Walt Whitman,72 VERONICA PLACE,BROOKLYN,11226,K246,72 VERONICA PLACE,BROOKLYN,11226,,,,
17K249,P.S. 249 The Caton,18 MARLBOROUGH ROAD,BROOKLYN,11226,K092,601 PARKSIDE AVENUE,BROOKLYN,11226,,,,
17K289,P.S. 289 George V. Brower,900 ST MARKS AVENUE,BROOKLYN,11213,K189,1100 EAST NEW YORK AVENUE,BROOKLYN,11212,,,,
17K316,P.S. 316 Elijah Stroud,750 CLASSON AVENUE,BROOKLYN,11238,K241,976 PRESIDENT STREET,BROOKLYN,11225,,,,
17K334,Middle School for Academic and Social Excellence,1224 PARK PLACE,BROOKLYN,11213,K246,72 VERONICA PLACE,BROOKLYN,11226,,,,
17K340,I.S. 340,227 STERLING PLACE,BROOKLYN,11238,K246,72 VERONICA PLACE,BROOKLYN,11226,,,,
17K352,Ebbets Field Middle School,46 MCKEEVER PLACE,BROOKLYN,11225,K246,72 VERONICA PLACE,BROOKLYN,11226,,,,
17K353,Elijah Stroud Middle School,750 CLASSON AVENUE,BROOKLYN,11238,K092,601 PARKSIDE AVENUE,BROOKLYN,11226,,,,
17K354,The School of Integrated Learning,1224 PARK PLACE,BROOKLYN,11213,K246,72 VERONICA PLACE,BROOKLYN,11226,,,,
17K375,P.S. 375 Jackie Robinson School,46 MCKEEVER PLACE,BROOKLYN,11225,K241,976 PRESIDENT STREET,BROOKLYN,11225,,,,
17K382,Academy for College Preparation and Career Exploration: A College Board School,911 FLATBUSH AVENUE,BROOKLYN,11226,K440,883 CLASSON AVENUE,BROOKLYN,11225,,,,
17K394,M.S. K394,188 ROCHESTER AVENUE,BROOKLYN,11213,K189,1100 EAST NEW YORK AVENUE,BROOKLYN,11212,,,,
17K397,P.S. 397 Foster-Laurie,490 FENIMORE STREET,BROOKLYN,11203,K241,976 PRESIDENT STREET,BROOKLYN,11225,K092,601 PARKSIDE AVENUE,BROOKLYN,11226
17K398,P.S. 398 Walter Weaver,60 EAST 94 STREET,BROOKLYN,11212,K189,1100 EAST NEW YORK AVENUE,BROOKLYN,11212,K241,976 PRESIDENT STREET,BROOKLYN,11225
17K399,P.S. 399 Stanley Eugene Clark,2707 ALBEMARLE ROAD,BROOKLYN,11226,K092,601 PARKSIDE AVENUE,BROOKLYN,11226,K246,72 VERONICA PLACE,BROOKLYN,11226
17K408,Academy of Hospitality and Tourism,911 FLATBUSH AVENUE,BROOKLYN,11226,K600,901 CLASSON AVENUE,BROOKLYN,11225,,,,
17K467,Erasmus Yabc,911 FLATBUSH AVENUE,BROOKLYN,11226,K600,901 CLASSON AVENUE,BROOKLYN,11225,,,,
17K484,Ronald Edmonds Learning Center II,430 HOWARD AVENUE,BROOKLYN,11233,K189,1100 EAST NEW YORK AVENUE,BROOKLYN,11212,K012,430 HOWARD AVENUE,BROOKLYN,11233
17K489,W.E.B. Dubois Academic High School,402 EASTERN PARKWAY,BROOKLYN,11225,K600,901 CLASSON AVENUE,BROOKLYN,11225,,,,
17K524,International High School at Prospect Heights,883 CLASSON AVENUE,BROOKLYN,11225,K440,883 CLASSON AVENUE,BROOKLYN,11225,,,,
17K528,The High School for Global Citizenship,883 CLASSON AVENUE,BROOKLYN,11225,K440,883 CLASSON AVENUE,BROOKLYN,11225,,,,
17K531,"School for Human Rights, The",600 KINGSTON AVENUE,BROOKLYN,11203,K470,600 KINGSTON AVENUE,BROOKLYN,11203,,,,
17K533,School for Democracy and Leadership,600 KINGSTON AVENUE,BROOKLYN,11203,K470,600 KINGSTON AVENUE,BROOKLYN,11203,,,,
17K537,High School for Youth and Community Development at Erasmus,911 FLATBUSH AVENUE,BROOKLYN,11226,K600,901 CLASSON AVENUE,BROOKLYN,11225,,,,
17K539,High School for Service & Learning at Erasmus,911 FLATBUSH AVENUE,BROOKLYN,11226,K600,901 CLASSON AVENUE,BROOKLYN,11225,,,,
17K543,"Science, Technology and Research Early College High School at Erasmus",911 FLATBUSH AVENUE,BROOKLYN,11226,K600,901 CLASSON AVENUE,BROOKLYN,11225,,,,
17K544,International Arts Business School,600 KINGSTON AVENUE,BROOKLYN,11203,K470,600 KINGSTON AVENUE,BROOKLYN,11203,,,,
17K546,High School for Public Service: Heroes of Tomorrow,600 KINGSTON AVENUE,BROOKLYN,11203,K470,600 KINGSTON AVENUE,BROOKLYN,11203,,,,
17K547,Brooklyn Academy of Science and the Environment,883 CLASSON AVENUE,BROOKLYN,11225,K440,883 CLASSON AVENUE,BROOKLYN,11225,,,,
17K548,Brooklyn School for Music & Theatre,883 CLASSON AVENUE,BROOKLYN,11225,K440,883 CLASSON AVENUE,BROOKLYN,11225,,,,
17K568,Brownsville Academy High School,1150 EAST NEW YORK AVENUE,BROOKLYN,11212,K175,226 BRISTOL STREET,BROOKLYN,11212,,,,
17K587,Middle School for the Arts,790 EAST NEW YORK AVENUE,BROOKLYN,11203,K246,72 VERONICA PLACE,BROOKLYN,11226,,,,
17K590,Medgar Evers College Preparatory School,1186 CARROLL STREET,BROOKLYN,11225,K590,1186 CARROLL STREET,BROOKLYN,11225,,,,
17K600,Clara Barton High School,901 CLASSON AVENUE,BROOKLYN,11225,K600,901 CLASSON AVENUE,BROOKLYN,11225,,,,
17K625,Paul Robeson High School,150 ALBANY AVENUE,BROOKLYN,11213,K625,150 ALBANY AVENUE,BROOKLYN,11213,,,,
17K705,Brooklyn Arts and Science Elementary School,443 ST MARKS AVENUE,BROOKLYN,11238,K241,976 PRESIDENT STREET,BROOKLYN,11225,,,,
17K722,New Heights Middle School,790 EAST NEW YORK AVENUE,BROOKLYN,11203,K246,72 VERONICA PLACE,BROOKLYN,11226,,,,
17K745,Brooklyn Institute for Liberal Arts,600 KINGSTON AVENUE,BROOKLYN,11203,K470,600 KINGSTON AVENUE,BROOKLYN,11203,,,,
17K751,Academy for Health Careers,150 ALBANY AVENUE,BROOKLYN,11213,K625,150 ALBANY AVENUE,BROOKLYN,11213,,,,
17K770,P.S. 770 New American Academy,60 EAST 94 STREET,BROOKLYN,11212,K189,1100 EAST NEW YORK AVENUE,BROOKLYN,11212,,,,
18K066,P.S. 66,845 EAST 96 STREET,BROOKLYN,11236,K066,845 EAST 96 STREET,BROOKLYN,11236,,,,
18K068,I.S. 068 Isaac Bildersee,956 EAST 82 STREET,BROOKLYN,11236,K252,1084 LENOX ROAD,BROOKLYN,11212,,,,
18K114,P.S. 114 Ryder Elementary,1077 REMSEN AVENUE,BROOKLYN,11236,K066,845 EAST 96 STREET,BROOKLYN,11236,,,,
18K115,P.S. 115 Daniel Mucatel School,1500 EAST 92 STREET,BROOKLYN,11236,K066,845 EAST 96 STREET,BROOKLYN,11236,,,,
18K135,P.S. 135 Sheldon A. Brookner,684 LINDEN BOULEVARD,BROOKLYN,11203,K244,5404 TILDEN AVENUE,BROOKLYN,11203,,,,
18K208,P.S. 208 Elsa Ebeling,4801 AVENUE D,BROOKLYN,11203,K244,5404 TILDEN AVENUE,BROOKLYN,11203,,,,
18K211,I.S. 211 John Wilson,1001 EAST 100 STREET,BROOKLYN,11236,K211,1001 EAST 100 STREET,BROOKLYN,11236,,,,
18K219,P.S. 219 Kennedy-King,1060 CLARKSON AVENUE,BROOKLYN,11212,K268,133 EAST 53 STREET,BROOKLYN,11203,,,,
18K233,P.S. 233 Langston Hughes,9301 AVENUE B,BROOKLYN,11236,K244,5404 TILDEN AVENUE,BROOKLYN,11203,,,,
18K235,P.S. 235 Lenox School,525 LENOX ROAD,BROOKLYN,11203,K244,5404 TILDEN AVENUE,BROOKLYN,11203,,,,
18K244,P.S. 244 Richard R. Green,5404 TILDEN AVENUE,BROOKLYN,11203,K244,5404 TILDEN AVENUE,BROOKLYN,11203,,,,
18K268,P.S. 268 Emma Lazarus,133 EAST 53 STREET,BROOKLYN,11203,K268,133 EAST 53 STREET,BROOKLYN,11203,,,,
18K272,P.S. 272 Curtis Estabrook,101-24 SEAVIEW AVENUE,BROOKLYN,11236,K366,965 EAST 107TH STREET,BROOKLYN,11236,,,,
18K276,P.S. 276 Louis Marshall,1070 EAST 83 STREET,BROOKLYN,11236,K066,845 EAST 96 STREET,BROOKLYN,11236,,,,
18K279,P.S. 279 Herman Schreiber,1070 EAST 104 STREET,BROOKLYN,11236,K066,845 EAST 96 STREET,BROOKLYN,11236,,,,
18K285,I.S. 285 Meyer Levin,5909 BEVERLY ROAD,BROOKLYN,11203,K415,5800 TILDEN AVENUE,BROOKLYN,11203,,,,
18K366,THE SCIENCE AND MEDICINE MIDDLE SCHOOL,965 EAST 107TH STREET,BROOKLYN,11236,K366,965 EAST 107TH STREET,BROOKLYN,11236,,,,
18K563,It Takes a Village Academy,5800 TILDEN AVENUE,BROOKLYN,11203,K415,5800 TILDEN AVENUE,BROOKLYN,11203,,,,
18K566,Brooklyn Generation School,6565 FLATLANDS AVENUE,BROOKLYN,11236,K515,6565 FLATLANDS AVENUE,BROOKLYN,11236,,,,
18K567,Brooklyn Theatre Arts High School,6565 FLATLANDS AVENUE,BROOKLYN,11236,K515,6565 FLATLANDS AVENUE,BROOKLYN,11236,,,,
18K569,Kurt Hahn Expeditionary Learning School,5800 TILDEN AVENUE,BROOKLYN,11203,K415,5800 TILDEN AVENUE,BROOKLYN,11203,,,,
18K576,Victory Collegiate High School,6565 FLATLANDS AVENUE,BROOKLYN,11236,K515,6565 FLATLANDS AVENUE,BROOKLYN,11236,,,,
18K578,Brooklyn Bridge Academy,6565 FLATLANDS AVENUE,BROOKLYN,11236,K515,6565 FLATLANDS AVENUE,BROOKLYN,11236,,,,
18K581,East Flatbush Community Research School,905 WINTHROP STREET,BROOKLYN,11203,K232,905 WINTHROP STREET,BROOKLYN,11203,,,,
18K588,Middle School for Art and Philosophy,1084 LENOX ROAD,BROOKLYN,11212,K252,1084 LENOX ROAD,BROOKLYN,11212,,,,
18K589,Arts & Media Preparatory Academy,905 WINTHROP STREET,BROOKLYN,11203,K232,905 WINTHROP STREET,BROOKLYN,11203,,,,
18K598,Middle School of Marketing and Legal Studies,905 WINTHROP STREET,BROOKLYN,11203,K232,905 WINTHROP STREET,BROOKLYN,11203,,,,
18K617,High School for Innovation in Advertising and Media,1600 ROCKAWAY PARKWAY,BROOKLYN,11236,K515,6565 FLATLANDS AVENUE,BROOKLYN,11236,,,,
18K629,Cultural Academy for the Arts and Sciences,5800 TILDEN AVENUE,BROOKLYN,11203,K415,5800 TILDEN AVENUE,BROOKLYN,11203,,,,
18K633,High School for Medical Professions,1600 ROCKAWAY PARKWAY,BROOKLYN,11236,K650,257 NORTH 6 STREET,BROOKLYN,11211,,,,
18K635,Olympus Academy,755 EAST 100 STREET,BROOKLYN,11236,K242,755 EAST 100 STREET,BROOKLYN,11236,,,,
18K637,Academy for Conservation and the Environment,6565 FLATLANDS AVENUE,BROOKLYN,11236,K515,6565 FLATLANDS AVENUE,BROOKLYN,11236,,,,
18K642,Urban Action Academy,1600 ROCKAWAY PARKWAY,BROOKLYN,11236,K515,6565 FLATLANDS AVENUE,BROOKLYN,11236,,,,
18K673,East Brooklyn Community High School,9517 KINGS HIGHWAY,BROOKLYN,11212,K415,5800 TILDEN AVENUE,BROOKLYN,11203,,,,
18K922,South Shore Educational Complex Yabc,6565 FLATLANDS AVENUE,BROOKLYN,11236,K515,6565 FLATLANDS AVENUE,BROOKLYN,11236,,,,
19K007,P.S. 007 Abraham Lincoln,858 JAMAICA AVENUE,BROOKLYN,11208,K007,858 JAMAICA AVENUE,BROOKLYN,11208,,,,
19K013,P.S. 013 Roberto Clemente,557 PENNSYLVANIA AVENUE,BROOKLYN,11207,K013,557 PENNSYLVANIA AVENUE,BROOKLYN,11207,,,,
19K065,P.S. 065,696 JAMAICA AVENUE,BROOKLYN,11208,K007,858 JAMAICA AVENUE,BROOKLYN,11208,,,,
19K089,P.S. 089 Cypress Hills,265 WARWICK STREET,BROOKLYN,11207,K345,111 BERRIMAN STREET,BROOKLYN,11208,,,,
19K108,P.S. 108 Sal Abbracciamento,200 LINWOOD STREET,BROOKLYN,11208,K007,858 JAMAICA AVENUE,BROOKLYN,11208,,,,
19K149,P.S. 149 Danny Kaye,700 SUTTER AVENUE,BROOKLYN,11207,K013,557 PENNSYLVANIA AVENUE,BROOKLYN,11207,,,,
19K158,P.S. 158 Warwick,400 ASHFORD STREET,BROOKLYN,11207,K292,301 VERMONT STREET,BROOKLYN,11207,,,,
19K159,P.S. 159 Isaac Pitkin,2781 PITKIN AVENUE,BROOKLYN,11208,K346,1400 PENNSYLVANIA AVENUE,BROOKLYN,11239,,,,
19K166,J.H.S. 166 George Gershwin,800 VAN SICLEN AVE,BROOKLYN,11207,K166,800 VAN SICLEN AVE,BROOKLYN,11207,,,,
19K171,I.S. 171 Abraham Lincoln,528 RIDGEWOOD AVENUE,BROOKLYN,11208,K171,528 RIDGEWOOD AVENUE,BROOKLYN,11208,,,,
19K174,P.S. 174 Dumont,574 DUMONT AVENUE,BROOKLYN,11207,K292,301 VERMONT STREET,BROOKLYN,11207,,,,
19K190,P.S. 190 Sheffield,590 SHEFFIELD AVENUE,BROOKLYN,11207,K306,970 VERMONT STREET,BROOKLYN,11207,,,,
19K202,P.S. 202 Ernest S. Jenkyns,982 HEGEMAN AVENUE,BROOKLYN,11208,K306,970 VERMONT STREET,BROOKLYN,11207,,,,
19K213,P.S. 213 New Lots,580 HEGEMAN AVENUE,BROOKLYN,11207,K306,970 VERMONT STREET,BROOKLYN,11207,,,,
19K214,P.S. 214 Michael Friedsam,2944 PITKIN AVENUE,BROOKLYN,11208,K346,1400 PENNSYLVANIA AVENUE,BROOKLYN,11239,,,,
19K218,J.H.S. 218 James P. Sinnott,370 FOUNTAIN AVENUE,BROOKLYN,11208,K166,800 VAN SICLEN AVE,BROOKLYN,11207,,,,
19K224,P.S. 224 Hale A. Woodruff,757 WORTMAN AVENUE,BROOKLYN,11208,K306,970 VERMONT STREET,BROOKLYN,11207,,,,
19K260,P.S. 260 Breuckelen,875 WILLIAMS AVENUE,BROOKLYN,11207,K346,1400 PENNSYLVANIA AVENUE,BROOKLYN,11239,,,,
19K273,P.S. 273 Wortman,923 JEROME STREET,BROOKLYN,11207,K306,970 VERMONT STREET,BROOKLYN,11207,,,,
19K290,P.S. 290 Juan Morel Campos,135 SCHENCK AVENUE,BROOKLYN,11207,K007,858 JAMAICA AVENUE,BROOKLYN,11208,,,,
19K292,J.H.S. 292 Margaret S. Douglas,301 VERMONT STREET,BROOKLYN,11207,K292,301 VERMONT STREET,BROOKLYN,11207,,,,
19K302,J.H.S. 302 Rafael Cordero,350 LINWOOD STREET,BROOKLYN,11208,K345,111 BERRIMAN STREET,BROOKLYN,11208,,,,
19K306,P.S. 306 Ethan Allen,970 VERMONT STREET,BROOKLYN,11207,K306,970 VERMONT STREET,BROOKLYN,11207,,,,
19K311,Essence School,590 SHEFFIELD AVENUE,BROOKLYN,11207,K422,1065 ELTON STREET,BROOKLYN,11208,,,,
19K325,The Fresh Creek School,875 WILLIAMS AVENUE,BROOKLYN,11207,K013,557 PENNSYLVANIA AVENUE,BROOKLYN,11207,K346,1400 PENNSYLVANIA AVENUE,BROOKLYN,11239
19K328,P.S. 328 Phyllis Wheatley,330 ALABAMA AVENUE,BROOKLYN,11207,K292,301 VERMONT STREET,BROOKLYN,11207,,,,
19K345,P.S. 345 Patrolman Robert Bolden,111 BERRIMAN STREET,BROOKLYN,11208,K345,111 BERRIMAN STREET,BROOKLYN,11208,,,,
19K346,P.S. 346 Abe Stark,1400 PENNSYLVANIA AVENUE,BROOKLYN,11239,K346,1400 PENNSYLVANIA AVENUE,BROOKLYN,11239,,,,
19K364,I.S. 364 Gateway,1426 FREEPORT LOOP,BROOKLYN,11239,K346,1400 PENNSYLVANIA AVENUE,BROOKLYN,11239,,,,
19K404,Academy for Young Writers,1065 ELTON STREET,BROOKLYN,11208,K422,1065 ELTON STREET,BROOKLYN,11208,,,,
19K409,East New York Family Academy,2057 LINDEN BOULEVARD,BROOKLYN,11207,K435,400 PENNSYLVANIA AVENUE,BROOKLYN,11207,K166,800 VAN SICLEN AVE,BROOKLYN,11207
19K422,Spring Creek Community School,1065 ELTON STREET,BROOKLYN,11208,K422,1065 ELTON STREET,BROOKLYN,11208,,,,
19K431,Thomas Jefferson Yabc,400 PENNSYLVANIA AVENUE,BROOKLYN,11207,K435,400 PENNSYLVANIA AVENUE,BROOKLYN,11207,,,,
19K452,Frederick Douglass Academy VIII Middle School,1400 PENNSYLVANIA AVENUE,BROOKLYN,11239,K346,1400 PENNSYLVANIA AVENUE,BROOKLYN,11239,,,,
19K501,Franklin K. Lane Campus YABC,999 JAMAICA AVENUE,BROOKLYN,11208,K420,999 JAMAICA AVENUE,BROOKLYN,11208,,,,
19K502,FDNY High School for Fire and Life Safety,400 PENNSYLVANIA AVENUE,BROOKLYN,11207,K435,400 PENNSYLVANIA AVENUE,BROOKLYN,11207,,,,
19K504,High School for Civil Rights,400 PENNSYLVANIA AVENUE,BROOKLYN,11207,K435,400 PENNSYLVANIA AVENUE,BROOKLYN,11207,,,,
19K507,Performing Arts and Technology High School,400 PENNSYLVANIA AVENUE,BROOKLYN,11207,K435,400 PENNSYLVANIA AVENUE,BROOKLYN,11207,,,,
19K510,World Academy for Total Community Health High School,400 PENNSYLVANIA AVENUE,BROOKLYN,11207,K435,400 PENNSYLVANIA AVENUE,BROOKLYN,11207,,,,
19K583,Multicultural High School,999 JAMAICA AVENUE,BROOKLYN,11208,K420,999 JAMAICA AVENUE,BROOKLYN,11208,,,,
19K615,Transit Tech Career and Technical Education High School,1 WELLS STREET,BROOKLYN,11208,K615,1 WELLS STREET,BROOKLYN,11208,,,,
19K618,Academy of Innovative Technology,999 JAMAICA AVENUE,BROOKLYN,11208,K420,999 JAMAICA AVENUE,BROOKLYN,11208,,,,
19K639,Brooklyn Lab School,999 JAMAICA AVENUE,BROOKLYN,11208,K420,999 JAMAICA AVENUE,BROOKLYN,11208,,,,
19K654,Van Siclen Community Middle School,800 VAN SICLEN AVE,BROOKLYN,11207,K166,800 VAN SICLEN AVE,BROOKLYN,11207,,,,
19K659,Cypress Hills Collegiate Preparatory School,999 JAMAICA AVENUE,BROOKLYN,11208,K420,999 JAMAICA AVENUE,BROOKLYN,11208,,,,
19K660,W. H. Maxwell Career and Technical Education High School,145 PENNSYLVANIA AVENUE,BROOKLYN,11207,K615,1 WELLS STREET,BROOKLYN,11208,,,,
19K661,Vista Academy,350 LINWOOD STREET,BROOKLYN,11208,K345,111 BERRIMAN STREET,BROOKLYN,11208,,,,
19K662,Liberty Avenue Middle School,350 LINWOOD STREET,BROOKLYN,11208,K345,111 BERRIMAN STREET,BROOKLYN,11208,,,,
19K663,School of the Future Brooklyn,574 DUMONT AVENUE,BROOKLYN,11207,K422,1065 ELTON STREET,BROOKLYN,11208,,,,
19K677,East New York Elementary School of Excellence,605 SHEPHERD AVENUE,BROOKLYN,11208,K306,970 VERMONT STREET,BROOKLYN,11207,,,,
19K678,East New York Middle School of Excellence,605 SHEPHERD AVENUE,BROOKLYN,11208,K072,605 SHEPHERD AVENUE,BROOKLYN,11208,,,,
19K683,"The School for Classics: An Academy of Thinkers, Writers and Peformers",370 FOUNTAIN AVENUE,BROOKLYN,11208,K615,1 WELLS STREET,BROOKLYN,11208,,,,
20K030,PS/IS 30 Mary White Ovington,7002 4TH AVENUE,BROOKLYN,11209,K259,7305 FT HAMILTON PARKWAY,BROOKLYN,11228,,,,
20K048,P.S. 048 Mapleton,6015 18 AVENUE,BROOKLYN,11204,K205,6701 20 AVENUE,BROOKLYN,11204,,,,
20K062,J.H.S. 062 Ditmas,700 CORTELYOU ROAD,BROOKLYN,11218,K062,700 CORTELYOU ROAD,BROOKLYN,11218,,,,
20K069,P.S. 69 Vincent D. Grippo School,6302 9TH AVENUE,BROOKLYN,11220,K259,7305 FT HAMILTON PARKWAY,BROOKLYN,11228,,,,
20K102,P.S. 102 The Bayview,211 72 STREET,BROOKLYN,11209,K104,9115 5 AVENUE,BROOKLYN,11209,,,,
20K104,P.S./I.S. 104 The Fort Hamilton School,9115 5 AVENUE,BROOKLYN,11209,K104,9115 5 AVENUE,BROOKLYN,11209,,,,
20K105,P.S. 105 The Blythebourne,1031 59 STREET,BROOKLYN,11219,K105,1031 59 STREET,BROOKLYN,11219,,,,
20K112,P.S. 112 Lefferts Park,7115 15 AVENUE,BROOKLYN,11228,K205,6701 20 AVENUE,BROOKLYN,11204,,,,
20K127,P.S. 127 Mckinley Park,7805 7 AVENUE,BROOKLYN,11228,K259,7305 FT HAMILTON PARKWAY,BROOKLYN,11228,,,,
20K160,P.S. 160 William T. Sampson,5105 Fort Hamilton Parkway,BROOKLYN,11219,K259,7305 FT HAMILTON PARKWAY,BROOKLYN,11228,,,,
20K163,P.S. 163 Bath Beach,109 BAY 14TH STREET,BROOKLYN,11214,K200,1940 BENSON AVENUE,BROOKLYN,11214,,,,
20K164,P.S. 164 Caesar Rodney,4211 14 AVENUE,BROOKLYN,11219,K205,6701 20 AVENUE,BROOKLYN,11204,,,,
20K170,Ralph A. Fabrizio School,7109 6 AVENUE,BROOKLYN,11209,K259,7305 FT HAMILTON PARKWAY,BROOKLYN,11228,,,,
20K176,P.S. 176 Ovington,1225 69 STREET,BROOKLYN,11219,K200,1940 BENSON AVENUE,BROOKLYN,11214,,,,
20K179,P.S. 179 Kensington,202 AVENUE C,BROOKLYN,11218,K259,7305 FT HAMILTON PARKWAY,BROOKLYN,11228,,,,
20K180,The SEEALL Academy,5601 16 AVENUE,BROOKLYN,11204,K200,1940 BENSON AVENUE,BROOKLYN,11214,,,,
20K185,P.S. 185 Walter Kassenbrock,8601 RIDGE BOULEVARD,BROOKLYN,11209,K104,9115 5 AVENUE,BROOKLYN,11209,,,,
20K186,P.S. 186 Dr. Irving A Gladstone,7601 19 AVENUE,BROOKLYN,11214,K200,1940 BENSON AVENUE,BROOKLYN,11214,,,,
20K187,The Christa McAuliffe School\I.S. 187,1171 65 STREET,BROOKLYN,11219,K200,1940 BENSON AVENUE,BROOKLYN,11214,,,,
20K192,P.S. 192 - The Magnet School for Math and Science Inquiry,4715 18 AVENUE,BROOKLYN,11204,K205,6701 20 AVENUE,BROOKLYN,11204,,,,
20K200,P.S. 200 Benson School,1940 BENSON AVENUE,BROOKLYN,11214,K200,1940 BENSON AVENUE,BROOKLYN,11214,,,,
20K201,J.H.S. 201 The Dyker Heights,8010 12 AVENUE,BROOKLYN,11228,K227,6500 16 AVENUE,BROOKLYN,11204,,,,
20K204,P.S. 204 Vince Lombardi,8101 15 AVENUE,BROOKLYN,11228,K200,1940 BENSON AVENUE,BROOKLYN,11214,,,,
20K205,P.S. 205 Clarion,6701 20 AVENUE,BROOKLYN,11204,K205,6701 20 AVENUE,BROOKLYN,11204,,,,
20K220,J.H.S. 220 John J. Pershing,4812 9TH AVENUE,BROOKLYN,11220,K062,700 CORTELYOU ROAD,BROOKLYN,11218,,,,
20K223,J.H.S. 223 The Montauk,4200 16 AVENUE,BROOKLYN,11204,K062,700 CORTELYOU ROAD,BROOKLYN,11218,,,,
20K227,J.H.S. 227 Edward B. Shallow,6500 16 AVENUE,BROOKLYN,11204,K227,6500 16 AVENUE,BROOKLYN,11204,,,,
20K229,P.S. 229 Dyker,1400 BENSON AVENUE,BROOKLYN,11228,K200,1940 BENSON AVENUE,BROOKLYN,11214,,,,
20K247,P.S. 247 Brooklyn,7000 21 AVENUE,BROOKLYN,11204,K205,6701 20 AVENUE,BROOKLYN,11204,,,,
20K259,J.H.S. 259 William Mckinley,7305 FT HAMILTON PARKWAY,BROOKLYN,11228,K259,7305 FT HAMILTON PARKWAY,BROOKLYN,11228,,,,
20K264,P.S. 264 BAY RIDGE ELEMENTARY SCHOOL FOR THE ARTS,371 89th Street,BROOKLYN,11209,K104,9115 5 AVENUE,BROOKLYN,11209,,,,
20K310,P.S. 310,942 62ND STREET,BROOKLYN,11219,K259,7305 FT HAMILTON PARKWAY,BROOKLYN,11228,,,,
20K445,New Utrecht High School,1601 80 STREET,BROOKLYN,11214,K445,1601 80 STREET,BROOKLYN,11214,,,,
20K485,High School of Telecommunication Arts and Technology,350 67 STREET,BROOKLYN,11220,K485,350 67 STREET,BROOKLYN,11220,,,,
20K490,Fort Hamilton High School,8301 SHORE ROAD,BROOKLYN,11209,K490,8301 SHORE ROAD,BROOKLYN,11209,,,,
20K503,PS 503: The School of Discovery,330 59 STREET,BROOKLYN,11220,K314,330 59 STREET,BROOKLYN,11220,,,,
20K505,Franklin Delano Roosevelt High School,5800 20 AVENUE,BROOKLYN,11204,K445,1601 80 STREET,BROOKLYN,11214,,,,
20K506,P.S. 506: The School of Journalism & Technology,330 59 STREET,BROOKLYN,11220,K104,9115 5 AVENUE,BROOKLYN,11209,,,,
20K609,Urban Assembly School for Criminal Justice,4200 16 AVENUE,BROOKLYN,11204,K313,283 ADAMS STREET,BROOKLYN,11201,,,,
20K658,Franklin Delano Roosevelt YABC,5800 20 AVENUE,BROOKLYN,11204,K445,1601 80 STREET,BROOKLYN,11214,,,,
20K682,The Academy of Talented Scholars,50 AVENUE P,BROOKLYN,11204,K205,6701 20 AVENUE,BROOKLYN,11204,,,,
20K748,P.S. 748 Brooklyn School for Global Scholars,1664 BENSON AVENUE,BROOKLYN,11214,K200,1940 BENSON AVENUE,BROOKLYN,11214,,,,
20K971,"School of Math, Science, and Healthy Living",6214 4TH AVENUE,BROOKLYN,11220,K104,9115 5 AVENUE,BROOKLYN,11209,,,,
21K090,P.S. 90 Edna Cohen School,2840 WEST 12 STREET,BROOKLYN,11224,K228,228 AVENUE S,BROOKLYN,11223,,,,
21K095,P.S. 095 The Gravesend,345 VAN SICKLEN STREET,BROOKLYN,11223,K228,228 AVENUE S,BROOKLYN,11223,,,,
21K096,I.S. 096 Seth Low,99 AVENUE P,BROOKLYN,11204,K228,228 AVENUE S,BROOKLYN,11223,,,,
21K097,P.S. 97 The Highlawn,1855 STILLWELL AVENUE,BROOKLYN,11223,K205,6701 20 AVENUE,BROOKLYN,11204,,,,
21K098,I.S. 98 Bay Academy,1401 EMMONS AVENUE,BROOKLYN,11235,K288,2950 WEST 25 STREET,BROOKLYN,11224,,,,
21K099,P.S. 099 Isaac Asimov,1120 EAST 10 STREET,BROOKLYN,11230,K205,6701 20 AVENUE,BROOKLYN,11204,,,,
21K100,P.S. 100 The Coney Island School,2951 WEST 3 STREET,BROOKLYN,11224,K216,350 AVENUE X,BROOKLYN,11223,,,,
21K101,P.S. 101 The Verrazano,2360 BENSON AVENUE,BROOKLYN,11214,K216,350 AVENUE X,BROOKLYN,11223,,,,
21K121,P.S. 121 Nelson A. Rockefeller,5301 20 AVENUE,BROOKLYN,11204,K205,6701 20 AVENUE,BROOKLYN,11204,,,,
21K128,P.S. 128 Bensonhurst,2075 84 STREET,BROOKLYN,11214,K216,350 AVENUE X,BROOKLYN,11223,,,,
21K153,P.S. 153 Homecrest,1970 HOMECREST AVENUE,BROOKLYN,11229,K216,350 AVENUE X,BROOKLYN,11223,,,,
21K177,P.S. 177 The Marlboro,346 AVENUE P,BROOKLYN,11204,K205,6701 20 AVENUE,BROOKLYN,11204,,,,
21K188,P.S. 188 Michael E. Berdy,3314 NEPTUNE AVENUE,BROOKLYN,11224,K216,350 AVENUE X,BROOKLYN,11223,,,,
21K199,P.S. 199 Frederick Wachtel,1100 ELM AVENUE,BROOKLYN,11230,K205,6701 20 AVENUE,BROOKLYN,11204,,,,
21K209,P.S. 209 Margaret Mead,2609 EAST 7 STREET,BROOKLYN,11235,K228,228 AVENUE S,BROOKLYN,11223,,,,
21K212,P.S. 212 Lady Deborah Moody,87 BAY 49 STREET,BROOKLYN,11214,K216,350 AVENUE X,BROOKLYN,11223,,,,
21K215,P.S. 215 Morris H. Weiss,415 AVENUE S,BROOKLYN,11223,K228,228 AVENUE S,BROOKLYN,11223,,,,
21K216,P.S. 216 Arturo Toscanini,350 AVENUE X,BROOKLYN,11223,K216,350 AVENUE X,BROOKLYN,11223,,,,
21K225,P.S. K225 - The Eileen E. Zaglin,1075 OCEAN VIEW AVENUE,BROOKLYN,11235,K288,2950 WEST 25 STREET,BROOKLYN,11224,,,,
21K226,P.S. 226 Alfred De B.Mason,6006 23 AVENUE,BROOKLYN,11204,K228,228 AVENUE S,BROOKLYN,11223,,,,
21K228,I.S. 228 David A. Boody,228 AVENUE S,BROOKLYN,11223,K228,228 AVENUE S,BROOKLYN,11223,,,,
21K238,P.S. 238 Anne Sullivan,1633 EAST 8 STREET,BROOKLYN,11223,K228,228 AVENUE S,BROOKLYN,11223,,,,
21K239,Mark Twain I.S. 239 for the Gifted & Talented,2401 NEPTUNE AVENUE,BROOKLYN,11224,K288,2950 WEST 25 STREET,BROOKLYN,11224,,,,
21K253,P.S. 253,601 OCEANVIEW AVENUE,BROOKLYN,11235,K228,228 AVENUE S,BROOKLYN,11223,,,,
21K281,I.S. 281 Joseph B Cavallaro,8787 24 AVENUE,BROOKLYN,11214,K281,8787 24 AVENUE,BROOKLYN,11214,,,,
21K288,P.S. 288 The Shirley Tanyhill,2950 WEST 25 STREET,BROOKLYN,11224,K288,2950 WEST 25 STREET,BROOKLYN,11224,,,,
21K303,I.S. 303 Herbert S. Eisenberg,501 WEST AVENUE,BROOKLYN,11224,K281,8787 24 AVENUE,BROOKLYN,11214,,,,
21K329,P.S. 329 Surfside,2929 WEST 30 STREET,BROOKLYN,11224,K288,2950 WEST 25 STREET,BROOKLYN,11224,,,,
21K337,International High School at Lafayette,2630 BENSON AVENUE,BROOKLYN,11214,K400,2630 BENSON AVENUE,BROOKLYN,11214,,,,
21K344,Rachel Carson High School for Coastal Studies,521 WEST AVENUE,BROOKLYN,11224,K620,25 BRIGHTON 4TH ROAD,BROOKLYN,11235,,,,
21K348,High School of Sports Management,2630 BENSON AVENUE,BROOKLYN,11214,K400,2630 BENSON AVENUE,BROOKLYN,11214,,,,
21K410,Abraham Lincoln High School,2800 OCEAN PARKWAY,BROOKLYN,11235,K620,25 BRIGHTON 4TH ROAD,BROOKLYN,11235,,,,
21K411,Abraham Lincoln Yabc,2800 OCEAN PARKWAY,BROOKLYN,11235,K620,25 BRIGHTON 4TH ROAD,BROOKLYN,11235,,,,
21K468,Kingsborough Early College School,2630 BENSON AVENUE,BROOKLYN,11214,K400,2630 BENSON AVENUE,BROOKLYN,11214,K281,8787 24 AVENUE,BROOKLYN,11214
21K525,Edward R. Murrow High School,1600 AVENUE L,BROOKLYN,11230,K405,2839 BEDFORD AVENUE,BROOKLYN,11210,,,,
21K540,John Dewey High School,50 AVENUE X,BROOKLYN,11223,K540,50 AVENUE X,BROOKLYN,11223,,,,
21K559,Life Academy High School for Film and Music,2630 BENSON AVENUE,BROOKLYN,11214,K400,2630 BENSON AVENUE,BROOKLYN,11214,,,,
21K572,Expeditionary Learning School for Community Leaders,2630 BENSON AVENUE,BROOKLYN,11214,K400,2630 BENSON AVENUE,BROOKLYN,11214,,,,
21K620,William E. Grady Career and Technical Education High School,25 BRIGHTON 4TH ROAD,BROOKLYN,11235,K620,25 BRIGHTON 4TH ROAD,BROOKLYN,11235,,,,
21K690,Brooklyn Studio Secondary School,8310 21ST AVENUE,BROOKLYN,11214,K400,2630 BENSON AVENUE,BROOKLYN,11214,,,,
21K728,Liberation Diploma Plus,2865 WEST 19TH STREET,BROOKLYN,11224,K728,2865 WEST 19TH STREET,BROOKLYN,11224,,,,
22K014,J.H.S. 014 Shell Bank,2424 BATCHELDER STREET,BROOKLYN,11235,K240,2500 NOSTRAND AVENUE,BROOKLYN,11210,,,,
22K052,P.S. 052 Sheepshead Bay,2675 EAST 29 STREET,BROOKLYN,11235,K052,2675 EAST 29 STREET,BROOKLYN,11235,,,,
22K078,J.H.S. 078 Roy H. Mann,1420 EAST 68 STREET,BROOKLYN,11234,K278,1925 STUART STREET,BROOKLYN,11229,,,,
22K109,P.S. 109,1001 EAST 45 STREET,BROOKLYN,11203,K052,2675 EAST 29 STREET,BROOKLYN,11235,K234,1875 EAST 17 STREET,BROOKLYN,11229
22K119,P.S. 119 Amersfort,3829 AVENUE K,BROOKLYN,11210,K052,2675 EAST 29 STREET,BROOKLYN,11235,,,,
22K134,P.S. K134,4001 18 AVENUE,BROOKLYN,11218,K217,1100 NEWKIRK AVENUE,BROOKLYN,11230,,,,
22K139,P.S. 139 Alexine A. Fenty,330 RUGBY ROAD,BROOKLYN,11226,K217,1100 NEWKIRK AVENUE,BROOKLYN,11230,,,,
22K152,School of Science & Technology,725 EAST 23 STREET,BROOKLYN,11210,K217,1100 NEWKIRK AVENUE,BROOKLYN,11230,,,,
22K193,P.S. 193 Gil Hodges,2515 AVENUE L,BROOKLYN,11210,K052,2675 EAST 29 STREET,BROOKLYN,11235,,,,
22K194,P.S. 194 Raoul Wallenberg,3117 AVENUE W,BROOKLYN,11229,K052,2675 EAST 29 STREET,BROOKLYN,11235,,,,
22K195,P.S. 195 Manhattan Beach,131 IRWIN STREET,BROOKLYN,11235,K052,2675 EAST 29 STREET,BROOKLYN,11235,,,,
22K197,P.S. 197 - The Kings Highway Academy,1599 EAST 22 STREET,BROOKLYN,11210,K251,1037 EAST 54 STREET,BROOKLYN,11234,,,,
22K198,P.S. 198 Brooklyn,4105 FARRAGUT ROAD,BROOKLYN,11210,K251,1037 EAST 54 STREET,BROOKLYN,11234,,,,
22K203,P.S. 203 Floyd Bennett School,5101 AVENUE M,BROOKLYN,11234,K251,1037 EAST 54 STREET,BROOKLYN,11234,,,,
22K206,P.S. 206 Joseph F Lamb,2200 GRAVESEND NECK ROAD,BROOKLYN,11229,K052,2675 EAST 29 STREET,BROOKLYN,11235,K234,1875 EAST 17 STREET,BROOKLYN,11229
22K207,P.S. 207 Elizabeth G. Leary,4011 FILLMORE AVENUE,BROOKLYN,11234,K052,2675 EAST 29 STREET,BROOKLYN,11235,K234,1875 EAST 17 STREET,BROOKLYN,11229
22K217,P.S. 217 Colonel David Marcus School,1100 NEWKIRK AVENUE,BROOKLYN,11230,K217,1100 NEWKIRK AVENUE,BROOKLYN,11230,,,,
22K222,P.S. 222 Katherine R. Snyder,3301 QUENTIN ROAD,BROOKLYN,11234,K052,2675 EAST 29 STREET,BROOKLYN,11235,,,,
22K234,J.H.S. 234 Arthur W. Cunningham,1875 EAST 17 STREET,BROOKLYN,11229,K234,1875 EAST 17 STREET,BROOKLYN,11229,,,,
22K236,P.S. 236 Mill Basin,6302 AVENUE U,BROOKLYN,11234,K251,1037 EAST 54 STREET,BROOKLYN,11234,,,,
22K240,Andries Hudde,2500 NOSTRAND AVENUE,BROOKLYN,11210,K240,2500 NOSTRAND AVENUE,BROOKLYN,11210,,,,
22K245,P.S. 245,249 EAST 17TH STREET,BROOKLYN,11226,K251,1037 EAST 54 STREET,BROOKLYN,11234,,,,
22K251,P.S. 251 Paerdegat,1037 EAST 54 STREET,BROOKLYN,11234,K251,1037 EAST 54 STREET,BROOKLYN,11234,,,,
22K254,P.S. 254 Dag Hammarskjold,1801 AVENUE Y,BROOKLYN,11235,K052,2675 EAST 29 STREET,BROOKLYN,11235,,,,
22K255,P.S. 255 Barbara Reing School,1866 EAST 17 STREET,BROOKLYN,11229,K052,2675 EAST 29 STREET,BROOKLYN,11235,,,,
22K269,P.S. 269 Nostrand,1957 NOSTRAND AVENUE,BROOKLYN,11210,K052,2675 EAST 29 STREET,BROOKLYN,11235,,,,
22K277,P.S. 277 Gerritsen Beach,2529 GERRITSEN AVENUE,BROOKLYN,11229,K052,2675 EAST 29 STREET,BROOKLYN,11235,,,,
22K278,J.H.S. 278 Marine Park,1925 STUART STREET,BROOKLYN,11229,K278,1925 STUART STREET,BROOKLYN,11229,,,,
22K312,P.S. 312 Bergen Beach,7103 AVENUE T,BROOKLYN,11234,K251,1037 EAST 54 STREET,BROOKLYN,11234,,,,
22K315,P.S. K315,2310 GLENWOOD ROAD,BROOKLYN,11210,K217,1100 NEWKIRK AVENUE,BROOKLYN,11230,,,,
22K326,P.S. 326,1800 UTICA AVENUE,BROOKLYN,11234,K052,2675 EAST 29 STREET,BROOKLYN,11235,,,,
22K381,I. S. 381,1599 EAST 22 STREET,BROOKLYN,11210,K240,2500 NOSTRAND AVENUE,BROOKLYN,11210,,,,
22K405,Midwood High School,2839 BEDFORD AVENUE,BROOKLYN,11210,K405,2839 BEDFORD AVENUE,BROOKLYN,11210,,,,
22K425,James Madison High School,3787 BEDFORD AVENUE,BROOKLYN,11229,K425,3787 BEDFORD AVENUE,BROOKLYN,11229,,,,
22K495,Sheepshead Bay High School,3000 AVENUE X,BROOKLYN,11235,K495,3000 AVENUE X,BROOKLYN,11235,,,,
22K535,Leon M. Goldstein High School for the Sciences,1830 SHORE BOULEVARD,BROOKLYN,11235,K425,3787 BEDFORD AVENUE,BROOKLYN,11229,,,,
22K555,Brooklyn College Academy,350 CONEY ISLAND AVENUE,BROOKLYN,11218,K555,2900 BEDFORD AVENUE,BROOKLYN,11210,,,,
22K611,Origins High School,3000 AVENUE X,BROOKLYN,11235,K495,3000 AVENUE X,BROOKLYN,11235,,,,
22K630,Professional Pathways High School,3000 AVENUE X,BROOKLYN,11235,K495,3000 AVENUE X,BROOKLYN,11235,,,,
23K041,P.S. 041 Francis White,411 THATFORD AVENUE,BROOKLYN,11212,K332,51 CHRISTOPHER AVENUE,BROOKLYN,11212,,,,
23K073,P.S. 073 Thomas S. Boyland,251 MCDOUGAL STREET,BROOKLYN,11233,K178,2163 DEAN STREET,BROOKLYN,11233,,,,
23K137,P.S./I.S. 137 Rachel Jean Mitchell,121 SARATOGA AVENUE,BROOKLYN,11233,K178,2163 DEAN STREET,BROOKLYN,11233,,,,
23K150,P.S. 150 Christopher,364 SACKMAN STREET,BROOKLYN,11212,K263,210 CHESTER STREET,BROOKLYN,11212,,,,
23K155,P.S./ I.S. 155 Nicholas Herkimer,1355 HERKIMER STREET,BROOKLYN,11233,K178,2163 DEAN STREET,BROOKLYN,11233,,,,
23K156,P.S. 156 Waverly,104 SUTTER AVENUE,BROOKLYN,11212,K356,104 SUTTER AVENUE,BROOKLYN,11212,,,,
23K165,P.S. 165 Ida Posner,76 LOTT AVENUE,BROOKLYN,11212,K332,51 CHRISTOPHER AVENUE,BROOKLYN,11212,,,,
23K178,P.S. 178 Saint Clair Mckelway,2163 DEAN STREET,BROOKLYN,11233,K178,2163 DEAN STREET,BROOKLYN,11233,,,,
23K184,P.S. 184 Newport,273 NEWPORT STREET,BROOKLYN,11212,K263,210 CHESTER STREET,BROOKLYN,11212,K184,273 NEWPORT STREET,BROOKLYN,11212
23K284,P.S. 284 Lew Wallace,213 OSBORN STREET,BROOKLYN,11212,K263,210 CHESTER STREET,BROOKLYN,11212,,,,
23K298,P.S. 298 Dr. Betty Shabazz,85 WATKINS STREET,BROOKLYN,11212,K332,51 CHRISTOPHER AVENUE,BROOKLYN,11212,,,,
23K323,P.S./I.S. 323,210 CHESTER STREET,BROOKLYN,11212,K263,210 CHESTER STREET,BROOKLYN,11212,,,,
23K327,P.S. 327 Dr. Rose B. English,111 BRISTOL STREET,BROOKLYN,11212,K263,210 CHESTER STREET,BROOKLYN,11212,,,,
23K332,P.S. 332 Charles H. Houston,51 CHRISTOPHER AVENUE,BROOKLYN,11212,K332,51 CHRISTOPHER AVENUE,BROOKLYN,11212,,,,
23K363,Brownsville Collaborative Middle School,85 WATKINS STREET,BROOKLYN,11212,K356,104 SUTTER AVENUE,BROOKLYN,11212,,,,
23K392,I.S. 392,104 SUTTER AVENUE,BROOKLYN,11212,K356,104 SUTTER AVENUE,BROOKLYN,11212,,,,
23K401,Christopher Avenue Community School,51 CHRISTOPHER AVENUE,BROOKLYN,11212,K332,51 CHRISTOPHER AVENUE,BROOKLYN,11212,,,,
23K446,Riverdale Avenue Community School,76 RIVERDALE AVENUE,BROOKLYN,11212,K178,2163 DEAN STREET,BROOKLYN,11233,,,,
23K493,Brooklyn Collegiate: A College Board School,2021 BERGEN STREET,BROOKLYN,11233,K178,2163 DEAN STREET,BROOKLYN,11233,,,,
23K514,Frederick Douglass Academy VII High School,226 BRISTOL STREET,BROOKLYN,11212,K175,226 BRISTOL STREET,BROOKLYN,11212,,,,
23K518,Kappa V,985 ROCKAWAY AVENUE,BROOKLYN,11212,K356,104 SUTTER AVENUE,BROOKLYN,11212,,,,
23K522,Mott Hall IV,1137 HERKIMER STREET,BROOKLYN,11233,K178,2163 DEAN STREET,BROOKLYN,11233,K271,1137 HERKIMER STREET,BROOKLYN,11233
23K631,General D. Chappie James Elementary School of Science,76 RIVERDALE AVENUE,BROOKLYN,11212,K356,104 SUTTER AVENUE,BROOKLYN,11212,,,,
23K634,General D. Chappie James Middle School of Science,76 RIVERDALE AVENUE,BROOKLYN,11212,K356,104 SUTTER AVENUE,BROOKLYN,11212,,,,
23K643,Brooklyn Democracy Academy,985 ROCKAWAY AVENUE,BROOKLYN,11212,K275,985 ROCKAWAY AVENUE,BROOKLYN,11212,,,,
23K644,Eagle Academy for Young Men II,1137 HERKIMER STREET,BROOKLYN,11233,K178,2163 DEAN STREET,BROOKLYN,11233,K455,1700 FULTON STREET,BROOKLYN,11213
23K646,Aspirations Diploma Plus High School,1495 HERKIMER STREET,BROOKLYN,11233,K894,1495 HERKIMER STREET,BROOKLYN,11233,,,,
23K647,Metropolitan Diploma Plus High School,985 ROCKAWAY AVENUE,BROOKLYN,11212,K275,985 ROCKAWAY AVENUE,BROOKLYN,11212,,,,
23K664,Brooklyn Environmental Exploration School (BEES),251 MCDOUGAL STREET,BROOKLYN,11233,K178,2163 DEAN STREET,BROOKLYN,11233,,,,
23K668,Riverdale Avenue Middle School,76 RIVERDALE AVENUE,BROOKLYN,11212,K178,2163 DEAN STREET,BROOKLYN,11233,,,,
23K671,Mott Hall Bridges Academy,210 CHESTER STREET,BROOKLYN,11212,K263,210 CHESTER STREET,BROOKLYN,11212,,,,
23K697,Teachers Preparatory High School,226 BRISTOL STREET,BROOKLYN,11212,K175,226 BRISTOL STREET,BROOKLYN,11212,,,,
24Q005,I.S. 5 - The Walter Crowley Intermediate School,50-40 JACOBUS STREET,QUEENS,11373,Q005,50-40 JACOBUS STREET,QUEENS,11373,,,,
24Q007,P.S. 007 Louis F. Simeone,80-55 CORNISH AVENUE,QUEENS,11373,Q007,80-55 CORNISH AVENUE,QUEENS,11373,,,,
24Q012,P.S. 012 James B. Colgate,42-00 72 STREET,QUEENS,11377,Q005,50-40 JACOBUS STREET,QUEENS,11373,,,,
24Q013,P.S. 013 Clement C. Moore,55-01 94 STREET,QUEENS,11373,Q007,80-55 CORNISH AVENUE,QUEENS,11373,,,,
24Q014,P.S. 014 Fairview,107-01 OTIS AVENUE,QUEENS,11368,Q007,80-55 CORNISH AVENUE,QUEENS,11373,,,,
24Q016,P.S. Q016 The Nancy DeBenedittis School,41-15 104 STREET,QUEENS,11368,Q007,80-55 CORNISH AVENUE,QUEENS,11373,,,,
24Q019,P.S. 019 Marino Jeantet,98-02 ROOSEVELT AVENUE,QUEENS,11368,Q007,80-55 CORNISH AVENUE,QUEENS,11373,,,,
24Q028,P.S. 28 - The Thomas Emanuel Early Childhood Center,109-10 47 AVENUE,QUEENS,11368,Q007,80-55 CORNISH AVENUE,QUEENS,11373,,,,
24Q049,P.S. 049 Dorothy Bonawit Kole,63-60 80th Street,QUEENS,11379,Q049,63-60 80th Street,QUEENS,11379,Q093,66-56 FOREST AVENUE,QUEENS,11385
24Q058,P.S. 58 - School of Heroes,72-24 GRAND AVENUE,QUEENS,11378,Q049,63-60 80th Street,QUEENS,11379,,,,
24Q061,I.S. 061 Leonardo Da Vinci,98-50 50 AVENUE,QUEENS,11368,Q061,98-50 50 AVENUE,QUEENS,11368,,,,
24Q068,P.S. 068 Cambridge,59-09 SAINT FELIX AVENUE,QUEENS,11385,Q049,63-60 80th Street,QUEENS,11379,,,,
24Q071,P.S. 071 Forest,62-85 FOREST AVENUE,QUEENS,11385,Q049,63-60 80th Street,QUEENS,11379,,,,
24Q073,I.S. 73 - The Frank Sansivieri Intermediate School,70-02 54 AVENUE,QUEENS,11378,Q005,50-40 JACOBUS STREET,QUEENS,11373,,,,
24Q077,I.S. 077,976 SENECA AVENUE,QUEENS,11385,Q093,66-56 FOREST AVENUE,QUEENS,11385,,,,
24Q081,P.S. 81Q Jean Paul Richter,559 CYPRESS AVENUE,QUEENS,11385,Q049,63-60 80th Street,QUEENS,11379,,,,
24Q087,P.S. / I.S. 087 Middle Village,67-54 80 STREET,QUEENS,11379,Q049,63-60 80th Street,QUEENS,11379,Q093,66-56 FOREST AVENUE,QUEENS,11385
24Q088,P.S. 088 Seneca,60-85 CATALPA AVENUE,QUEENS,11385,Q049,63-60 80th Street,QUEENS,11379,,,,
24Q089,P.S. 089 Elmhurst,85-28 BRITTON AVENUE,QUEENS,11373,Q007,80-55 CORNISH AVENUE,QUEENS,11373,,,,
24Q091,P.S. 091 Richard Arkwright,68-10 CENTRAL AVE,QUEENS,11385,Q049,63-60 80th Street,QUEENS,11379,,,,
24Q093,I.S. 093 Ridgewood,66-56 FOREST AVENUE,QUEENS,11385,Q093,66-56 FOREST AVENUE,QUEENS,11385,,,,
24Q102,P.S. 102 Bayview,55-24 VAN HORN STREET,QUEENS,11373,Q005,50-40 JACOBUS STREET,QUEENS,11373,Q186,252-12 72 AVENUE,QUEENS,11426
24Q113,P.S./I.S. 113 Anthony J. Pranzo,78-23 87TH STREET,QUEENS,11385,Q005,50-40 JACOBUS STREET,QUEENS,11373,,,,
24Q119,I.S. 119 The Glendale,74-01 78 AVENUE,QUEENS,11385,Q093,66-56 FOREST AVENUE,QUEENS,11385,,,,
24Q125,I.S. 125 Thom J. McCann Woodside,46-02 47 AVENUE,QUEENS,11377,Q125,46-02 47 AVENUE,QUEENS,11377,,,,
24Q128,"P.S. 128 The Lorraine Tuzzo, Juniper Valley Elementary School",69-10 65th Drive,QUEENS,11379,Q093,66-56 FOREST AVENUE,QUEENS,11385,Q049,63-60 80th Street,QUEENS,11379
24Q143,P.S. 143 Louis Armstrong,34-74 113 STREET,QUEENS,11368,Q212,34-25 82 STREET,QUEENS,11372,,,,
24Q153,P.S. 153 Maspeth Elem,60-02 60 LANE,QUEENS,11378,Q049,63-60 80th Street,QUEENS,11379,Q005,50-40 JACOBUS STREET,QUEENS,11373
24Q199,P.S. 199 Maurice A. Fitzgerald,39-20 48 AVENUE,QUEENS,11104,Q125,46-02 47 AVENUE,QUEENS,11377,,,,
24Q229,P.S. 229 Emanuel Kaplan,67-25 51 ROAD,QUEENS,11377,Q005,50-40 JACOBUS STREET,QUEENS,11373,,,,
24Q236,International High School for Health Sciences,48-01 90 STREET,QUEENS,11373,Q455,48-01 90 STREET,QUEENS,11373,,,,
24Q239,P.S. 239,17-15 WEIRFIELD STREET,QUEENS,11385,Q049,63-60 80th Street,QUEENS,11379,,,,
24Q264,Academy of Finance and Enterprise,30-20 THOMSON AVENUE,QUEENS,11101,Q450,28-01 41 AVENUE,QUEENS,11101,,,,
24Q267,High School of Applied Communication,30-20 THOMSON AVENUE,QUEENS,11101,Q450,28-01 41 AVENUE,QUEENS,11101,,,,
24Q290,A.C.E. Academy for Scholars at the Geraldine Ferraro Campus,70-02 54 AVENUE,QUEENS,11378,Q049,63-60 80th Street,QUEENS,11379,,,,
24Q293,Civic Leadership Academy,45-10 94TH STREET,QUEENS,11373,Q744,45-10 94TH STREET,QUEENS,11373,,,,
24Q296,Pan American International High School,45-10 94TH STREET,QUEENS,11373,Q744,45-10 94TH STREET,QUEENS,11373,,,,
24Q299,Bard High School Early College Queens,30-20 THOMSON AVENUE,QUEENS,11101,Q450,28-01 41 AVENUE,QUEENS,11101,,,,
24Q305,Learners and Leaders,378 SENECA AVENUE,QUEENS,11385,Q049,63-60 80th Street,QUEENS,11379,,,,
24Q307,Pioneer Academy,40-20 100TH STREET,QUEENS,11368,Q260,40-20 100TH STREET,QUEENS,11368,Q007,80-55 CORNISH AVENUE,QUEENS,11373
24Q311,Corona Arts and Sciences Academy,45-10 94TH STREET,QUEENS,11373,Q061,98-50 50 AVENUE,QUEENS,11368,,,,
24Q330,P.S. 330,110-08 NORTHERN BOULEVARD,QUEENS,11368,Q049,63-60 80th Street,QUEENS,11379,,,,
24Q455,Newtown High School,48-01 90 STREET,QUEENS,11373,Q455,48-01 90 STREET,QUEENS,11373,,,,
24Q457,HS Arts & Business Yabc,105-25 HORACE HARDING EXPY N,QUEENS,11368,Q455,48-01 90 STREET,QUEENS,11373,,,,
24Q485,Grover Cleveland High School,21-27 HIMROD STREET,QUEENS,11385,Q485,21-27 HIMROD STREET,QUEENS,11385,,,,
24Q520,Middle College High School at LaGuardia Community College,45-35 VAN DAM STREET,QUEENS,11101,Q891,47-07 30 PLACE,QUEENS,11101,,,,
24Q530,International High School at LaGuardia Community College,45-35 VAN DAM STREET,QUEENS,11101,Q891,47-07 30 PLACE,QUEENS,11101,,,,
24Q550,High School for Arts and Business,105-25 HORACE HARDING EXPY N,QUEENS,11368,Q455,48-01 90 STREET,QUEENS,11373,,,,
24Q560,"Robert F. Wagner, Jr. Secondary School for Arts and Technology",47-07 30 PLACE,QUEENS,11101,Q891,47-07 30 PLACE,QUEENS,11101,,,,
24Q585,Maspeth High School,54-40 74TH STREET,QUEENS,11373,Q585,54-40 74TH STREET,QUEENS,11373,,,,
24Q600,Queens Vocational and Technical High School,37-02 47 AVENUE,QUEENS,11101,Q452,14-30 BROADWAY,QUEENS,11106,,,,
24Q610,Aviation Career & Technical Education High School,45-30 36 STREET,QUEENS,11101,Q610,45-30 36 STREET,QUEENS,11101,,,,
24Q744,VOYAGES Preparatory,45-10 94TH STREET,QUEENS,11373,Q744,45-10 94TH STREET,QUEENS,11373,,,,
24Q877,The 51 Avenue Academy (The Path To Academic Excellence),76-05 51 AVENUE,QUEENS,11373,Q005,50-40 JACOBUS STREET,QUEENS,11373,,,,
25Q020,P.S. 020 John Bowne,142-30 BARCLAY AVENUE,QUEENS,11355,Q020,142-30 BARCLAY AVENUE,QUEENS,11355,,,,
25Q021,P.S. 021 Edward Hart,147-36 26 AVENUE,QUEENS,11354,Q120,58-01 136 STREET,QUEENS,11355,,,,
25Q022,P.S. 022 Thomas Jefferson,153-33 SANFORD AVENUE,QUEENS,11355,Q020,142-30 BARCLAY AVENUE,QUEENS,11355,,,,
25Q024,P.S. 024 Andrew Jackson,141-11 HOLLY AVENUE,QUEENS,11355,Q020,142-30 BARCLAY AVENUE,QUEENS,11355,,,,
25Q025,I.S. 025 Adrien Block,34-65 192 STREET,QUEENS,11358,Q025,34-65 192 STREET,QUEENS,11358,,,,
25Q029,P.S. 029 Queens,125-10 23 AVENUE,QUEENS,11356,Q020,142-30 BARCLAY AVENUE,QUEENS,11355,,,,
25Q032,P.S. 032 State Street,171-11 35 AVENUE,QUEENS,11358,Q120,58-01 136 STREET,QUEENS,11355,,,,
25Q079,P.S. 079 Francis Lewis,147-27 15 DRIVE,QUEENS,11357,Q020,142-30 BARCLAY AVENUE,QUEENS,11355,,,,
25Q107,P.S. 107 Thomas A Dooley,167-02 45 AVENUE,QUEENS,11358,Q020,142-30 BARCLAY AVENUE,QUEENS,11355,,,,
25Q120,P.S. 120 Queens,58-01 136 STREET,QUEENS,11355,Q120,58-01 136 STREET,QUEENS,11355,,,,
25Q129,P.S. 129 Patricia Larkin,128-02 7 AVENUE,QUEENS,11356,Q120,58-01 136 STREET,QUEENS,11355,,,,
25Q130,P.S. 130,200-01 42 AVENUE,QUEENS,11361,Q020,142-30 BARCLAY AVENUE,QUEENS,11355,,,,
25Q154,P.S. 154 Queens,75-02 162 STREET,QUEENS,11366,Q120,58-01 136 STREET,QUEENS,11355,,,,
25Q163,P.S. 163 Flushing Heights,159-01 59 AVENUE,QUEENS,11365,Q020,142-30 BARCLAY AVENUE,QUEENS,11355,,,,
25Q164,P.S. 164 Queens Valley,138-01 77 AVENUE,QUEENS,11367,Q120,58-01 136 STREET,QUEENS,11355,Q025,34-65 192 STREET,QUEENS,11358
25Q165,P.S. 165 Edith K. Bergtraum,70-35 150 STREET,QUEENS,11367,Q020,142-30 BARCLAY AVENUE,QUEENS,11355,Q186,252-12 72 AVENUE,QUEENS,11426
25Q169,P.S. 169 Bay Terrace,18-25 212 STREET,QUEENS,11360,Q020,142-30 BARCLAY AVENUE,QUEENS,11355,,,,
25Q184,P.S. 184 Flushing Manor,163-15 21 ROAD,QUEENS,11357,Q020,142-30 BARCLAY AVENUE,QUEENS,11355,,,,
25Q185,J.H.S. 185 Edward Bleeker,147-26 25 DRIVE,QUEENS,11354,Q025,34-65 192 STREET,QUEENS,11358,,,,
25Q189,J.H.S. 189 Daniel Carter Beard,144-80 BARCLAY AVENUE,QUEENS,11355,Q025,34-65 192 STREET,QUEENS,11358,,,,
25Q193,P.S. 193 Alfred J. Kennedy,152-20 11 AVENUE,QUEENS,11357,Q020,142-30 BARCLAY AVENUE,QUEENS,11355,,,,
25Q194,J.H.S. 194 William Carr,154-60 17 AVENUE,QUEENS,11357,Q025,34-65 192 STREET,QUEENS,11358,,,,
25Q200,PS/MS 200 - The Pomonok School & STAR Academy,70-10 164 STREET,QUEENS,11365,Q020,142-30 BARCLAY AVENUE,QUEENS,11355,Q025,34-65 192 STREET,QUEENS,11358
25Q201,P.S. 201 The Discovery School for Inquiry and Research,65-11 155 STREET,QUEENS,11367,Q020,142-30 BARCLAY AVENUE,QUEENS,11355,,,,
25Q209,P.S. 209 Clearview Gardens,16-10 UTOPIA PARKWAY,QUEENS,11357,Q020,142-30 BARCLAY AVENUE,QUEENS,11355,,,,
25Q214,P.S. 214 Cadwallader Colden,31-15 140 STREET,QUEENS,11354,Q020,142-30 BARCLAY AVENUE,QUEENS,11355,,,,
25Q219,P.S. 219 Paul Klapper,144-39 GRAVETT ROAD,QUEENS,11367,Q120,58-01 136 STREET,QUEENS,11355,Q025,34-65 192 STREET,QUEENS,11358
25Q237,I.S. 237,46-21 COLDEN STREET,QUEENS,11355,Q025,34-65 192 STREET,QUEENS,11358,,,,
25Q240,Veritas Academy,35-01 UNION STREET,QUEENS,11354,Q460,35-01 UNION STREET,QUEENS,11354,,,,
25Q241,Queens High School for Language Studies,35-01 UNION STREET,QUEENS,11354,Q707,75-40 PARSONS BOULEVARD,QUEENS,11366,Q460,35-01 UNION STREET,QUEENS,11354
25Q242,P.S. 242 Leonard P. Stavisky Early Childhood School,29-66 137 STREET,QUEENS,11354,Q020,142-30 BARCLAY AVENUE,QUEENS,11355,,,,
25Q244,The Active Learning Elementary School,137-20 FRANKLIN AVENUE,QUEENS,11355,Q020,142-30 BARCLAY AVENUE,QUEENS,11355,,,,
25Q250,I.S. 250 The Robert F. Kennedy Community Middle School,158-40 76 ROAD,QUEENS,11366,Q025,34-65 192 STREET,QUEENS,11358,,,,
25Q252,"Queens School of Inquiry, The",158-40 76 ROAD,QUEENS,11366,Q707,75-40 PARSONS BOULEVARD,QUEENS,11366,,,,
25Q263,Flushing International High School,144-80 BARCLAY AVENUE,QUEENS,11355,Q744,45-10 94TH STREET,QUEENS,11373,,,,
25Q281,East-West School of International Studies,46-21 COLDEN STREET,QUEENS,11355,Q707,75-40 PARSONS BOULEVARD,QUEENS,11366,,,,
25Q285,World Journalism Preparatory: A College Board School,34-65 192 STREET,QUEENS,11358,Q025,34-65 192 STREET,QUEENS,11358,,,,
25Q294,BELL Academy,18-25 212 STREET,QUEENS,11360,Q025,34-65 192 STREET,QUEENS,11358,,,,
25Q425,John Bowne High School,63-25 MAIN STREET,QUEENS,11367,Q425,63-25 MAIN STREET,QUEENS,11367,,,,
25Q460,Flushing High School,35-01 UNION STREET,QUEENS,11354,Q460,35-01 UNION STREET,QUEENS,11354,,,,
25Q467,Flushing Yabc,35-01 UNION STREET,QUEENS,11354,Q460,35-01 UNION STREET,QUEENS,11354,,,,
25Q499,"The Queens College School for Math, Science and Technology",148-20 REEVES AVENUE,QUEENS,11367,Q120,58-01 136 STREET,QUEENS,11355,Q025,34-65 192 STREET,QUEENS,11358
25Q525,Townsend Harris High School,149-11 MELBOURNE AVENUE,QUEENS,11367,Q430,58-20 UTOPIA PARKWAY,QUEENS,11365,,,,
25Q540,Queens Academy High School,138-11 35 AVENUE,QUEENS,11354,Q460,35-01 UNION STREET,QUEENS,11354,,,,
25Q670,Robert F. Kennedy Community High School,75-40 PARSONS BOULEVARD,QUEENS,11366,Q707,75-40 PARSONS BOULEVARD,QUEENS,11366,,,,
25Q792,North Queens Community High School,141-25 77TH ROAD,QUEENS,11367,Q744,45-10 94TH STREET,QUEENS,11373,,,,
26Q018,P.S. 018 Winchester,86-35 235 COURT,QUEENS,11427,Q046,64-45 218 STREET,QUEENS,11364,,,,
26Q026,P.S. 026 Rufus King,195-02 69 AVENUE,QUEENS,11365,Q046,64-45 218 STREET,QUEENS,11364,,,,
26Q031,P.S. 031 Bayside,211-45 46 ROAD,QUEENS,11361,Q046,64-45 218 STREET,QUEENS,11364,,,,
26Q041,P.S. 041 Crocheron,214-43 35 AVENUE,QUEENS,11361,Q046,64-45 218 STREET,QUEENS,11364,,,,
26Q046,P.S. 046 Alley Pond,64-45 218 STREET,QUEENS,11364,Q046,64-45 218 STREET,QUEENS,11364,,,,
26Q067,J.H.S. 067 Louis Pasteur,51-60 MARATHON PARKWAY,QUEENS,11362,Q158,46-35 OCEANIA STREET,QUEENS,11361,,,,
26Q074,J.H.S. 074 Nathaniel Hawthorne,61-15 OCEANIA STREET,QUEENS,11364,Q158,46-35 OCEANIA STREET,QUEENS,11361,,,,
26Q094,P.S. 094 David D. Porter,41-77 LITTLE NECK PARKWAY,QUEENS,11363,Q046,64-45 218 STREET,QUEENS,11364,,,,
26Q098,P.S. 098 The Douglaston School,40-20 235 STREET,QUEENS,11363,Q046,64-45 218 STREET,QUEENS,11364,,,,
26Q115,P.S. 115 Glen Oaks,80-51 261 STREET,QUEENS,11004,Q046,64-45 218 STREET,QUEENS,11364,,,,
26Q133,P.S. 133 Queens,248-05 86 AVENUE,QUEENS,11426,Q046,64-45 218 STREET,QUEENS,11364,,,,
26Q158,M.S. 158 Marie Curie,46-35 OCEANIA STREET,QUEENS,11361,Q158,46-35 OCEANIA STREET,QUEENS,11361,,,,
26Q159,P.S. 159,205-01 33 AVENUE,QUEENS,11361,Q046,64-45 218 STREET,QUEENS,11364,,,,
26Q162,P.S. 162 John Golden,201-02 53 AVENUE,QUEENS,11364,Q046,64-45 218 STREET,QUEENS,11364,,,,
26Q172,Irwin Altman Middle School 172,81-14 257 STREET,QUEENS,11004,Q158,46-35 OCEANIA STREET,QUEENS,11361,,,,
26Q173,P.S. 173 Fresh Meadows,174-10 67 AVENUE,QUEENS,11365,Q046,64-45 218 STREET,QUEENS,11364,,,,
26Q178,P.S./ IS 178 Holliswood,189-10 RADNOR ROAD,QUEENS,11423,Q046,64-45 218 STREET,QUEENS,11364,Q158,46-35 OCEANIA STREET,QUEENS,11361
26Q186,P.S. 186 Castlewood,252-12 72 AVENUE,QUEENS,11426,Q186,252-12 72 AVENUE,QUEENS,11426,,,,
26Q188,P.S. 188 Kingsbury,218-12 HARTLAND AVENUE,QUEENS,11364,Q046,64-45 218 STREET,QUEENS,11364,,,,
26Q191,P.S. 191 Mayflower,85-15 258 STREET,QUEENS,11001,Q046,64-45 218 STREET,QUEENS,11364,,,,
26Q203,P.S. 203 Oakland Gardens,53-11 SPRINGFIELD BOULEVARD,QUEENS,11364,Q046,64-45 218 STREET,QUEENS,11364,,,,
26Q205,P.S. 205 Alexander Graham Bell,75-25 BELL BOULEVARD,QUEENS,11364,Q046,64-45 218 STREET,QUEENS,11364,,,,
26Q213,P.S. 213 The Carl Ullman School,231-02 67 AVENUE,QUEENS,11364,Q046,64-45 218 STREET,QUEENS,11364,,,,
26Q216,J.H.S. 216 George J. Ryan,64-20 175 STREET,QUEENS,11365,Q158,46-35 OCEANIA STREET,QUEENS,11361,,,,
26Q221,P.S. 221 The North Hills School,57-40 MARATHON PARKWAY,QUEENS,11362,Q046,64-45 218 STREET,QUEENS,11364,,,,
26Q266,P.S. / I.S. 266,74-10 COMMONWEALTH BOULEVARD,QUEENS,11426,Q158,46-35 OCEANIA STREET,QUEENS,11361,Q046,64-45 218 STREET,QUEENS,11364
26Q415,Benjamin N. Cardozo High School,57-00 223RD STREET,BAYSIDE,11364,Q415,57-00 223RD STREET,BAYSIDE,11364,,,,
26Q430,Francis Lewis High School,58-20 UTOPIA PARKWAY,QUEENS,11365,Q430,58-20 UTOPIA PARKWAY,QUEENS,11365,,,,
26Q435,Martin Van Buren High School,230-17 HILLSIDE AVENUE,QUEENS,11427,Q430,58-20 UTOPIA PARKWAY,QUEENS,11365,,,,
26Q495,Bayside High School,32-24 CORPORAL KENNEDY STREET,QUEENS,11361,Q405,32-24 CORPORAL KENNEDY STREET,QUEENS,11361,,,,
26Q566,"Queens High School of Teaching, Liberal Arts and the Sciences",74-20 COMMONWEALTH BLVD,QUEENS,11426,Q566,74-20 COMMONWEALTH BLVD,QUEENS,11426,,,,
27Q042,P.S./M.S 042 R. Vernam,488 BEACH 66 STREET,QUEENS,11692,Q042,488 BEACH 66 STREET,QUEENS,11692,,,,
27Q043,P.S. 043,160 BEACH 29 STREET,QUEENS,11691,Q042,488 BEACH 66 STREET,QUEENS,11692,,,,
27Q045,P.S. 045 Clarence Witherspoon,126-28 150 STREET,QUEENS,11436,Q124,129-15 150 AVENUE,QUEENS,11420,,,,
27Q047,P.S. 047 Chris Galas,9 POWER ROAD,QUEENS,11693,Q225,190 BEACH 110 STREET,ROCKAWAY PARK,11694,,,,
27Q053,M.S. 053 Brian Piccolo,10-45 NAMEOKE STREET,QUEENS,11691,Q043,160 BEACH 29 STREET,QUEENS,11691,,,,
27Q056,P.S. 056 Harry Eichler,86-10 114 STREET,QUEENS,11418,Q060,91-02 88 AVENUE,QUEENS,11421,,,,
27Q060,P.S. 060 Woodhaven,91-02 88 AVENUE,QUEENS,11421,Q060,91-02 88 AVENUE,QUEENS,11421,,,,
27Q062,P. S. 62 - Chester Park School,97-25 108 STREET,QUEENS,11419,Q063,90-15 SUTTER AVENUE,QUEENS,11417,,,,
27Q063,P.S. 063 Old South,90-15 SUTTER AVENUE,QUEENS,11417,Q063,90-15 SUTTER AVENUE,QUEENS,11417,,,,
27Q064,P.S. 064 Joseph P. Addabbo,82-01 101 AVENUE,QUEENS,11416,Q060,91-02 88 AVENUE,QUEENS,11421,,,,
27Q065,P.S. 65 - The Raymond York Elementary School,103-22 99 STREET,QUEENS,11417,Q063,90-15 SUTTER AVENUE,QUEENS,11417,Q060,91-02 88 AVENUE,QUEENS,11421
27Q066,P.S. 066 Jacqueline Kennedy Onassis,85-11 102 STREET,QUEENS,11418,Q060,91-02 88 AVENUE,QUEENS,11421,,,,
27Q090,P.S. 090 Horace Mann,86-50 109 STREET,QUEENS,11418,Q060,91-02 88 AVENUE,QUEENS,11421,,,,
27Q096,P.S. 096,130-01 ROCKAWAY BOULEVARD,QUEENS,11420,Q124,129-15 150 AVENUE,QUEENS,11420,,,,
27Q097,P.S. 097 Forest Park,85-52 85 STREET,QUEENS,11421,Q060,91-02 88 AVENUE,QUEENS,11421,,,,
27Q100,P.S. 100 Glen Morris,111-11 118 STREET,QUEENS,11420,Q063,90-15 SUTTER AVENUE,QUEENS,11417,,,,
27Q104,P.S. 104 The Bays Water,26-01 MOTT AVENUE,QUEENS,11691,Q104,26-01 MOTT AVENUE,QUEENS,11691,,,,
27Q105,P.S. 105 The Bay School,420 BEACH 51 STREET,QUEENS,11691,Q042,488 BEACH 66 STREET,QUEENS,11692,,,,
27Q106,P.S. 106,180 BEACH 35 STREET,QUEENS,11691,Q104,26-01 MOTT AVENUE,QUEENS,11691,,,,
27Q108,P.S. 108 Captain Vincent G. Fowler,108-10 109 AVENUE,QUEENS,11420,Q063,90-15 SUTTER AVENUE,QUEENS,11417,,,,
27Q114,P.S. / M.S. 114 Belle Harbor,134-01 CRONSTON AVENUE,QUEENS,11694,Q225,190 BEACH 110 STREET,ROCKAWAY PARK,11694,,,,
27Q123,P.S. 123,145-01 119 AVENUE,QUEENS,11436,Q124,129-15 150 AVENUE,QUEENS,11420,,,,
27Q124,P.S. 124 Osmond A Church,129-15 150 AVENUE,QUEENS,11420,Q124,129-15 150 AVENUE,QUEENS,11420,,,,
27Q137,M.S. 137 America's School of Heroes,109-15 98 STREET,QUEENS,11417,Q137,109-15 98 STREET,QUEENS,11417,,,,
27Q146,P.S. 146 Howard Beach,98-01 159 AVENUE,QUEENS,11414,Q202,138-30 LAFAYETTE STREET,QUEENS,11417,,,,
27Q155,P.S. 155,130-02 115 AVENUE,QUEENS,11420,Q124,129-15 150 AVENUE,QUEENS,11420,,,,
27Q183,P.S. 183 Dr. Richard R. Green,2-45 BEACH 79 STREET,QUEENS,11693,Q225,190 BEACH 110 STREET,ROCKAWAY PARK,11694,,,,
27Q197,P.S. 197 The Ocean School,825 HICKSVILLE ROAD,QUEENS,11691,Q253,1307 CENTRAL AVENUE,QUEENS,11691,,,,
27Q202,J.H.S. 202 Robert H. Goddard,138-30 LAFAYETTE STREET,QUEENS,11417,Q202,138-30 LAFAYETTE STREET,QUEENS,11417,,,,
27Q207,P.S. 207 Rockwood Park,159-15 88 STREET,QUEENS,11414,Q202,138-30 LAFAYETTE STREET,QUEENS,11417,,,,
27Q210,J.H.S. 210 Elizabeth Blackwell,93-11 101 AVENUE,QUEENS,11416,Q137,109-15 98 STREET,QUEENS,11417,,,,
27Q215,P.S. 215 Lucretia Mott,535 BRIAR PLACE,QUEENS,11691,Q104,26-01 MOTT AVENUE,QUEENS,11691,,,,
27Q223,P.S. 223 Lyndon B. Johnson,125-20 SUTPHIN BOULEVARD,QUEENS,11434,Q124,129-15 150 AVENUE,QUEENS,11420,,,,
27Q226,J.H.S. 226 Virgil I. Grissom,121-10 ROCKAWAY BOULEVARD,QUEENS,11420,Q137,109-15 98 STREET,QUEENS,11417,,,,
27Q232,P.S. 232 Lindenwood,153-23 83 STREET,QUEENS,11414,Q202,138-30 LAFAYETTE STREET,QUEENS,11417,,,,
27Q253,P.S. 253,1307 CENTRAL AVENUE,QUEENS,11691,Q253,1307 CENTRAL AVENUE,QUEENS,11691,,,,
27Q254,P.S. 254 - The Rosa Parks School,84-40 101 STREET,QUEENS,11418,Q060,91-02 88 AVENUE,QUEENS,11421,,,,
27Q260,Frederick Douglass Academy VI High School,8-21 BAY 25 STREET,QUEENS,11691,Q465,8-21 BAY 25 STREET,QUEENS,11691,,,,
27Q261,Voyages Prep - South Queens,156-10 BAISLEY BOULEVARD,QUEENS,11434,Q420,143-10 SPRINGFIELD BOULEVARD,QUEENS,11413,,,,
27Q262,Channel View School for Research,100-00 BEACH CHANNEL DRIVE,QUEENS,11694,Q410,100-00 BEACH CHANNEL DRIVE,QUEENS,11694,,,,
27Q273,P.S. 273,88-07 102ND STREET,QUEENS,11418,Q060,91-02 88 AVENUE,QUEENS,11421,,,,
27Q282,Knowledge and Power Preparatory Academy VI,8-21 BAY 25 STREET,QUEENS,11691,Q465,8-21 BAY 25 STREET,QUEENS,11691,,,,
27Q297,Hawtree Creek Middle School,121-10 ROCKAWAY BOULEVARD,QUEENS,11420,Q137,109-15 98 STREET,QUEENS,11417,,,,
27Q302,"Queens High School for Information, Research, and Technology",8-21 BAY 25 STREET,QUEENS,11691,Q465,8-21 BAY 25 STREET,QUEENS,11691,,,,
27Q306,New York City Academy for Discovery,95-16 89TH AVENUE,QUEENS,11421,Q060,91-02 88 AVENUE,QUEENS,11421,,,,
27Q308,Robert H. Goddard High School of Communication Arts and Technology,138-30 LAFAYETTE STREET,QUEENS,11417,Q480,101-01 ROCKAWAY BOULEVARD,QUEENS,11417,,,,
27Q309,Academy of Medical Technology: A College Board School,8-21 BAY 25 STREET,QUEENS,11691,Q465,8-21 BAY 25 STREET,QUEENS,11691,,,,
27Q317,WATERSIDE CHILDREN'S STUDIO SCHOOL,190 BEACH 110 STREET,ROCKAWAY PARK,11694,Q225,190 BEACH 110 STREET,ROCKAWAY PARK,11694,,,,
27Q318,WATERSIDE SCHOOL FOR LEADERSHIP,190 BEACH 110 STREET,ROCKAWAY PARK,11694,Q225,190 BEACH 110 STREET,ROCKAWAY PARK,11694,,,,
27Q319,VILLAGE ACADEMY,10-45 NAMEOKE STREET,QUEENS,11691,Q043,160 BEACH 29 STREET,QUEENS,11691,,,,
27Q324,Rockaway Park High School for Environmental Sustainability,100-00 BEACH CHANNEL DRIVE,QUEENS,11694,Q410,100-00 BEACH CHANNEL DRIVE,QUEENS,11694,,,,
27Q333,Goldie Maple Academy,3-65 BEACH 56 STREET,QUEENS,11692,Q043,160 BEACH 29 STREET,QUEENS,11691,,,,
27Q351,Rockaway Collegiate High School,100-00 BEACH CHANNEL DRIVE,QUEENS,11694,Q410,100-00 BEACH CHANNEL DRIVE,QUEENS,11694,,,,
27Q362,Wave Preparatory Elementary School,535 BRIAR PLACE,QUEENS,11691,Q043,160 BEACH 29 STREET,QUEENS,11691,,,,
27Q400,August Martin High School,156-10 BAISLEY BOULEVARD,QUEENS,11434,Q633,171-10 LINDEN BOULEVARD,QUEENS,11434,,,,
27Q410,Beach Channel High School,100-00 BEACH CHANNEL DRIVE,QUEENS,11694,Q410,100-00 BEACH CHANNEL DRIVE,QUEENS,11694,,,,
27Q475,Richmond Hill High School,89-30 114 STREET,QUEENS,11418,Q475,89-30 114 STREET,QUEENS,11418,,,,
27Q480,John Adams High School,101-01 ROCKAWAY BOULEVARD,QUEENS,11417,Q480,101-01 ROCKAWAY BOULEVARD,QUEENS,11417,,,,
27Q487,John Adams Yabc,101-01 ROCKAWAY BOULEVARD,QUEENS,11417,Q480,101-01 ROCKAWAY BOULEVARD,QUEENS,11417,,,,
27Q650,"High School for Construction Trades, Engineering and Architecture",94-06 104TH STREET,QUEENS,11416,Q650,94-06 104TH STREET,QUEENS,11416,,,,
28Q008,J.H.S. 008 Richard S. Grossley,108-35 167 STREET,QUEENS,11433,Q008,108-35 167 STREET,QUEENS,11433,,,,
28Q030,P.S. 030 Queens,126-10 BEDELL STREET,QUEENS,11434,Q276,108-29 155 STREET,QUEENS,11433,,,,
28Q040,P.S. 040 Samuel Huntington,109-20 UNION HALL STREET,QUEENS,11433,Q276,108-29 155 STREET,QUEENS,11433,,,,
28Q048,P.S. 048 William Wordsworth,108-29 155 STREET,QUEENS,11433,Q276,108-29 155 STREET,QUEENS,11433,,,,
28Q050,P.S. 050 Talfourd Lawn Elementary School,143-26 101 AVENUE,QUEENS,11435,Q276,108-29 155 STREET,QUEENS,11433,,,,
28Q054,P.S. 054 Hillside,86-02 127 STREET,QUEENS,11418,Q220,62-10 108 STREET,QUEENS,11375,,,,
28Q055,P.S. 055 Maure,131-10 97 AVENUE,QUEENS,11419,Q220,62-10 108 STREET,QUEENS,11375,,,,
28Q072,Catherine & Count Basie Middle School 72,133-25 GUY R BREWER BOULEVARD,QUEENS,11434,Q690,116-25 GUY R BREWER BOULEVARD,QUEENS,11434,,,,
28Q080,P.S. 080 Thurgood Marshall Magnet,171-05 137 AVENUE,QUEENS,11434,Q276,108-29 155 STREET,QUEENS,11433,,,,
28Q082,P.S. 082 Hammond,88-02 144 STREET,QUEENS,11435,Q220,62-10 108 STREET,QUEENS,11375,,,,
28Q086,P.S. Q086,87-41 PARSONS BOULEVARD,QUEENS,11432,Q220,62-10 108 STREET,QUEENS,11375,,,,
28Q099,P.S. 099 Kew Gardens,82-37 KEW GARDENS ROAD,QUEENS,11415,Q220,62-10 108 STREET,QUEENS,11375,,,,
28Q101,P.S. 101 School in the Gardens,2 RUSSELL PLACE,QUEENS,11375,Q220,62-10 108 STREET,QUEENS,11375,,,,
28Q117,P.S. 117 J. Keld / Briarwood School,85-15 143 STREET,QUEENS,11435,Q220,62-10 108 STREET,QUEENS,11375,,,,
28Q121,P.S. 121 Queens,126-10 109 AVENUE,QUEENS,11420,Q220,62-10 108 STREET,QUEENS,11375,,,,
28Q139,P.S. 139 Rego Park,93-06 63 DRIVE,QUEENS,11374,Q220,62-10 108 STREET,QUEENS,11375,,,,
28Q140,P.S. 140 Edward K Ellington,166-01 116 AVENUE,QUEENS,11434,Q048,155-02 108 AVENUE,QUEENS,11433,,,,
28Q144,P.S. 144 Col Jeromus Remsen,93-02 69 AVENUE,QUEENS,11375,Q220,62-10 108 STREET,QUEENS,11375,,,,
28Q157,J.H.S. 157 Stephen A. Halsey,63-55 102ND STREET,QUEENS,11374,Q157,63-55 102ND STREET,QUEENS,11374,,,,
28Q160,P.S. 160 Walter Francis Bishop,109-59 INWOOD STREET,QUEENS,11435,Q276,108-29 155 STREET,QUEENS,11433,,,,
28Q161,P.S. 161 Arthur Ashe School,101-33 124 STREET,QUEENS,11419,Q220,62-10 108 STREET,QUEENS,11375,,,,
28Q167,Metropolitan Expeditionary Learning School,91-30 METROPOLITAN AVENUE,QUEENS,11375,Q157,63-55 102ND STREET,QUEENS,11374,Q440,67-01 110 STREET,QUEENS,11375
28Q174,P.S. 174 William Sidney Mount,65-10 DIETERLE CRESCENT,QUEENS,11374,Q220,62-10 108 STREET,QUEENS,11375,,,,
28Q175,P.S. 175 The Lynn Gross Discovery School,64-35 102 STREET,QUEENS,11374,Q220,62-10 108 STREET,QUEENS,11375,,,,
28Q182,P.S. 182 Samantha Smith,153-27 88TH AVENUE,QUEENS,11432,Q220,62-10 108 STREET,QUEENS,11375,,,,
28Q190,J.H.S. 190 Russell Sage,68-17 AUSTIN STREET,QUEENS,11375,Q157,63-55 102ND STREET,QUEENS,11374,,,,
28Q196,P.S. 196 Grand Central Parkway,71-25 113 STREET,QUEENS,11375,Q220,62-10 108 STREET,QUEENS,11375,,,,
28Q206,P.S. 206 The Horace Harding School,61-02 98 STREET,QUEENS,11374,Q220,62-10 108 STREET,QUEENS,11375,,,,
28Q217,J.H.S. 217 Robert A. Van Wyck,85-05 144 STREET,QUEENS,11435,Q680,150-91 87 ROAD,QUEENS,11432,,,,
28Q220,P.S. 220 Edward Mandel,62-10 108 STREET,QUEENS,11375,Q220,62-10 108 STREET,QUEENS,11375,,,,
28Q284,York Early College Academy,108-35 167 STREET,QUEENS,11433,Q008,108-35 167 STREET,QUEENS,11433,Q505,160-05 HIGHLAND AVENUE,QUEENS,11432
28Q287,The Emerson School,108-35 167 STREET,QUEENS,11433,Q008,108-35 167 STREET,QUEENS,11433,,,,
28Q303,The Academy for Excellence through the Arts,108-55 69 AVENUE,QUEENS,11375,Q220,62-10 108 STREET,QUEENS,11375,,,,
28Q310,Queens Collegiate: A College Board School,167-01 GOTHIC DRIVE,JAMAICA,11432,Q620,165-65 84 AVENUE,QUEENS,11432,,,,
28Q325,Hillside Arts & Letters Academy,167-01 GOTHIC DRIVE,JAMAICA,11432,Q620,165-65 84 AVENUE,QUEENS,11432,,,,
28Q328,High School for Community Leadership,167-01 GOTHIC DRIVE,JAMAICA,11432,Q620,165-65 84 AVENUE,QUEENS,11432,,,,
28Q338,Queens Satellite High School for Opportunity,162-02 HILLSIDE AVENUE,QUEENS,11432,Q595,162-02 HILLSIDE AVENUE,QUEENS,11432,,,,
28Q350,Jamaica Gateway to the Sciences,167-01 GOTHIC DRIVE,JAMAICA,11432,Q620,165-65 84 AVENUE,QUEENS,11432,,,,
28Q354,PS 354,126-10 BEDELL STREET,QUEENS,11434,Q276,108-29 155 STREET,QUEENS,11433,,,,
28Q440,Forest Hills High School,67-01 110 STREET,QUEENS,11375,Q440,67-01 110 STREET,QUEENS,11375,,,,
28Q470,Jamaica High School,167-01 GOTHIC DRIVE,JAMAICA,11432,Q620,165-65 84 AVENUE,QUEENS,11432,,,,
28Q505,Hillcrest High School,160-05 HIGHLAND AVENUE,QUEENS,11432,Q505,160-05 HIGHLAND AVENUE,QUEENS,11432,,,,
28Q620,Thomas A. Edison Career and Technical Education High School,165-65 84 AVENUE,QUEENS,11432,Q620,165-65 84 AVENUE,QUEENS,11432,,,,
28Q680,Queens Gateway to Health Sciences Secondary School,160-20 GOETHALS AVENUE,QUEENS,11432,Q157,63-55 102ND STREET,QUEENS,11374,Q620,165-65 84 AVENUE,QUEENS,11432
28Q686,QUEENS METROPOLITAN HIGH SCHOOL,91-30 METROPOLITAN AVENUE,QUEENS,11375,Q650,94-06 104TH STREET,QUEENS,11416,,,,
28Q687,Queens High School for the Sciences at York College,94-50 159 STREET,QUEENS,11433,Q774,94-50 159 STREET,QUEENS,11433,,,,
28Q690,High School for Law Enforcement and Public Safety,116-25 GUY R BREWER BOULEVARD,QUEENS,11434,Q690,116-25 GUY R BREWER BOULEVARD,QUEENS,11434,,,,
28Q896,"Young Women's Leadership School, Queens",150-91 87 ROAD,QUEENS,11432,Q680,150-91 87 ROAD,QUEENS,11432,,,,
29Q015,P.S. 015 Jackie Robinson,121-15 LUCAS STREET,QUEENS,11413,Q270,233-15 MERRICK BOULEVARD,QUEENS,11422,,,,
29Q033,P.S. 033 Edward M. Funk,91-37 222 STREET,QUEENS,11428,Q263,222-14 JAMAICA AVENUE,QUEENS,11428,,,,
29Q034,P.S. 034 John Harvard,104-12 SPRINGFIELD BOULEVARD,QUEENS,11429,Q268,92-07 175 STREET,QUEENS,11433,,,,
29Q035,P.S. 035 Nathaniel Woodhull,191-02 90 AVENUE,QUEENS,11423,Q268,92-07 175 STREET,QUEENS,11433,,,,
29Q036,P.S. 036 Saint Albans School,187-01 FOCH BOULEVARD,QUEENS,11412,Q195,253-50 149 AVENUE,QUEENS,11422,,,,
29Q037,Cynthia Jenkins School,179-37 137 AVENUE,QUEENS,11434,Q270,233-15 MERRICK BOULEVARD,QUEENS,11422,,,,
29Q038,P.S. 038 Rosedale,135-21 241 STREET,QUEENS,11422,Q195,253-50 149 AVENUE,QUEENS,11422,,,,
29Q052,P.S. 052 Queens,178-37 146 TERRACE,QUEENS,11434,Q270,233-15 MERRICK BOULEVARD,QUEENS,11422,,,,
29Q059,I.S. 059 Springfield Gardens,132-55 RIDGEDALE STREET,QUEENS,11413,Q059,132-55 RIDGEDALE STREET,QUEENS,11413,,,,
29Q095,P.S. 095 Eastwood,179-01 90 AVENUE,QUEENS,11432,Q195,253-50 149 AVENUE,QUEENS,11422,,,,
29Q109,Jean Nuzzi Intermediate School,213-10 92 AVENUE,QUEENS,11428,Q263,222-14 JAMAICA AVENUE,QUEENS,11428,,,,
29Q116,PS/IS 116 William C. Hughley,107-25 WREN PLACE,QUEENS,11433,Q268,92-07 175 STREET,QUEENS,11433,,,,
29Q118,P.S. 118 Lorraine Hansberry,190-20 109 ROAD,QUEENS,11412,Q268,92-07 175 STREET,QUEENS,11433,,,,
29Q131,P.S. 131 Abigail Adams,170-45 84 AVENUE,QUEENS,11432,Q268,92-07 175 STREET,QUEENS,11433,,,,
29Q132,P.S. 132 Ralph Bunche,132-15 218 STREET,QUEENS,11413,Q270,233-15 MERRICK BOULEVARD,QUEENS,11422,,,,
29Q134,P.S. 134 Hollis,203-02 109 AVENUE,QUEENS,11412,Q268,92-07 175 STREET,QUEENS,11433,,,,
29Q135,The Bellaire School,207-11 89 AVENUE,QUEENS,11427,Q263,222-14 JAMAICA AVENUE,QUEENS,11428,,,,
29Q136,P.S. 136 Roy Wilkins,201-15 115 AVENUE,QUEENS,11412,Q270,233-15 MERRICK BOULEVARD,QUEENS,11422,,,,
29Q138,P.S./ M.S.138 Sunrise,251-11 WELLER AVENUE,QUEENS,11422,Q195,253-50 149 AVENUE,QUEENS,11422,Q059,132-55 RIDGEDALE STREET,QUEENS,11413
29Q147,PS/MS 147 Ronald McNair,218-01 116 AVENUE,QUEENS,11411,Q270,233-15 MERRICK BOULEVARD,QUEENS,11422,,,,
29Q156,P.S. 156 Laurelton,229-02 137 AVENUE,QUEENS,11413,Q270,233-15 MERRICK BOULEVARD,QUEENS,11422,,,,
29Q176,P.S. 176 Cambria Heights,120-45 235 STREET,QUEENS,11411,Q270,233-15 MERRICK BOULEVARD,QUEENS,11422,,,,
29Q181,P.S. 181 Brookfield,148-15 230 STREET,QUEENS,11413,Q195,253-50 149 AVENUE,QUEENS,11422,,,,
29Q192,I.S. 192 The Linden,109-89 204 STREET,QUEENS,11412,Q263,222-14 JAMAICA AVENUE,QUEENS,11428,,,,
29Q195,P.S. 195 William Haberle,253-50 149 AVENUE,QUEENS,11422,Q195,253-50 149 AVENUE,QUEENS,11422,,,,
29Q208,P.S. / I.S. 208,74-30 COMMONWEALTH BLVD,QUEENS,11426,Q270,233-15 MERRICK BOULEVARD,QUEENS,11422,,,,
29Q238,I.S. 238 - Susan B. Anthony Academy,88-15 182 STREET,QUEENS,11423,Q238,88-15 182 STREET,QUEENS,11423,,,,
29Q243,Institute for Health Professions at Cambria Heights,207- 01 116TH AVENUE,QUEENS,11411,Q420,143-10 SPRINGFIELD BOULEVARD,QUEENS,11413,Q690,116-25 GUY R BREWER BOULEVARD,QUEENS,11434
29Q248,Queens Preparatory Academy,143-10 SPRINGFIELD BOULEVARD,QUEENS,11413,Q420,143-10 SPRINGFIELD BOULEVARD,QUEENS,11413,,,,
29Q251,P.S. 251 Queens,144-51 ARTHUR STREET,QUEENS,11413,Q195,253-50 149 AVENUE,QUEENS,11422,,,,
29Q259,Pathways College Preparatory School: A College Board School,109-89 204 STREET,QUEENS,11412,Q192,109-89 204 STREET,QUEENS,11412,,,,
29Q265,Excelsior Preparatory High School,143-10 SPRINGFIELD BOULEVARD,QUEENS,11413,Q420,143-10 SPRINGFIELD BOULEVARD,QUEENS,11413,,,,
29Q268,PS/IS 268,92-07 175 STREET,QUEENS,11433,Q268,92-07 175 STREET,QUEENS,11433,,,,
29Q270,The Gordon Parks School,233-15 MERRICK BOULEVARD,QUEENS,11422,Q270,233-15 MERRICK BOULEVARD,QUEENS,11422,,,,
29Q272,George Washington Carver High School for the Sciences,143-10 SPRINGFIELD BOULEVARD,QUEENS,11413,Q420,143-10 SPRINGFIELD BOULEVARD,QUEENS,11413,,,,
29Q283,Preparatory Academy for Writers: A College Board School,143-10 SPRINGFIELD BOULEVARD,QUEENS,11413,Q420,143-10 SPRINGFIELD BOULEVARD,QUEENS,11413,,,,
29Q289,Queens United Middle School,229-02 137 AVENUE,QUEENS,11413,Q195,253-50 149 AVENUE,QUEENS,11422,,,,
29Q295,P.S./I.S. 295,222-14 JAMAICA AVENUE,QUEENS,11428,Q263,222-14 JAMAICA AVENUE,QUEENS,11428,,,,
29Q326,Cambria Heights Academy,188-04 91ST AVENUE,QUEENS,11423,Q891,47-07 30 PLACE,QUEENS,11101,,,,
29Q327,Eagle Academy for Young Men III,171-10 LINDEN BOULEVARD,QUEENS,11434,Q633,171-10 LINDEN BOULEVARD,QUEENS,11434,,,,
29Q355,Collaborative Arts Middle School,145-00 SPRINGFIELD BOULEVARD,QUEENS,11413,Q059,132-55 RIDGEDALE STREET,QUEENS,11413,,,,
29Q356,Community Voices Middle School,145-00 SPRINGFIELD BOULEVARD,QUEENS,11413,Q059,132-55 RIDGEDALE STREET,QUEENS,11413,,,,
29Q492,"Mathematics, Science Research and Technology Magnet High School",207- 01 116TH AVENUE,QUEENS,11411,Q420,143-10 SPRINGFIELD BOULEVARD,QUEENS,11413,,,,
29Q494,"Law, Government and Community Service High School",207- 01 116TH AVENUE,QUEENS,11411,Q415,57-00 223RD STREET,BAYSIDE,11364,,,,
29Q496,"Business, Computer Applications & Entrepreneurship High School",207- 01 116TH AVENUE,QUEENS,11411,Q420,143-10 SPRINGFIELD BOULEVARD,QUEENS,11413,,,,
29Q498,Humanities & Arts Magnet High School,207- 01 116TH AVENUE,QUEENS,11411,Q620,165-65 84 AVENUE,QUEENS,11432,,,,
30Q002,P.S. 002 Alfred Zimberg,75-10 21 AVENUE,QUEENS,11370,Q234,30-15 29 STREET,QUEENS,11102,,,,
30Q010,I.S. 010 Horace Greeley,45-11 31ST AVE,QUEENS,11103,Q010,45-11 31ST AVE,QUEENS,11103,,,,
30Q011,P.S. 011 Kathryn Phelan,54-25 SKILLMAN AVENUE,QUEENS,11377,Q150,40-01 43 AVENUE,QUEENS,11104,,,,
30Q017,P.S. 017 Henry David Thoreau,28-37 29 STREET,QUEENS,11102,Q234,30-15 29 STREET,QUEENS,11102,,,,
30Q069,P.S. 069 Jackson Heights,77-02 37 AVENUE,QUEENS,11372,Q212,34-25 82 STREET,QUEENS,11372,,,,
30Q070,P.S. 070 Queens,30-45 42 STREET,QUEENS,11103,Q234,30-15 29 STREET,QUEENS,11102,,,,
30Q076,P.S. 076 William Hallet,36-36 10 STREET,QUEENS,11106,Q166,33-09 35 AVENUE,QUEENS,11106,Q186,252-12 72 AVENUE,QUEENS,11426
30Q078,P.S./I.S. 78Q,48-09 CENTER BOULEVARD,QUEENS,11109,Q166,33-09 35 AVENUE,QUEENS,11106,,,,
30Q084,P.S. 084 Steinway,22-45 41 STREET,QUEENS,11105,Q234,30-15 29 STREET,QUEENS,11102,Q010,45-11 31ST AVE,QUEENS,11103
30Q085,P.S. 085 Judge Charles Vallone,23-70 31 STREET,QUEENS,11105,Q234,30-15 29 STREET,QUEENS,11102,,,,
30Q092,P.S. 092 Harry T. Stewart Sr.,99-01 34 AVENUE,QUEENS,11368,Q212,34-25 82 STREET,QUEENS,11372,,,,
30Q111,P.S. 111 Jacob Blackwell,37-15 13 STREET,QUEENS,11101,Q166,33-09 35 AVENUE,QUEENS,11106,Q204,36-41 28 STREET,QUEENS,11106
30Q112,P.S. 112 Dutch Kills,25-05 37 AVENUE,QUEENS,11101,Q204,36-41 28 STREET,QUEENS,11106,,,,
30Q122,P.S. 122 Mamie Fay,21-21 DITMARS BOULEVARD,QUEENS,11105,Q234,30-15 29 STREET,QUEENS,11102,,,,
30Q126,Albert Shanker School for Visual and Performing Arts,31-51 21 STREET,QUEENS,11106,Q010,45-11 31ST AVE,QUEENS,11103,,,,
30Q127,P.S. 127 Aerospace Science Magne,98-01 25 AVENUE,QUEENS,11369,Q212,34-25 82 STREET,QUEENS,11372,Q145,33-34 80 STREET,QUEENS,11372
30Q141,I.S. 141 The Steinway,37-11 21 AVENUE,QUEENS,11105,Q010,45-11 31ST AVE,QUEENS,11103,,,,
30Q145,I.S. 145 Joseph Pulitzer,33-34 80 STREET,QUEENS,11372,Q145,33-34 80 STREET,QUEENS,11372,,,,
30Q148,P.S. 148 Queens,89-02 32 AVENUE,QUEENS,11369,Q212,34-25 82 STREET,QUEENS,11372,,,,
30Q149,P.S. 149 Christa Mcauliffe,93-11 34 AVENUE,QUEENS,11372,Q212,34-25 82 STREET,QUEENS,11372,,,,
30Q150,P.S. 150 Queens,40-01 43 AVENUE,QUEENS,11104,Q150,40-01 43 AVENUE,QUEENS,11104,,,,
30Q151,P.S. 151 Mary D. Carter,50-05 31 AVENUE,QUEENS,11377,Q166,33-09 35 AVENUE,QUEENS,11106,,,,
30Q152,P.S. 152 Gwendoline N. Alleyne School,33-52 62 STREET,QUEENS,11377,Q150,40-01 43 AVENUE,QUEENS,11104,,,,
30Q166,P.S. 166 Henry Gradstein,33-09 35 AVENUE,QUEENS,11106,Q166,33-09 35 AVENUE,QUEENS,11106,,,,
30Q171,P.S. 171 Peter G. Van Alst,14-14 29 AVENUE,QUEENS,11102,Q234,30-15 29 STREET,QUEENS,11102,,,,
30Q204,I.S. 204 Oliver W. Holmes,36-41 28 STREET,QUEENS,11106,Q204,36-41 28 STREET,QUEENS,11106,,,,
30Q212,P.S. 212,34-25 82 STREET,QUEENS,11372,Q212,34-25 82 STREET,QUEENS,11372,,,,
30Q227,I.S. 227 Louis Armstrong,32-02 JUNCTION BOULEVARD,QUEENS,11369,Q145,33-34 80 STREET,QUEENS,11372,Q212,34-25 82 STREET,QUEENS,11372
30Q230,I.S. 230,73-10 34 AVENUE,JACKSON HEIGHTS,11372,Q145,33-34 80 STREET,QUEENS,11372,,,,
30Q234,P.S. 234,30-15 29 STREET,QUEENS,11102,Q234,30-15 29 STREET,QUEENS,11102,,,,
30Q235,Academy for New Americans,30-14 30 STREET,QUEENS,11102,Q234,30-15 29 STREET,QUEENS,11102,,,,
30Q258,Energy Tech High School,36-41 28 STREET,QUEENS,11106,Q450,28-01 41 AVENUE,QUEENS,11101,,,,
30Q280,P.S. 280,34-20 94TH STREET,QUEENS,11372,Q212,34-25 82 STREET,QUEENS,11372,,,,
30Q286,"Young Women's Leadership School, Astoria",23-15 NEWTOWN AVENUE,QUEENS,11102,Q010,45-11 31ST AVE,QUEENS,11103,Q452,14-30 BROADWAY,QUEENS,11106
30Q291,Hunters Point Community Middle School,1-50 51ST AVENUE,QUEENS,11101,Q204,36-41 28 STREET,QUEENS,11106,,,,
30Q301,Academy for Careers in Television and Film,1-50 51ST AVENUE,QUEENS,11101,Q404,1-50 51ST AVENUE,QUEENS,11101,,,,
30Q445,William Cullen Bryant High School,48-10 31 AVENUE,QUEENS,11103,Q445,48-10 31 AVENUE,QUEENS,11103,,,,
30Q450,Long Island City High School,14-30 BROADWAY,QUEENS,11106,Q452,14-30 BROADWAY,QUEENS,11106,,,,
30Q501,Frank Sinatra School of the Arts High School,35-12 35TH AVENUE,QUEENS,11106,Q570,35-12 35TH AVENUE,QUEENS,11106,,,,
30Q502,Information Technology High School,21-16 44TH ROAD,QUEENS,11101,Q650,94-06 104TH STREET,QUEENS,11416,,,,
30Q555,Newcomers High School,28-01 41 AVENUE,QUEENS,11101,Q450,28-01 41 AVENUE,QUEENS,11101,,,,
30Q575,Academy of American Studies,28-04 41 AVENUE,LONG ISLAND CITY,11101,Q450,28-01 41 AVENUE,QUEENS,11101,,,,
30Q580,Baccalaureate School for Global Education,34-12 36 AVENUE,QUEENS,11106,Q570,35-12 35TH AVENUE,QUEENS,11106,,,,
31R001,P.S. 001 Tottenville,58 SUMMIT STREET,STATEN ISLAND,10307,R056,250 KRAMER AVENUE,STATEN ISLAND,10309,,,,
31R002,I.S. R002 George L. Egbert,333 MIDLAND AVENUE,STATEN ISLAND,10306,R002,333 MIDLAND AVENUE,STATEN ISLAND,10306,,,,
31R003,P.S. 003 The Margaret Gioiosa School,80 SOUTH GOFF AVENUE,STATEN ISLAND,10309,R056,250 KRAMER AVENUE,STATEN ISLAND,10309,,,,
31R004,P.S. 004 Maurice Wollin,200 NEDRA LANE,STATEN ISLAND,10312,R056,250 KRAMER AVENUE,STATEN ISLAND,10309,,,,
31R005,P.S. 005 Huguenot,348 DEISIUS STREET,STATEN ISLAND,10312,R056,250 KRAMER AVENUE,STATEN ISLAND,10309,,,,
31R006,P.S. 6 Corporal Allan F. Kivlehan School,555 PAGE AVENUE,STATEN ISLAND,10307,R056,250 KRAMER AVENUE,STATEN ISLAND,10309,,,,
31R007,I.S. 007 Elias Bernstein,1270 HUGUENOT AVENUE,STATEN ISLAND,10312,R072,33 FERNDALE AVENUE,STATEN ISLAND,10314,,,,
31R008,P.S. 8 Shirlee Solomon,112 LINDENWOOD ROAD,STATEN ISLAND,10308,R056,250 KRAMER AVENUE,STATEN ISLAND,10309,,,,
31R009,Naples Street Elementary School,1055 TARGEE STREET,STATEN ISLAND,10304,R880,715 OCEAN TERRACE,STATEN ISLAND,10301,,,,
31R011,P.S. 11 Thomas Dongan School,50 JEFFERSON STREET,STATEN ISLAND,10304,R013,191 VERMONT AVENUE,STATEN ISLAND,10305,,,,
31R013,P.S. 013 M. L. Lindemeyer,191 VERMONT AVENUE,STATEN ISLAND,10305,R013,191 VERMONT AVENUE,STATEN ISLAND,10305,,,,
31R014,P.S. 014 Cornelius Vanderbilt,100 TOMPKINS AVENUE,STATEN ISLAND,10304,R014,100 TOMPKINS AVENUE,STATEN ISLAND,10304,,,,
31R016,P.S. 016 John J. Driscoll,80 MONROE AVENUE,STATEN ISLAND,10301,R013,191 VERMONT AVENUE,STATEN ISLAND,10305,,,,
31R018,P.S. 018 John G. Whittier,221 BROADWAY,STATEN ISLAND,10310,R022,1860 FOREST AVENUE,STATEN ISLAND,10303,,,,
31R019,P.S. 019 The Curtis School,780 POST AVENUE,STATEN ISLAND,10310,R022,1860 FOREST AVENUE,STATEN ISLAND,10303,,,,
31R020,P.S. 020 Port Richmond,161 PARK AVENUE,STATEN ISLAND,10302,R022,1860 FOREST AVENUE,STATEN ISLAND,10303,,,,
31R021,P.S. 21 Margaret Emery-Elm Park,168 HOOKER PLACE,STATEN ISLAND,10303,R022,1860 FOREST AVENUE,STATEN ISLAND,10303,,,,
31R022,P.S. 022 Graniteville,1860 FOREST AVENUE,STATEN ISLAND,10303,R022,1860 FOREST AVENUE,STATEN ISLAND,10303,,,,
31R023,P.S. 023 Richmondtown,30 NATICK STREET,STATEN ISLAND,10306,R058,77 MARSH AVENUE,STATEN ISLAND,10314,,,,
31R024,I.S. 024 Myra S. Barnes,225 CLEVELAND AVENUE,STATEN ISLAND,10308,R072,33 FERNDALE AVENUE,STATEN ISLAND,10314,,,,
31R026,P.S. 026 The Carteret School,4108 VICTORY BOULEVARD,STATEN ISLAND,10314,R022,1860 FOREST AVENUE,STATEN ISLAND,10303,,,,
31R027,I.S. 027 Anning S. Prall,11 CLOVE LAKE PLACE,STATEN ISLAND,10310,R445,85 ST JOSEPHS AVENUE,STATEN ISLAND,10302,,,,
31R029,P.S. 029 Bardwell,1581 VICTORY BOULEVARD,STATEN ISLAND,10314,R058,77 MARSH AVENUE,STATEN ISLAND,10314,,,,
31R030,P.S. 030 Westerleigh,200 WARDWELL AVENUE,STATEN ISLAND,10314,R022,1860 FOREST AVENUE,STATEN ISLAND,10303,,,,
31R031,P.S. 031 William T. Davis,55 LAYTON AVENUE,STATEN ISLAND,10301,R022,1860 FOREST AVENUE,STATEN ISLAND,10303,,,,
31R032,P.S. 032 The Gifford School,32 ELVERTON AVENUE,STATEN ISLAND,10308,R880,715 OCEAN TERRACE,STATEN ISLAND,10301,,,,
31R034,I.S. 034 Tottenville,528 ACADEMY AVENUE,STATEN ISLAND,10307,R072,33 FERNDALE AVENUE,STATEN ISLAND,10314,,,,
31R035,P.S. 35 The Clove Valley School,60 FOOTE AVENUE,STATEN ISLAND,10301,R880,715 OCEAN TERRACE,STATEN ISLAND,10301,,,,
31R036,P.S. 036 J. C. Drumgoole,255 IONIA AVENUE,STATEN ISLAND,10312,R056,250 KRAMER AVENUE,STATEN ISLAND,10309,,,,
31R038,P.S. 038 George Cromwell,421 LINCOLN AVENUE,STATEN ISLAND,10306,R058,77 MARSH AVENUE,STATEN ISLAND,10314,,,,
31R039,P.S. 39 Francis J. Murphy Jr.,71 SAND LANE,STATEN ISLAND,10305,R013,191 VERMONT AVENUE,STATEN ISLAND,10305,,,,
31R041,P.S. 041 New Dorp,216 CLAWSON STREET,STATEN ISLAND,10306,R058,77 MARSH AVENUE,STATEN ISLAND,10314,,,,
31R042,P.S. 042 Eltingville,380 GENESEE AVENUE,STATEN ISLAND,10312,R056,250 KRAMER AVENUE,STATEN ISLAND,10309,,,,
31R044,P.S. 044 Thomas C. Brown,80 MAPLE PARKWAY,STATEN ISLAND,10303,R022,1860 FOREST AVENUE,STATEN ISLAND,10303,,,,
31R045,P.S. 045 John Tyler,58 LAWRENCE AVENUE,STATEN ISLAND,10310,R880,715 OCEAN TERRACE,STATEN ISLAND,10301,,,,
31R046,P.S. 046 Albert V. Maniscalco,41 REID AVENUE,STATEN ISLAND,10305,R013,191 VERMONT AVENUE,STATEN ISLAND,10305,,,,
31R047,CSI High School for International Studies,100 ESSEX DRIVE,STATEN ISLAND,10314,R043,100 ESSEX DRIVE,STATEN ISLAND,10314,,,,
31R048,P.S. 048 William C. Wilcox,1050 Targee Street,Staten Island,10304,R880,715 OCEAN TERRACE,STATEN ISLAND,10301,,,,
31R049,I.S. 49 Berta A. Dreyfus,101 WARREN STREET,STATEN ISLAND,10304,R002,333 MIDLAND AVENUE,STATEN ISLAND,10306,,,,
31R050,P.S. 050 Frank Hankinson,200 ADELAIDE AVENUE,STATEN ISLAND,10306,R058,77 MARSH AVENUE,STATEN ISLAND,10314,,,,
31R051,I.S. 051 Edwin Markham,20 HOUSTON STREET,STATEN ISLAND,10302,R445,85 ST JOSEPHS AVENUE,STATEN ISLAND,10302,,,,
31R052,P.S. 052 John C. Thompson,450 BUEL AVENUE,STATEN ISLAND,10305,R058,77 MARSH AVENUE,STATEN ISLAND,10314,,,,
31R053,P.S. 053 Bay Terrace,330 DURANT AVENUE,STATEN ISLAND,10308,R058,77 MARSH AVENUE,STATEN ISLAND,10314,,,,
31R054,P.S. 054 Charles W. Leng,1060 WILLOWBROOK ROAD,STATEN ISLAND,10314,R058,77 MARSH AVENUE,STATEN ISLAND,10314,,,,
31R055,P.S. 055 Henry M. Boehm,54 OSBORNE STREET,STATEN ISLAND,10312,R056,250 KRAMER AVENUE,STATEN ISLAND,10309,,,,
31R056,P.S. 56 The Louis Desario School,250 KRAMER AVENUE,STATEN ISLAND,10309,R056,250 KRAMER AVENUE,STATEN ISLAND,10309,,,,
31R057,P.S. 057 Hubert H. Humphrey,140 PALMA DRIVE,STATEN ISLAND,10304,R022,1860 FOREST AVENUE,STATEN ISLAND,10303,,,,
31R058,Space Shuttle Columbia School,77 MARSH AVENUE,STATEN ISLAND,10314,R058,77 MARSH AVENUE,STATEN ISLAND,10314,,,,
31R060,P.S. 060 Alice Austen,55 MERRILL AVENUE,STATEN ISLAND,10314,R058,77 MARSH AVENUE,STATEN ISLAND,10314,,,,
31R061,I.S. 061 William A Morris,445 CASTLETON AVENUE,STATEN ISLAND,10301,R880,715 OCEAN TERRACE,STATEN ISLAND,10301,,,,
31R063,Marsh Avenue School for Expeditionary Learning,100 ESSEX DRIVE,STATEN ISLAND,10314,R880,715 OCEAN TERRACE,STATEN ISLAND,10301,,,,
31R064,Gaynor McCown Expeditionary Learning School,100 ESSEX DRIVE,STATEN ISLAND,10314,R460,1200 MANOR ROAD,STATEN ISLAND,10314,,,,
31R065,P.S. 65 The Academy of Innovative Learning,98 GRANT STREET,STATEN ISLAND,10301,R880,715 OCEAN TERRACE,STATEN ISLAND,10301,,,,
31R069,P.S. 069 Daniel D. Tompkins,144 KEATING PLACE,STATEN ISLAND,10314,R058,77 MARSH AVENUE,STATEN ISLAND,10314,,,,
31R072,I.S. 072 Rocco Laurie,33 FERNDALE AVENUE,STATEN ISLAND,10314,R072,33 FERNDALE AVENUE,STATEN ISLAND,10314,,,,
31R074,P.S. 74 FUTURE LEADERS ELEMENTARY SCHOOL,211 DANIEL LOW TERRACE,STATEN ISLAND,10301,R022,1860 FOREST AVENUE,STATEN ISLAND,10303,,,,
31R075,I.S. 075 Frank D. Paulo,455 HUGUENOT AVENUE,STATEN ISLAND,10312,R072,33 FERNDALE AVENUE,STATEN ISLAND,10314,,,,
31R078,PS 78,100 TOMPKINS AVENUE,STATEN ISLAND,10304,R014,100 TOMPKINS AVENUE,STATEN ISLAND,10304,,,,
31R080,The Michael J. Petrides School,715 OCEAN TERRACE,STATEN ISLAND,10301,R880,715 OCEAN TERRACE,STATEN ISLAND,10301,,,,
31R440,New Dorp High School,465 NEW DORP LANE,STATEN ISLAND,10306,R435,465 NEW DORP LANE,STATEN ISLAND,10306,,,,
31R445,Port Richmond High School,85 ST JOSEPHS AVENUE,STATEN ISLAND,10302,R445,85 ST JOSEPHS AVENUE,STATEN ISLAND,10302,,,,
31R450,Curtis High School,105 HAMILTON AVENUE,STATEN ISLAND,10301,R450,105 HAMILTON AVENUE,STATEN ISLAND,10301,,,,
31R455,Tottenville High School,100 LUTEN AVENUE,STATEN ISLAND,10312,R460,1200 MANOR ROAD,STATEN ISLAND,10314,,,,
31R460,Susan E. Wagner High School,1200 MANOR ROAD,STATEN ISLAND,10314,R460,1200 MANOR ROAD,STATEN ISLAND,10314,,,,
31R470,Concord High School,109 RHINE AVENUE,STATEN ISLAND,10304,R450,105 HAMILTON AVENUE,STATEN ISLAND,10301,,,,
31R600,Ralph R. McKee Career and Technical Education High School,290 ST MARKS PLACE,STATEN ISLAND,10301,R450,105 HAMILTON AVENUE,STATEN ISLAND,10301,,,,
31R605,Staten Island Technical High School,485 CLAWSON STREET,STATEN ISLAND,10306,R440,485 CLAWSON STREET,STATEN ISLAND,10306,,,,
31R607,Staten Island Yabc,100 LUTEN AVENUE,STATEN ISLAND,10312,R460,1200 MANOR ROAD,STATEN ISLAND,10314,,,,
31R861,Staten Island School of Civic Leadership,280 REGIS DRIVE,STATEN ISLAND,10314,R880,715 OCEAN TERRACE,STATEN ISLAND,10301,,,,
32K045,P.S./I.S. 045 Horace E. Greene,84 SCHAEFER STREET,BROOKLYN,11207,K384,242 COOPER STREET,BROOKLYN,11207,,,,
32K075,P.S. 075 Mayda Cortiella,95 GROVE STREET,BROOKLYN,11221,K106,1328 PUTNAM AVENUE,BROOKLYN,11221,,,,
32K086,P.S. 086 The Irvington,220 IRVING AVENUE,BROOKLYN,11237,K376,194 HARMAN STREET,BROOKLYN,11237,,,,
32K106,P.S. 106 Edward Everett Hale,1328 PUTNAM AVENUE,BROOKLYN,11221,K106,1328 PUTNAM AVENUE,BROOKLYN,11221,,,,
32K116,P.S. 116 Elizabeth L Farrell,515 KNICKERBOCKER AVENUE,BROOKLYN,11237,K376,194 HARMAN STREET,BROOKLYN,11237,,,,
32K123,P.S. 123 Suydam,100 IRVING AVENUE,BROOKLYN,11237,K376,194 HARMAN STREET,BROOKLYN,11237,,,,
32K145,P.S. 145 Andrew Jackson,100 NOLL STREET,BROOKLYN,11206,K376,194 HARMAN STREET,BROOKLYN,11237,,,,
32K151,P.S. 151 Lyndon B. Johnson,763 KNICKERBOCKER AVENUE,BROOKLYN,11207,K106,1328 PUTNAM AVENUE,BROOKLYN,11221,,,,
32K162,J.H.S. 162 The Willoughby,1390 WILLOUGHBY AVENUE,BROOKLYN,11237,K111,35 STARR STREET,BROOKLYN,11221,,,,
32K274,P.S. 274 Kosciusko,800 BUSHWICK AVENUE,BROOKLYN,11221,K376,194 HARMAN STREET,BROOKLYN,11237,,,,
32K291,J.H.S. 291 Roland Hayes,231 PALMETTO STREET,BROOKLYN,11221,K291,231 PALMETTO STREET,BROOKLYN,11221,,,,
32K296,I.S. 296 - The Anna Gonzalez Community School,125 COVERT STREET,BROOKLYN,11207,K291,231 PALMETTO STREET,BROOKLYN,11221,,,,
32K299,P.S. 299 Thomas Warren Field,88 WOODBINE STREET,BROOKLYN,11221,K106,1328 PUTNAM AVENUE,BROOKLYN,11221,,,,
32K347,I.S. 347 School of Humanities,35 STARR STREET,BROOKLYN,11221,K111,35 STARR STREET,BROOKLYN,11221,,,,
32K349,"I.S. 349 Math, Science & Tech.",35 STARR STREET,BROOKLYN,11221,K384,242 COOPER STREET,BROOKLYN,11207,,,,
32K376,P.S. 376,194 HARMAN STREET,BROOKLYN,11237,K376,194 HARMAN STREET,BROOKLYN,11237,,,,
32K377,P.S. 377 Alejandrina B. De Gautier,200 WOODBINE STREET,BROOKLYN,11221,K106,1328 PUTNAM AVENUE,BROOKLYN,11221,K291,231 PALMETTO STREET,BROOKLYN,11221
32K383,J.H.S. 383 Philippa Schuyler,1300 GREENE AVENUE,BROOKLYN,11237,K376,194 HARMAN STREET,BROOKLYN,11237,,,,
32K384,P.S. /I.S. 384 Frances E. Carter,242 COOPER STREET,BROOKLYN,11207,K384,242 COOPER STREET,BROOKLYN,11207,,,,
32K403,Academy for Environmental Leadership,400 IRVING AVENUE,BROOKLYN,11237,K480,400 IRVING AVENUE,BROOKLYN,11237,,,,
32K545,EBC High School for Public Service - Bushwick,1155 DEKALB AVENUE,BROOKLYN,11221,K913,1155 DEKALB AVENUE,BROOKLYN,11221,,,,
32K549,Bushwick School for Social Justice,400 IRVING AVENUE,BROOKLYN,11237,K480,400 IRVING AVENUE,BROOKLYN,11237,,,,
32K552,Academy of Urban Planning,400 IRVING AVENUE,BROOKLYN,11237,K480,400 IRVING AVENUE,BROOKLYN,11237,,,,
32K554,All City Leadership Secondary School,321 PALMETTO STREET,BROOKLYN,11237,K291,231 PALMETTO STREET,BROOKLYN,11221,K480,400 IRVING AVENUE,BROOKLYN,11237
32K556,Bushwick Leaders High School for Academic Excellence,797 BUSHWICK AVENUE,BROOKLYN,11221,K913,1155 DEKALB AVENUE,BROOKLYN,11221,,,,
32K562,Evergreen Middle School for Urban Exploration,125 COVERT STREET,BROOKLYN,11207,K384,242 COOPER STREET,BROOKLYN,11207,,,,
32K564,Bushwick Community High School,231 PALMETTO STREET,BROOKLYN,11221,K291,231 PALMETTO STREET,BROOKLYN,11221,,,,
